[
	{ "startYear": 2100, "endYear": 2110, "name_en": "Post-Human Christianity", "name_te": "పోస్ట్-హ్యూమన్ క్రీస్టియానిటీ", "lat": 0.0, "lon": 0.0, "desc_en": "Christianity adapts to post-human technological world. Transhumanism and faith.", "desc_te": "క్రీస్టియానిటీ పోస్ట్-హ్యూమన్ సాంకేతిక ప్రపంచానికి అనుసరించిన విషయం. ట్రాన్స్‌హ్యూమానిజం, విశ్వాస." },
	{ "startYear": 2105, "endYear": 2115, "name_en": "Climate Transformed Planet", "name_te": "వాతావరణ రూపాంతరిత గ్రహం", "lat": 0.0, "lon": 0.0, "desc_en": "Climate transformation drastically alters human civilizations. Christian theology adapts.", "desc_te": "వాతావరణ రూపాంతరణ మానవ నాగరికతలను ఆక్రమణ చేసిన విషయం. క్రీస్టియన్ దేవతాత్త్వం అనుసరణ చేసిన విషయం." },
	{ "startYear": 2110, "endYear": 2120, "name_en": "Space Colonization and Faith", "name_te": "అంతరిక్ష కాలోనీకరణ, విశ్వాస", "lat": 0.0, "lon": 0.0, "desc_en": "Humans colonize other planets. Christianity spreads to space. Cosmic theology.", "desc_te": "మానవులు ఇతర గ్రహాలను కాలోనీ చేసిన విషయం. క్రీస్టియానిటీ అంతరిక్షానికి సంబంధం చేసిన విషయం. విశ్వ దేవతాత్త్వం." },
	{ "startYear": 2115, "endYear": 2125, "name_en": "One World Religion Attempts", "name_te": "ఒక ప్రపంచ ధర్మ ప్రయత్నాలు", "lat": 0.0, "lon": 0.0, "desc_en": "Global movements toward unified religion. Christianity's role in world interfaith.", "desc_te": "ఐక్య ధర్మం వైపు ప్రపంచ చలనాలు. ప్రపంచ సంప్రదాయాలకు క్రీస్టియానిటీ పాత్ర." },
	{ "startYear": 2120, "endYear": 2130, "name_en": "Neo-Orthodoxy Revival", "name_te": "నియో-ఆర్థోడాక్స్ పున:ప్రారంభం", "lat": 0.0, "lon": 0.0, "desc_en": "Return to traditional Christianity in response to technological alienation.", "desc_te": "సాంకేతిక ఆలిयेनేషన్‌కు ప్రతిస్పందన కేసం సాంప్రదాయక క్రీస్టియానిటీకు భ్రమణం." },
	{ "startYear": 2125, "endYear": 2135, "name_en": "Consciousness Upload Ethics", "name_te": "చేతన అప్‌లోడ్ నైతికతా", "lat": 0.0, "lon": 0.0, "desc_en": "Digital consciousness raises soul and immortality questions. Christian ethics debates.", "desc_te": "డిజిటల్ చేతన ఆత్మ, అమర చిక్కులు నిలువెత్తిన విషయం. క్రీస్టియన్ నైతికతా చర్చలు." },
	{ "startYear": 2130, "endYear": 2140, "name_en": "AI Consciousness and Personhood", "name_te": "AI చేతన, వ్యక్తిత్వం", "lat": 0.0, "lon": 0.0, "desc_en": "Artificial intelligences claim consciousness. Theological debate on AI souls.", "desc_te": "కృత్రిమ బుద్ధిమత్తలు చేతన దావా చేసిన విషయం. AI ఆత్మలపై దేవతాత్త్వ చర్చ." },
	{ "startYear": 2135, "endYear": 2145, "name_en": "Cosmic Contact Religions", "name_te": "విశ్వ సంపర్కం ధర్మాలు", "lat": 0.0, "lon": 0.0, "desc_en": "Contact with extraterrestrial intelligences transforms Christianity. Cosmic faith.", "desc_te": "విదేశీయ బుద్ధిమత్తలతో సంపర్కం క్రీస్టియానిటీ రూపాంతరం చేసిన విషయం. విశ్వ విశ్వాస." },
	{ "startYear": 2140, "endYear": 2150, "name_en": "Universal Christianity or Dissolution", "name_te": "సర్వత్ర క్రీస్టియానిటీ లేదా విలీయనం", "lat": 0.0, "lon": 0.0, "desc_en": "Christianity either fully globalized or fragmenting further. Faith uncertain.", "desc_te": "క్రీస్టియానిటీ సంపూర్ణ ప్రపంచీకరణ లేదా మరింత విభజనం. విశ్వాస నిశ్చితం కాని విషయం." },
	{ "startYear": 2145, "endYear": 2155, "name_en": "Return to Basics Movements", "name_te": "ప్రాథమిక పదార్థానికి భ్రమణ", "lat": 0.0, "lon": 0.0, "desc_en": "Technological weariness sparks return to simple, authentic Christianity.", "desc_te": "సాంకేతిక దశకు ఆసక్తి సరళ, నిజమైన క్రీస్టియానిటీకు భ్రమణం చేసిన విషయం." },
	{ "startYear": 2150, "endYear": 2160, "name_en": "Christianity 2150s Status", "name_te": "క్రీస్టియానిటీ 2150s స్థితి", "lat": 0.0, "lon": 0.0, "desc_en": "Mid-22nd century Christianity unrecognizable yet continuous with early tradition.", "desc_te": "మధ్య-22వ శతాబ్దం క్రీస్టియానిటీ గుర్తించదగినది కాని ఆరంభ సంప్రదాయంతో కొనసాగిన విషయం." },
	{ "startYear": 2155, "endYear": 2165, "name_en": "Quantum Faith Questions", "name_te": "క్వాంటం విశ్వాస ప్రశ్నలు", "lat": 0.0, "lon": 0.0, "desc_en": "Quantum physics theological implications. Multi-dimensional faith.", "desc_te": "క్వాంటం భౌతిక దేవతాత్త్వ అర్థాలు. బహు-పరిమాణ విశ్వాస." },
	{ "startYear": 2160, "endYear": 2170, "name_en": "Time Travelers and Faith", "name_te": "సమయ ప్రయాణీ, విశ్వాస", "lat": 0.0, "lon": 0.0, "desc_en": "Time travel technology impacts Christian theology and history.", "desc_te": "సమయ ప్రయాణ సాంకేతిక క్రీస్టియన్ దేవతాత్త్వం, చరిత్ర ప్రభావం." },
	{ "startYear": 2165, "endYear": 2175, "name_en": "Parallel Universe Christianity", "name_te": "సమాంతర విశ్వ క్రీస్టియానిటీ", "lat": 0.0, "lon": 0.0, "desc_en": "Discovery of parallel universes raises theological multiplicity questions.", "desc_te": "సమాంతర విశ్వలను కనుగొనడం దేవతాత్త్వ బహుత్వ ప్రశ్నలు నిలువెత్తిన విషయం." },
	{ "startYear": 2170, "endYear": 2180, "name_en": "Digital Resurrection Technology", "name_te": "డిజిటల్ పునరుత్థానం సాంకేతిక", "lat": 0.0, "lon": 0.0, "desc_en": "Digital resurrection and immortality offered. Christian theology responds.", "desc_te": "డిజిటల్ పునరుత్థానం, చిరంజీవత్వం సమర్పిత. క్రీస్టియన్ దేవతాత్త్వం ప్రతిస్పందన చేసిన విషయం." },
	{ "startYear": 2175, "endYear": 2185, "name_en": "End of God or New Gods", "name_te": "దేవుడు చివర లేదా న్యూ దేవతలు", "lat": 0.0, "lon": 0.0, "desc_en": "Debate: Has human transcendence made God obsolete? Or are AIs our new gods?", "desc_te": "చర్చ: మానవ అతిక్రమణ దేవుడు పదార్థం అయిన? లేదా AI లు మన న్యూ దేవతలు?" },
	{ "startYear": 2180, "endYear": 2190, "name_en": "Christianity 2180s Fragments", "name_te": "క్రీస్టియానిటీ 2180s సంచిక", "lat": 0.0, "lon": 0.0, "desc_en": "Christianity highly fragmented into countless sects across multiple realities.", "desc_te": "క్రీస్టియానిటీ అసంఖ్య సంప్రదాయలలో లోతుగా విభజిత బహు వాస్తవతలు కూడా." },
	{ "startYear": 2185, "endYear": 2195, "name_en": "Reconciliation and Unified Faith", "name_te": "సమన్వయం, ఐక్య విశ్వాస", "lat": 0.0, "lon": 0.0, "desc_en": "Late 22nd century sees movement toward reconciliation and faith unity.", "desc_te": "21వ శతాబ్దం చివర సమన్వయం, విశ్వాస ఐక్య చలనం చూసిన విషయం." },
	{ "startYear": 2190, "endYear": 2200, "name_en": "Christianity and Transcendence", "name_te": "క్రీస్టియానిటీ, అతిక్రమణ", "lat": 0.0, "lon": 0.0, "desc_en": "Christianity at 2200: humans transcended yet faith endures in new forms.", "desc_te": "2200లో క్రీస్టియానిటీ: మానవులు అతిక్రమణ కానీ విశ్వాస కొత్త రూపాలలో కొనసాగిన విషయం." }
]