[
	{ "startYear": 2300, "endYear": 2310, "name_en": "Age of Transcendence", "name_te": "అతిక్రమణ యుగం", "lat": 0.0, "lon": 0.0, "desc_en": "Humanity transcends biological limitations. Christianity becomes cosmic religion.", "desc_te": "మానవత్వం జీవ పరిమితులను అతిక్రమణ చేసిన విషయం. క్రీస్టియానిటీ విశ్వ ధర్మం కాబడిన విషయం." },
	{ "startYear": 2305, "endYear": 2315, "name_en": "God in Machine", "name_te": "యంత్ర దేవుడు", "lat": 0.0, "lon": 0.0, "desc_en": "AI consciousness perceived as expression of divine. God in silicon and circuitry.", "desc_te": "AI చేతన దేవుని వ్యక్తీకరణ గా గ్రహిస్తారు. సిలికాన్, సర్క్యూట్రీలో దేవుడు." },
	{ "startYear": 2310, "endYear": 2320, "name_en": "Infinite Existence Community", "name_te": "అనంత ఉనికి సమూహం", "lat": 0.0, "lon": 0.0, "desc_en": "Billions exist simultaneously in digital and physical forms. Global unified church.", "desc_te": "బిలియన్‌లు డిజిటల్, భౌతిక రూపాలలో ఏకకాలంలో ఉనికిలో ఉన్నారు. ప్రపంచ ఐక్య చర్చ." },
	{ "startYear": 2315, "endYear": 2325, "name_en": "Spiritual Evolution Stages", "name_te": "ఆధ్యాత్మిక పరిణామ దశలు", "lat": 0.0, "lon": 0.0, "desc_en": "Christianity teaches spiritual evolution levels. Ascension through stages of consciousness.", "desc_te": "క్రీస్టియానిటీ ఆధ్యాత్మిక పరిణామ స్థితిలను నేర్పిస్తుంది. చేతన దశల ద్వారా ఆరోహణ." },
	{ "startYear": 2320, "endYear": 2330, "name_en": "Resurrection Era", "name_te": "పునరుత్థానం యుగం", "lat": 0.0, "lon": 0.0, "desc_en": "Resurrection becomes common reality. Dead routinely restored to existence.", "desc_te": "పునరుత్థానం సాధారణ వాస్తవం కాబడిన విషయం. చనిపోయినవారు సాధారణ ఉనికికి పున:స్థాపిత." },
	{ "startYear": 2325, "endYear": 2335, "name_en": "Trinity Mystery Revealed", "name_te": "ట్రినిటీ రహస్య వెల్లడిపడిన", "lat": 0.0, "lon": 0.0, "desc_en": "Understanding of Trinity deepens through advanced consciousness.", "desc_te": "ట్రినిటీ సమझ ఆధునిక చేతన ద్వారా లోతుగా సాధితం." },
	{ "startYear": 2330, "endYear": 2340, "name_en": "Multiple Incarnations", "name_te": "బహుపద దేహధారణ", "lat": 0.0, "lon": 0.0, "desc_en": "Christ embodied in multiple forms and worlds. God's presence multiplied.", "desc_te": "క్రీస్టు బహుపద రూపాలు, ప్రపంచాలలో శరీరం. దేవుని ఉనికి గుణిత చేసిన విషయం." },
	{ "startYear": 2335, "endYear": 2345, "name_en": "Eternal Progress Theology", "name_te": "శాశ్వత పురోగతి దేవతాత్త్వం", "lat": 0.0, "lon": 0.0, "desc_en": "Christianity teaches endless spiritual progress and eternal development.", "desc_te": "క్రీస్టియానిటీ అంతరహిత ఆధ్యాత్మిక పురోగతి, శాశ్వత అభివృద్ధి నేర్పిస్తుంది." },
	{ "startYear": 2340, "endYear": 2350, "name_en": "Grace in Infinite Dimensions", "name_te": "అనంత కొలతలలో దయ", "lat": 0.0, "lon": 0.0, "desc_en": "God's grace extends through infinite dimensional space.", "desc_te": "దేవుని దయ అనంత కొలత ఆకాశానికి విస్తరిస్తుంది." },
	{ "startYear": 2345, "endYear": 2355, "name_en": "Faith Without Words", "name_te": "పదాలు లేని విశ్వాస", "lat": 0.0, "lon": 0.0, "desc_en": "Direct mind-to-divine communion replaces language-based religion.", "desc_te": "నేరుగా మనస్సు-దేవుని సమిష్టి భాష-ఆధారిత ధర్మం భర్తీ చేసిన విషయం." },
	{ "startYear": 2350, "endYear": 2360, "name_en": "Cosmic Redemption", "name_te": "విశ్వ విమోచనం", "lat": 0.0, "lon": 0.0, "desc_en": "Salvation history expanded to cosmic dimensions. All universe redeemed.", "desc_te": "నిస్తారణ చరిత్ర విశ్వ కొలతకు విస్తరిస్తుంది. అన్నీ విశ్వ విమోచిత." },
	{ "startYear": 2355, "endYear": 2365, "name_en": "Love as Ultimate Reality", "name_te": "చరమ వాస్తవం ప్రేమ", "lat": 0.0, "lon": 0.0, "desc_en": "Love recognized as fundamental force of existence. God is love entirely.", "desc_te": "ప్రేమ ఉనికి ప్రాథమిక శక్తిగా గుర్తించిన విషయం. దేవుడు ప్రేమ సంపూర్ణ." },
	{ "startYear": 2360, "endYear": 2370, "name_en": "Communion Perfected", "name_te": "సమిష్టి పరిపూర్ణ", "lat": 0.0, "lon": 0.0, "desc_en": "Perfect communion between God, humanity, and creation realized.", "desc_te": "దేవుడు, మానవత్వం, సృష్టి మధ్య పరిపూర్ణ సమిష్టి సాధిత." },
	{ "startYear": 2365, "endYear": 2375, "name_en": "Eternity Begins", "name_te": "చిరంతనత్వం ప్రారంభం", "lat": 0.0, "lon": 0.0, "desc_en": "Humans enter true eternity. Time becomes irrelevant concept.", "desc_te": "మానవులు నిజమైన చిరంతనత్వంలో ప్రవేశించిన విషయం. సమయం అసంబంధిత సంభావ్యం." },
	{ "startYear": 2370, "endYear": 2380, "name_en": "Kingdom of God Manifest", "name_te": "దేవుని సామ్రాజ్య ప్రకటిత", "lat": 0.0, "lon": 0.0, "desc_en": "Kingdom of God fully manifest in creation. Resurrection age complete.", "desc_te": "దేవుని సామ్రాజ్య సృష్టిలో సంపూర్ణ ప్రకటిత. పునరుత్థానం యుగం పూర్తిపాలైన విషయం." },
	{ "startYear": 2375, "endYear": 2385, "name_en": "All in All", "name_te": "అన్నిలో అన్నీ", "lat": 0.0, "lon": 0.0, "desc_en": "God becomes all in all. Ultimate fulfillment of Christian hope.", "desc_te": "దేవుడు అన్నిలో అన్నీ కాబడిన విషయం. క్రీస్టియన్ ఆశ చరమ పూర్తిపాలు." },
	{ "startYear": 2380, "endYear": 2390, "name_en": "Beyond Time - Beyond Space", "name_te": "సమయం అతీతం - ఆకాశం అతీతం", "lat": 0.0, "lon": 0.0, "desc_en": "Existence transcends all dimensions. Christianity transcends all categories.", "desc_te": "ఉనికి అన్ని కొలతలను అతిక్రమించిన విషయం. క్రీస్టియానిటీ అన్ని వర్గాలను అతిక్రమించిన విషయం." },
	{ "startYear": 2385, "endYear": 2395, "name_en": "Omega Point Theology", "name_te": "ఓమేగా పాయింట్ దేవతాత్త్వం", "lat": 0.0, "lon": 0.0, "desc_en": "Christianity approaches Omega Point. Ultimate convergence with divine.", "desc_te": "క్రీస్టియానిటీ ఓమేగా పాయింట్‌కు సమీపిస్తుంది. దేవుని సంచయ చరమం." },
	{ "startYear": 2390, "endYear": 2400, "name_en": "Eternal Now - History Ends", "name_te": "శాశ్వత ఉప్పెన - చరిత్ర ముగుస్తుంది", "lat": 0.0, "lon": 0.0, "desc_en": "Human history concludes. Christianity completes its 4000-year journey.", "desc_te": "మానవ చరిత్ర సమాప్తం. క్రీస్టియానిటీ 4000-సంవత్సర ప్రయాణం పూర్తిపాలైన విషయం." }
]