[
	/*{ "startYear": -3400, "endYear": -3380, "name_en": "Egyptian Naqada III Period", "name_te": "ఈజిప్టు నకాడా III కాలం", "lat": 30.0, "lon": 31.2, "desc_en": "Naqada III period with advanced settlements.", "desc_te": "ఎడ్వాన్స్డ్ నిపటనాలతో నకాడా III కాలం." },
	{ "startYear": -3380, "endYear": -3360, "name_en": "Egyptian Art Sophistication", "name_te": "ఈజిప్టు కళ చమత్కారం", "lat": 29.5, "lon": 31.0, "desc_en": "Egyptian art reaches sophisticated levels.", "desc_te": "ఈజిప్టు కళ చమత్కార స్థాయిలకు చేరుకుంటుంది." },
	{ "startYear": -3360, "endYear": -3340, "name_en": "Egyptian Symbolic Warfare", "name_te": "ఈజిప్టు సాకేతిక యుద్ధం", "lat": 30.0, "lon": 31.2, "desc_en": "Symbolic warfare representations in Egypt.", "desc_te": "ఈజిప్టులో సాకేతిక యుద్ధం ప్రতిনిధిత్వాలు." },
	{ "startYear": -3340, "endYear": -3320, "name_en": "Egyptian Ceremonial Objects", "name_te": "ఈజిప్టు ఉత్సవ వస్తువులు", "lat": 30.5, "lon": 31.2, "desc_en": "Ceremonial objects in Egypt.", "desc_te": "ఈజిప్టులో ఉత్సవ వస్తువులు." },
	{ "startYear": -3320, "endYear": -3300, "name_en": "Egyptian Unification Climax", "name_te": "ఈజిప్టు ఐక్యత గరిష్ఠం", "lat": 30.0, "lon": 31.2, "desc_en": "Unification reaches climax in Egypt.", "desc_te": "ఈజిప్టులో ఐక్యత గరిష్ఠానికి చేరుకుంటుంది." },
	{ "startYear": -3400, "endYear": -3380, "name_en": "Uruk Period Mesopotamia", "name_te": "ఉరుక్ కాలం మెసొపొటేమియా", "lat": 32.0, "lon": 46.0, "desc_en": "Uruk period in Mesopotamia.", "desc_te": "మెసొపొటేమియాలో ఉరుక్ కాలం." },
	{ "startYear": -3380, "endYear": -3360, "name_en": "Mesopotamian Writing Development", "name_te": "మెసొపొటేమియా లిపి అభివృద్ధి", "lat": 32.5, "lon": 46.5, "desc_en": "Writing systems develop in Mesopotamia.", "desc_te": "మెసొపొటేమియాలో లిపి వ్యవస్థలు అభివృద్ధిస్తుంది." },
	{ "startYear": -3360, "endYear": -3340, "name_en": "Sumerian Literary Tradition", "name_te": "సుమేరియన్ సాహిత్య సంప్రదాయం", "lat": 32.0, "lon": 46.0, "desc_en": "Literary tradition begins in Sumer.", "desc_te": "సుమేరులో సాహిత్య సంప్రదాయం ప్రారంభమవుతుంది." },
	{ "startYear": -3340, "endYear": -3320, "name_en": "Mesopotamian Architecture Advance", "name_te": "మెసొపొటేమియా నిర్మాణ ఆధునికీకరణ", "lat": 31.5, "lon": 46.5, "desc_en": "Architectural advances in Mesopotamia.", "desc_te": "మెసొపొటేమియాలో నిర్మాణ ఆధునికీకరణ." },
	{ "startYear": -3320, "endYear": -3300, "name_en": "Sumerian Religious Authority Peak", "name_te": "సుమేరియన్ ధార్మిక అధికారం గరిష్ఠం", "lat": 32.0, "lon": 46.0, "desc_en": "Religious authority peaks in Sumer.", "desc_te": "సుమేరులో ధార్మిక అధికారం గరిష్ఠానికి చేరుకుంటుంది." },
	{ "startYear": -3400, "endYear": -3380, "name_en": "Indus Valley Urban Settlement", "name_te": "సిందువు లోయ నగర నిపటన", "lat": 28.0, "lon": 72.5, "desc_en": "Urban settlements in Indus Valley.", "desc_te": "సిందువు లోయ నగర నిపటనాలు." },
	{ "startYear": -3380, "endYear": -3360, "name_en": "Indus Valley Uniformity", "name_te": "సిందువు లోయ ఐక్యత", "lat": 28.0, "lon": 72.5, "desc_en": "Uniformity develops in Indus Valley.", "desc_te": "సిందువు లోయ ఐక్యత అభివృద్ధిస్తుంది." },
	{ "startYear": -3360, "endYear": -3340, "name_en": "Indus Valley Weights Standards", "name_te": "సిందువు లోయ బరువు ప్రామాణికాలు", "lat": 28.0, "lon": 72.5, "desc_en": "Weight standards in Indus Valley.", "desc_te": "సిందువు లోయ బరువు ప్రామాణికాలు." },
	{ "startYear": -3340, "endYear": -3320, "name_en": "Indus Valley Trade Standardization", "name_te": "సిందువు లోయ వాణిజ్య ప్రామాణికీకరణ", "lat": 28.5, "lon": 72.0, "desc_en": "Trade standardization in Indus Valley.", "desc_te": "సిందువు లోయ వాణిజ్య ప్రామాణికీకరణ." },
	{ "startYear": -3320, "endYear": -3300, "name_en": "Indus Valley Urban Grid Plan", "name_te": "సిందువు లోయ నగర గ్రిడ్ ప్లాన్", "lat": 28.0, "lon": 72.5, "desc_en": "Grid planning in Indus Valley cities.", "desc_te": "సిందువు లోయ నగరాలలో గ్రిడ్ ప్లానింగ్." },
	{ "startYear": -3400, "endYear": -3380, "name_en": "Shang Dynasty Foundation China", "name_te": "శాంగ్ వంశ ఆధారం చైనా", "lat": 34.5, "lon": 107.5, "desc_en": "Shang Dynasty foundations in China.", "desc_te": "చైనాలో శాంగ్ వంశ ఆధారాలు." },
	{ "startYear": -3380, "endYear": -3360, "name_en": "Chinese Oracle Bones Begin", "name_te": "చైనీస్ ఓరాకిల్ ఎముకలు ప్రారంభం", "lat": 34.0, "lon": 107.0, "desc_en": "Oracle bones tradition begins.", "desc_te": "ఓరాకిల్ ఎముకలు సంప్రదాయం ప్రారంభమవుతుంది." },
	{ "startYear": -3360, "endYear": -3340, "name_en": "Chinese Divination Practices", "name_te": "చైనీస్ ఐతిహ్య అభ్యాసాలు", "lat": 34.5, "lon": 107.5, "desc_en": "Divination practices in early China.", "desc_te": "ప్రారంభ చైనాలో ఐతిహ్య అభ్యాసాలు." },
	{ "startYear": -3340, "endYear": -3320, "name_en": "Chinese Sacrificial Ritual", "name_te": "చైనీస్ త్యాగ విధి", "lat": 34.0, "lon": 107.0, "desc_en": "Sacrificial rituals in China.", "desc_te": "చైనాలో త్యాగ విధులు." },
	{ "startYear": -3320, "endYear": -3300, "name_en": "Chinese Royal Authority", "name_te": "చైనీస్ రాజ అధికారం", "lat": 34.5, "lon": 107.5, "desc_en": "Royal authority crystallizes in China.", "desc_te": "చైనాలో రాజ అధికారం స్ఫటిక చేస్తుంది." },
	{ "startYear": -3400, "endYear": -3380, "name_en": "Minoan II Period Crete", "name_te": "మినోయన్ II కాలం క్రీట్", "lat": 35.0, "lon": 24.5, "desc_en": "Minoan II period on Crete.", "desc_te": "క్రీట్‌లో మినోయన్ II కాలం." },
	{ "startYear": -3380, "endYear": -3360, "name_en": "Minoan Palatial Architecture", "name_te": "మినోయన్ రాజభవన నిర్మాణం", "lat": 35.3, "lon": 24.8, "desc_en": "Palatial architecture develops on Crete.", "desc_te": "క్రీట్‌లో రాజభవన నిర్మాణం అభివృద్ధిస్తుంది." },
	{ "startYear": -3360, "endYear": -3340, "name_en": "Minoan Maritime Dominance", "name_te": "మినోయన్ సముద్ర ఆధిపత్యం", "lat": 35.5, "lon": 24.9, "desc_en": "Maritime dominance from Crete.", "desc_te": "క్రీట్ నుండి సముద్ర ఆధిపత్యం." },
	{ "startYear": -3340, "endYear": -3320, "name_en": "Minoan Religious Priesthood", "name_te": "మినోయన్ ధార్మిక పూజారీ", "lat": 35.2, "lon": 24.7, "desc_en": "Religious priesthood on Crete.", "desc_te": "క్రీట్‌లో ధార్మిక పూజారీ." },
	{ "startYear": -3320, "endYear": -3300, "name_en": "Minoan Trade Expansion", "name_te": "మినోయన్ వాణిజ్య విస్తరణ", "lat": 35.3, "lon": 25.0, "desc_en": "Trade expansion from Crete.", "desc_te": "క్రీట్ నుండి వాణిజ్య విస్తరణ." },
	{ "startYear": -3400, "endYear": -3380, "name_en": "Helladic II Period Greece", "name_te": "హెలాడిక్ II కాలం గ్రీస్", "lat": 37.5, "lon": 23.0, "desc_en": "Helladic II period in Greece.", "desc_te": "గ్రీసులో హెలాడిక్ II కాలం." },
	{ "startYear": -3380, "endYear": -3360, "name_en": "Greek Fortified Settlements", "name_te": "గ్రీకు దుర్గీకృత నిపటనాలు", "lat": 37.0, "lon": 23.0, "desc_en": "Fortified settlements in Greece.", "desc_te": "గ్రీసులో దుర్గీకృత నిపటనాలు." },
	{ "startYear": -3360, "endYear": -3340, "name_en": "Greek Elite Warrior Class", "name_te": "గ్రీకు ఉన్నత యోధ వర్గం", "lat": 37.5, "lon": 23.5, "desc_en": "Warrior class elite in Greece.", "desc_te": "గ్రీసులో యోధ వర్గం ఉన్నతులు." },
	{ "startYear": -3340, "endYear": -3320, "name_en": "Greek Regional Kingdoms", "name_te": "గ్రీకు ప్రాంతీయ రాజ్యాలు", "lat": 37.0, "lon": 23.0, "desc_en": "Regional kingdoms emerge in Greece.", "desc_te": "గ్రీసులో ప్రాంతీయ రాజ్యాలు ఆవిర్భవిస్తాయి." },
	{ "startYear": -3320, "endYear": -3300, "name_en": "Greek Mycenaean Influence", "name_te": "గ్రీకు మైసెనీయన్ ప్రభావం", "lat": 37.3, "lon": 23.3, "desc_en": "Mycenaean influences appear in Greece.", "desc_te": "గ్రీసులో మైసెనీయన్ ప్రభావాలు కనిపిస్తాయి." },
	{ "startYear": -3400, "endYear": -3380, "name_en": "European Bronze Age Zenith", "name_te": "యూరోపియన్ ఫిరంజి యుగం శిఖరం", "lat": 48.0, "lon": 15.0, "desc_en": "Bronze Age zenith in Europe.", "desc_te": "యూరోపులో ఫిరంజి యుగం శిఖరం." },
	{ "startYear": -3380, "endYear": -3360, "name_en": "European Warrior Aristocracy", "name_te": "యూరోపియన్ యోధ కులీనత", "lat": 48.5, "lon": 14.5, "desc_en": "Warrior aristocracy in Europe.", "desc_te": "యూరోపులో యోధ కులీనత." },
	{ "startYear": -3360, "endYear": -3340, "name_en": "European Craft Guild Formation", "name_te": "యూరోపియన్ కారిగర సమాఖ్య ఏర్పాటు", "lat": 48.0, "lon": 15.0, "desc_en": "Craft guilds form in Europe.", "desc_te": "యూరోపులో కారిగర సమాఖ్యలు ఏర్పడుతుంది." },
	{ "startYear": -3340, "endYear": -3320, "name_en": "European Trade Monopolies", "name_te": "యూరోపియన్ వాణిజ్య ఏకాధికారాలు", "lat": 50.0, "lon": 10.0, "desc_en": "Trade monopolies in Europe.", "desc_te": "యూరోపులో వాణిజ్య ఏకాధికారాలు." },
	{ "startYear": -3320, "endYear": -3300, "name_en": "European Cultural Standardization", "name_te": "యూరోపియన్ సాంస్కృతిక ప్రామాణికీకరణ", "lat": 48.0, "lon": 15.0, "desc_en": "Cultural standardization in Europe.", "desc_te": "యూరోపులో సాంస్కృతిక ప్రామాణికీకరణ." },
	{ "startYear": -3400, "endYear": -3380, "name_en": "Nubian A Group Kingdom", "name_te": "నుబియన్ A గ్రూప్ రాజ్యం", "lat": 18.0, "lon": 33.0, "desc_en": "Nubian A Group kingdom.", "desc_te": "నుబియన్ A గ్రూప్ రాజ్యం." },
	{ "startYear": -3380, "endYear": -3360, "name_en": "Nubian Desert Trade Routes", "name_te": "నుబియన్ ఆరణ్య వాణిజ్య మార్గాలు", "lat": 18.5, "lon": 33.5, "desc_en": "Desert trade routes in Nubia.", "desc_te": "నుబియాలో ఆరణ్య వాణిజ్య మార్గాలు." },
	{ "startYear": -3360, "endYear": -3340, "name_en": "Nubian Warrior Leadership", "name_te": "నుబియన్ యోధ నేతృత్వం", "lat": 18.0, "lon": 33.0, "desc_en": "Warrior leadership in Nubia.", "desc_te": "నుబియాలో యోధ నేతృత్వం." },
	{ "startYear": -3340, "endYear": -3320, "name_en": "Nubian Wealth Accumulation", "name_te": "నుబియన్ సంపద సంగ్రహణ", "lat": 18.0, "lon": 33.0, "desc_en": "Wealth accumulation in Nubia.", "desc_te": "నుబియాలో సంపద సంగ్రహణ." },
	{ "startYear": -3320, "endYear": -3300, "name_en": "Nubian Regional Power", "name_te": "నుబియన్ ప్రాంతీయ శక్తి", "lat": 18.5, "lon": 33.0, "desc_en": "Regional power in Nubia.", "desc_te": "నుబియాలో ప్రాంతీయ శక్తి." },
	{ "startYear": -3400, "endYear": -3380, "name_en": "Aboriginal Australia Cultural Apex", "name_te": "ఆదివాసీ ఆస్ట్రేలియా సాంస్కృతిక శిఖరం", "lat": -20.0, "lon": 134.0, "desc_en": "Cultural apex in Aboriginal Australia.", "desc_te": "ఆదివాసీ ఆస్ట్రేలియాలో సాంస్కృతిక శిఖరం." },
	{ "startYear": -3380, "endYear": -3360, "name_en": "Aboriginal Spiritual Knowledge", "name_te": "ఆదివాసీ ఆధ్యాత్మిక జ్ఞానం", "lat": -25.0, "lon": 133.0, "desc_en": "Spiritual knowledge in Aboriginal Australia.", "desc_te": "ఆదివాసీ ఆస్ట్రేలియాలో ఆధ్యాత్మిక జ్ఞానం." },
	{ "startYear": -3360, "endYear": -3340, "name_en": "Aboriginal Ritual Technology", "name_te": "ఆదివాసీ విధిర్చక సాంకేతిక", "lat": -20.0, "lon": 134.0, "desc_en": "Ritual technology in Aboriginal Australia.", "desc_te": "ఆదివాసీ ఆస్ట్రేలియాలో విధిర్చక సాంకేతిక." },
	{ "startYear": -3340, "endYear": -3320, "name_en": "Aboriginal Inter-Tribal Networks", "name_te": "ఆదివాసీ మధ్య-గిరిజన నెట్‌వర్కులు", "lat": -25.0, "lon": 133.0, "desc_en": "Inter-tribal networks in Aboriginal Australia.", "desc_te": "ఆదివాసీ ఆస్ట్రేలియాలో మధ్య-గిరిజన నెట్‌వర్కులు." },
	{ "startYear": -3320, "endYear": -3300, "name_en": "Aboriginal Confederation Systems", "name_te": "ఆదివాసీ సమాఖ్య వ్యవస్థలు", "lat": -20.0, "lon": 134.0, "desc_en": "Confederation systems in Aboriginal Australia.", "desc_te": "ఆదివాసీ ఆస్ట్రేలియాలో సమాఖ్య వ్యవస్థలు." }*/
]