[
	/*{ "startYear": -3700, "endYear": -3680, "name_en": "Naqada I Period Egypt", "name_te": "నకాడా I కాలం ఈజిప్టు", "lat": 30.0, "lon": 31.2, "desc_en": "Naqada I period in Egypt.", "desc_te": "ఈజిప్టులో నకాడా I కాలం." },
	{ "startYear": -3680, "endYear": -3660, "name_en": "Egyptian Upper Lower Division", "name_te": "ఈజిప్టు ఎగువ-దిగువ విభజన", "lat": 29.5, "lon": 31.0, "desc_en": "Upper and Lower Egypt division.", "desc_te": "ఎగువ, దిగువ ఈజిప్టు విభజన." },
	{ "startYear": -3660, "endYear": -3640, "name_en": "Egyptian Pottery Distinctiveness", "name_te": "ఈజిప్టు కుండల విభిన్నత", "lat": 30.0, "lon": 31.2, "desc_en": "Distinct pottery styles emerge.", "desc_te": "విభిన్న కుండల శైలిలు ఆవిర్భవిస్తాయి." },
	{ "startYear": -3640, "endYear": -3620, "name_en": "Egyptian Regional Competition", "name_te": "ఈజిప్టు ప్రాంతీయ ప్రతిస్పర్ధ", "lat": 30.5, "lon": 31.2, "desc_en": "Regional competition in Egypt.", "desc_te": "ఈజిప్టులో ప్రాంతీయ ప్రతిస్పర్ధ." },
	{ "startYear": -3620, "endYear": -3600, "name_en": "Egyptian Trade Intensification", "name_te": "ఈజిప్టు వాణిజ్య తీవ్రీకరణ", "lat": 30.0, "lon": 31.2, "desc_en": "Trade intensifies in Egypt.", "desc_te": "ఈజిప్టులో వాణిజ్యం తీవ్రమవుతుంది." },
	{ "startYear": -3700, "endYear": -3680, "name_en": "Ubaid Period Mesopotamia", "name_te": "ఉబాయిడ్ కాలం మెసొపొటేమియా", "lat": 32.0, "lon": 46.0, "desc_en": "Ubaid period in Mesopotamia.", "desc_te": "మెసొపొటేమియాలో ఉబాయిడ్ కాలం." },
	{ "startYear": -3680, "endYear": -3660, "name_en": "Mesopotamian Canal Systems", "name_te": "మెసొపొటేమియా నీటిమార్గ వ్యవస్థలు", "lat": 32.5, "lon": 46.5, "desc_en": "Canal systems in Mesopotamia.", "desc_te": "మెసొపొటేమియాలో నీటిమార్గ వ్యవస్థలు." },
	{ "startYear": -3660, "endYear": -3640, "name_en": "Mesopotamian Temple Authority Rises", "name_te": "మెసొపొటేమియా ఆలయ అధికారం పెరుగుతుంది", "lat": 32.0, "lon": 46.0, "desc_en": "Temple authority rises in Mesopotamia.", "desc_te": "మెసొపొటేమియాలో ఆలయ అధికారం పెరుగుతుంది." },
	{ "startYear": -3640, "endYear": -3620, "name_en": "Mesopotamian Priest Class", "name_te": "మెసొపొటేమియా పూజారీ వర్గం", "lat": 31.5, "lon": 46.5, "desc_en": "Priest class in Mesopotamia.", "desc_te": "మెసొపొటేమియాలో పూజారీ వర్గం." },
	{ "startYear": -3620, "endYear": -3600, "name_en": "Mesopotamian Settled Communities", "name_te": "మెసొపొటేమియా స్థిర సమాజాలు", "lat": 32.0, "lon": 46.0, "desc_en": "Settled communities in Mesopotamia.", "desc_te": "మెసొపొటేమియాలో స్థిర సమాజాలు." },
	{ "startYear": -3700, "endYear": -3680, "name_en": "Indus Valley Ravi Phase", "name_te": "సిందువు లోయ రవి దశ", "lat": 28.0, "lon": 72.5, "desc_en": "Ravi phase in Indus Valley.", "desc_te": "సిందువు లోయ రవి దశ." },
	{ "startYear": -3680, "endYear": -3660, "name_en": "Indus Valley Village Pattern", "name_te": "సిందువు లోయ గ్రామ నమూనా", "lat": 28.5, "lon": 72.0, "desc_en": "Village pattern in Indus Valley.", "desc_te": "సిందువు లోయ గ్రామ నమూనా." },
	{ "startYear": -3660, "endYear": -3640, "name_en": "Indus Valley Terracotta Figures", "name_te": "సిందువు లోయ టెర్రాకోటా పటిమలు", "lat": 28.0, "lon": 72.5, "desc_en": "Terracotta figures in Indus Valley.", "desc_te": "సిందువు లోయ టెర్రాకోటా పటిమలు." },
	{ "startYear": -3640, "endYear": -3620, "name_en": "Indus Valley Agricultural Base", "name_te": "సిందువు లోయ వ్యవసాయ ఆధారం", "lat": 28.5, "lon": 72.0, "desc_en": "Agricultural base in Indus Valley.", "desc_te": "సిందువు లోయ వ్యవసాయ ఆధారం." },
	{ "startYear": -3620, "endYear": -3600, "name_en": "Indus Valley Tool Refinement", "name_te": "సిందువు లోయ సాధన శుద్ధీకరణ", "lat": 28.0, "lon": 72.5, "desc_en": "Tool refinement in Indus Valley.", "desc_te": "సిందువు లోయ సాధన శుద్ధీకరణ." },
	{ "startYear": -3700, "endYear": -3680, "name_en": "Xia Dynasty Legendary Start", "name_te": "జియా వంశ పురాణ ప్రారంభం", "lat": 34.5, "lon": 107.5, "desc_en": "Xia Dynasty legendary start.", "desc_te": "జియా వంశ పురాణ ప్రారంభం." },
	{ "startYear": -3680, "endYear": -3660, "name_en": "Chinese Settlement Consolidation", "name_te": "చైనీస్ నిపటన సమీకరణ", "lat": 34.0, "lon": 107.0, "desc_en": "Settlement consolidation in China.", "desc_te": "చైనాలో నిపటన సమీకరణ." },
	{ "startYear": -3660, "endYear": -3640, "name_en": "Chinese Millet Domestication", "name_te": "చైనీస్ జవారి క్రీడాకరణ", "lat": 34.0, "lon": 107.0, "desc_en": "Millet domestication in China.", "desc_te": "చైనాలో జవారి క్రీడాకరణ." },
	{ "startYear": -3640, "endYear": -3620, "name_en": "Chinese Agricultural Expansion", "name_te": "చైనీస్ వ్యవసాయ విస్తరణ", "lat": 34.5, "lon": 107.5, "desc_en": "Agricultural expansion in China.", "desc_te": "చైనాలో వ్యవసాయ విస్తరణ." },
	{ "startYear": -3620, "endYear": -3600, "name_en": "Chinese Community Organization", "name_te": "చైనీస్ సమాజ సంస్థ", "lat": 34.0, "lon": 107.0, "desc_en": "Community organization in China.", "desc_te": "చైనాలో సమాజ సంస్థ." },
	{ "startYear": -3700, "endYear": -3680, "name_en": "Early Minoan I Crete", "name_te": "ఎర్లీ మినోయన్ I క్రీట్", "lat": 35.0, "lon": 24.5, "desc_en": "Early Minoan I on Crete.", "desc_te": "క్రీట్‌లో ఎర్లీ మినోయన్ I." },
	{ "startYear": -3680, "endYear": -3660, "name_en": "Minoan Aegean Trade", "name_te": "మినోయన్ ఏజియన్ వాణిజ్యం", "lat": 35.3, "lon": 24.8, "desc_en": "Aegean trade from Crete.", "desc_te": "క్రీట్ నుండి ఏజియన్ వాణిజ్యం." },
	{ "startYear": -3660, "endYear": -3640, "name_en": "Minoan Cycladic Connections", "name_te": "మినోయన్ సైక్లాడిక్ సంబంధాలు", "lat": 35.2, "lon": 24.7, "desc_en": "Cycladic connections from Crete.", "desc_te": "క్రీట్ నుండి సైక్లాడిక్ సంబంధాలు." },
	{ "startYear": -3640, "endYear": -3620, "name_en": "Minoan Religious Syncretism", "name_te": "మినోయన్ ధార్మిక సమన్వయం", "lat": 35.4, "lon": 25.0, "desc_en": "Religious syncretism on Crete.", "desc_te": "క్రీట్‌లో ధార్మిక సమన్వయం." },
	{ "startYear": -3620, "endYear": -3600, "name_en": "Minoan Material Culture", "name_te": "మినోయన్ పదార్థ సంస్కృతి", "lat": 35.3, "lon": 24.9, "desc_en": "Material culture on Crete.", "desc_te": "క్రీట్‌లో పదార్థ సంస్కృతి." },
	{ "startYear": -3700, "endYear": -3680, "name_en": "Proto-Helladic Greece", "name_te": "ప్రోటో-హెలాడిక్ గ్రీస్", "lat": 37.5, "lon": 23.0, "desc_en": "Proto-Helladic in Greece.", "desc_te": "గ్రీసులో ప్రోటో-హెలాడిక్." },
	{ "startYear": -3680, "endYear": -3660, "name_en": "Greek Neolithic End", "name_te": "గ్రీకు నియోలిథిక్ చివరి", "lat": 37.0, "lon": 23.0, "desc_en": "Neolithic end in Greece.", "desc_te": "గ్రీసులో నియోలిథిక్ చివరి." },
	{ "startYear": -3660, "endYear": -3640, "name_en": "Greek Bronze Introduction", "name_te": "గ్రీకు ఫిరంజి ప్రవేశం", "lat": 37.0, "lon": 23.0, "desc_en": "Bronze introduction in Greece.", "desc_te": "గ్రీసులో ఫిరంజి ప్రవేశం." },
	{ "startYear": -3640, "endYear": -3620, "name_en": "Greek Social Hierarchy", "name_te": "గ్రీకు సామాజిక సోపానక్రమం", "lat": 37.5, "lon": 23.5, "desc_en": "Social hierarchy in Greece.", "desc_te": "గ్రీసులో సామాజిక సోపానక్రమం." },
	{ "startYear": -3620, "endYear": -3600, "name_en": "Greek Warrior Tradition", "name_te": "గ్రీకు యోధ సంప్రదాయం", "lat": 37.0, "lon": 23.0, "desc_en": "Warrior tradition in Greece.", "desc_te": "గ్రీసులో యోధ సంప్రదాయం." },
	{ "startYear": -3700, "endYear": -3680, "name_en": "European Neolithic Late", "name_te": "యూరోపియన్ నియోలిథిక్ చివరి", "lat": 48.0, "lon": 15.0, "desc_en": "Late Neolithic in Europe.", "desc_te": "యూరోపులో చివరి నియోలిథిక్." },
	{ "startYear": -3680, "endYear": -3660, "name_en": "European Bronze Age Dawn", "name_te": "యూరోపియన్ ఫిరంజి యుగం ఊషస్సు", "lat": 48.5, "lon": 14.5, "desc_en": "Bronze Age dawn in Europe.", "desc_te": "యూరోపులో ఫిరంజి యుగం ఊషస్సు." },
	{ "startYear": -3660, "endYear": -3640, "name_en": "European Pastoralism Spread", "name_te": "యూరోపియన్ పశుపాలన ప్రసారం", "lat": 48.0, "lon": 15.0, "desc_en": "Pastoralism spreads in Europe.", "desc_te": "యూరోపులో పశుపాలన ప్రసారమవుతుంది." },
	{ "startYear": -3640, "endYear": -3620, "name_en": "European Fortified Villages", "name_te": "యూరోపియన్ దుర్గీకృత గ్రామాలు", "lat": 50.0, "lon": 10.0, "desc_en": "Fortified villages in Europe.", "desc_te": "యూరోపులో దుర్గీకృత గ్రామాలు." },
	{ "startYear": -3620, "endYear": -3600, "name_en": "European Wealth Indicators", "name_te": "యూరోపియన్ సంపద సూచకాలు", "lat": 48.0, "lon": 15.0, "desc_en": "Wealth indicators in Europe.", "desc_te": "యూరోపులో సంపద సూచకాలు." },
	{ "startYear": -3700, "endYear": -3680, "name_en": "Nubian Earlier Pastoralism", "name_te": "నుబియన్ ముందుగా పశుపాలన", "lat": 18.0, "lon": 33.0, "desc_en": "Earlier pastoralism in Nubia.", "desc_te": "నుబియాలో ముందుగా పశుపాలన." },
	{ "startYear": -3680, "endYear": -3660, "name_en": "Nubian Cattle Economy", "name_te": "నుబియన్ పశువుల ఆర్థిక", "lat": 18.5, "lon": 33.0, "desc_en": "Cattle economy in Nubia.", "desc_te": "నుబియాలో పశువుల ఆర్థిక." },
	{ "startYear": -3660, "endYear": -3640, "name_en": "Nubian Nile Agriculture", "name_te": "నుబియన్ నీలు వ్యవసాయం", "lat": 18.0, "lon": 33.0, "desc_en": "Nile agriculture in Nubia.", "desc_te": "నుబియాలో నీలు వ్యవసాయం." },
	{ "startYear": -3640, "endYear": -3620, "name_en": "Nubian Mixed Economy", "name_te": "నుబియన్ మిశ్రమ ఆర్థిక", "lat": 18.5, "lon": 33.0, "desc_en": "Mixed economy in Nubia.", "desc_te": "నుబియాలో మిశ్రమ ఆర్థిక." },
	{ "startYear": -3620, "endYear": -3600, "name_en": "Nubian Artistic Expression", "name_te": "నుబియన్ కళా ప్రకటన", "lat": 18.0, "lon": 33.0, "desc_en": "Artistic expression in Nubia.", "desc_te": "నుబియాలో కళా ప్రకటన." },
	{ "startYear": -3700, "endYear": -3680, "name_en": "Aboriginal Australia Peak Culture", "name_te": "ఆదివాసీ ఆస్ట్రేలియా గరిష్ఠ సంస్కృతి", "lat": -20.0, "lon": 134.0, "desc_en": "Peak culture in Aboriginal Australia.", "desc_te": "ఆదివాసీ ఆస్ట్రేలియాలో గరిష్ఠ సంస్కృతి." },
	{ "startYear": -3680, "endYear": -3660, "name_en": "Aboriginal Tool Innovation", "name_te": "ఆదివాసీ సాధన ఆవిష్కారం", "lat": -25.0, "lon": 133.0, "desc_en": "Tool innovation in Aboriginal Australia.", "desc_te": "ఆదివాసీ ఆస్ట్రేలియాలో సాధన ఆవిష్కారం." },
	{ "startYear": -3660, "endYear": -3640, "name_en": "Aboriginal Art Expression", "name_te": "ఆదివాసీ కళ ప్రకటన", "lat": -20.0, "lon": 134.0, "desc_en": "Art expression in Aboriginal Australia.", "desc_te": "ఆదివాసీ ఆస్ట్రేలియాలో కళ ప్రకటన." },
	{ "startYear": -3640, "endYear": -3620, "name_en": "Aboriginal Ceremony Development", "name_te": "ఆదివాసీ ఉత్సవ అభివృద్ధి", "lat": -25.0, "lon": 133.0, "desc_en": "Ceremony development in Aboriginal Australia.", "desc_te": "ఆదివాసీ ఆస్ట్రేలియాలో ఉత్సవ అభివృద్ధి." },
	{ "startYear": -3620, "endYear": -3600, "name_en": "Aboriginal Songline Paths", "name_te": "ఆదివాసీ సాంగ్ సందర్భ మార్గాలు", "lat": -20.0, "lon": 134.0, "desc_en": "Songline paths in Aboriginal Australia.", "desc_te": "ఆదివాసీ ఆస్ట్రేలియాలో సాంగ్ సందర్భ మార్గాలు." }*/
]