[
	/*{ "startYear": -3800, "endYear": -3780, "name_en": "Predynastic Egypt Naqada", "name_te": "ప్రీ-డైనాస్టిక్ ఈజిప్టు నకాడా", "lat": 30.0, "lon": 31.2, "desc_en": "Predynastic Naqada period Egypt.", "desc_te": "ప్రీ-డైనాస్టిక్ నకాడా కాలం ఈజిప్టు." },
	{ "startYear": -3780, "endYear": -3760, "name_en": "Egyptian Settlement Hierarchy", "name_te": "ఈజిప్టు నిపటన సోపానక్రమం", "lat": 29.5, "lon": 31.0, "desc_en": "Settlement hierarchy in Egypt.", "desc_te": "ఈజిప్టులో నిపటన సోపానక్రమం." },
	{ "startYear": -3760, "endYear": -3740, "name_en": "Egyptian Weapon Development", "name_te": "ఈజిప్టు ఆయుధ అభివృద్ధి", "lat": 30.0, "lon": 31.2, "desc_en": "Weapon development in Egypt.", "desc_te": "ఈజిప్టులో ఆయుధ అభివృద్ధి." },
	{ "startYear": -3740, "endYear": -3720, "name_en": "Egyptian Religious Statues", "name_te": "ఈజిప్టు ధార్మిక విగ్రహాలు", "lat": 30.5, "lon": 31.2, "desc_en": "Religious statues in Egypt.", "desc_te": "ఈజిప్టులో ధార్మిక విగ్రహాలు." },
	{ "startYear": -3720, "endYear": -3700, "name_en": "Egyptian Tomb Decorations", "name_te": "ఈజిప్టు సమాధి అలంకరణలు", "lat": 30.0, "lon": 31.2, "desc_en": "Tomb decorations in Egypt.", "desc_te": "ఈజిప్టులో సమాధి అలంకరణలు." },
	{ "startYear": -3800, "endYear": -3780, "name_en": "Ubaid Expansion Mesopotamia", "name_te": "ఉబాయిడ్ విస్తరణ మెసొపొటేమియా", "lat": 32.0, "lon": 46.0, "desc_en": "Ubaid expansion in Mesopotamia.", "desc_te": "మెసొపొటేమియాలో ఉబాయిడ్ విస్తరణ." },
	{ "startYear": -3780, "endYear": -3760, "name_en": "Mesopotamian Religious Authority", "name_te": "మెసొపొటేమియా ధార్మిక అధికారం", "lat": 32.5, "lon": 46.5, "desc_en": "Religious authority in Mesopotamia.", "desc_te": "మెసొపొటేమియాలో ధార్మిక అధికారం." },
	{ "startYear": -3760, "endYear": -3740, "name_en": "Mesopotamian Temple Development", "name_te": "మెసొపొటేమియా ఆలయ అభివృద్ధి", "lat": 32.0, "lon": 46.0, "desc_en": "Temple development in Mesopotamia.", "desc_te": "మెసొపొటేమియాలో ఆలయ అభివృద్ధి." },
	{ "startYear": -3740, "endYear": -3720, "name_en": "Mesopotamian Agricultural Base", "name_te": "మెసొపొటేమియా వ్యవసాయ ఆధారం", "lat": 31.5, "lon": 46.5, "desc_en": "Agricultural base in Mesopotamia.", "desc_te": "మెసొపొటేమియాలో వ్యవసాయ ఆధారం." },
	{ "startYear": -3720, "endYear": -3700, "name_en": "Mesopotamian Settlement Pattern", "name_te": "మెసొపొటేమియా నిపటన నమూనా", "lat": 32.0, "lon": 46.0, "desc_en": "Settlement pattern in Mesopotamia.", "desc_te": "మెసొపొటేమియాలో నిపటన నమూనా." },
	{ "startYear": -3800, "endYear": -3780, "name_en": "Indus Valley Kot Diji Phase", "name_te": "సిందువు లోయ కోట్ దిజీ దశ", "lat": 28.0, "lon": 72.5, "desc_en": "Kot Diji phase in Indus Valley.", "desc_te": "సిందువు లోయ కోట్ దిజీ దశ." },
	{ "startYear": -3780, "endYear": -3760, "name_en": "Indus Valley Fortification", "name_te": "సిందువు లోయ దుర్గీకరణ", "lat": 28.5, "lon": 72.0, "desc_en": "Fortification in Indus Valley.", "desc_te": "సిందువు లోయ దుర్గీకరణ." },
	{ "startYear": -3760, "endYear": -3740, "name_en": "Indus Valley Standardized Weights", "name_te": "సిందువు లోయ ప్రామాణీకృత బరువులు", "lat": 28.0, "lon": 72.5, "desc_en": "Standardized weights in Indus Valley.", "desc_te": "సిందువు లోయ ప్రామాణీకృత బరువులు." },
	{ "startYear": -3740, "endYear": -3720, "name_en": "Indus Valley Long Distance Trade", "name_te": "సిందువు లోయ దీర్ఘ దూర వాణిజ్యం", "lat": 28.5, "lon": 72.0, "desc_en": "Long distance trade in Indus Valley.", "desc_te": "సిందువు లోయ దీర్ఘ దూర వాణిజ్యం." },
	{ "startYear": -3720, "endYear": -3700, "name_en": "Indus Valley Civilization Peak", "name_te": "సిందువు లోయ నాగరికత గరిష్ఠం", "lat": 28.0, "lon": 72.5, "desc_en": "Civilization peak in Indus Valley.", "desc_te": "సిందువు లోయ నాగరికత గరిష్ఠం." },
	{ "startYear": -3800, "endYear": -3780, "name_en": "Chinese Early Xia Dynasty", "name_te": "చైనీస్ ఎర్లీ జియా వంశ", "lat": 34.5, "lon": 107.5, "desc_en": "Early Xia Dynasty in China.", "desc_te": "చైనాలో ఎర్లీ జియా వంశ." },
	{ "startYear": -3780, "endYear": -3760, "name_en": "Chinese Legendary Kings", "name_te": "చైనీస్ పురాణ రాజులు", "lat": 34.0, "lon": 107.0, "desc_en": "Legendary kings in China.", "desc_te": "చైనాలో పురాణ రాజులు." },
	{ "startYear": -3760, "endYear": -3740, "name_en": "Chinese Yellow River Control", "name_te": "చైనీస్ పసుపు నది నియంత్రణ", "lat": 34.0, "lon": 107.0, "desc_en": "Yellow River control in China.", "desc_te": "చైనాలో పసుపు నది నియంత్రణ." },
	{ "startYear": -3740, "endYear": -3720, "name_en": "Chinese Ceramic Traditions", "name_te": "చైనీస్ సెరామిక్ సంప్రదాయాలు", "lat": 34.5, "lon": 107.5, "desc_en": "Ceramic traditions in China.", "desc_te": "చైనాలో సెరామిక్ సంప్రదాయాలు." },
	{ "startYear": -3720, "endYear": -3700, "name_en": "Chinese Dynasty Establishment", "name_te": "చైనీస్ వంశ స్థాపన", "lat": 34.0, "lon": 107.0, "desc_en": "Dynasty establishment in China.", "desc_te": "చైనాలో వంశ స్థాపన." },
	{ "startYear": -3800, "endYear": -3780, "name_en": "Minoan Civilization Start Crete", "name_te": "మినోయన్ నాగరికత ప్రారంభం క్రీట్", "lat": 35.0, "lon": 24.5, "desc_en": "Minoan civilization starts on Crete.", "desc_te": "క్రీట్‌లో మినోయన్ నాగరికత ప్రారంభమవుతుంది." },
	{ "startYear": -3780, "endYear": -3760, "name_en": "Minoan Settlement Sites", "name_te": "మినోయన్ నిపటన సైట్‌లు", "lat": 35.3, "lon": 24.8, "desc_en": "Settlement sites on Crete.", "desc_te": "క్రీట్‌లో నిపటన సైట్‌లు." },
	{ "startYear": -3760, "endYear": -3740, "name_en": "Minoan Agricultural Output", "name_te": "మినోయన్ వ్యవసాయ ఉత్పత్తి", "lat": 35.2, "lon": 24.7, "desc_en": "Agricultural output on Crete.", "desc_te": "క్రీట్‌లో వ్యవసాయ ఉత్పత్తి." },
	{ "startYear": -3740, "endYear": -3720, "name_en": "Minoan Social Organization", "name_te": "మినోయన్ సామాజిక సంస్థ", "lat": 35.4, "lon": 25.0, "desc_en": "Social organization on Crete.", "desc_te": "క్రీట్‌లో సామాజిక సంస్థ." },
	{ "startYear": -3720, "endYear": -3700, "name_en": "Minoan Settlement Expansion", "name_te": "మినోయన్ నిపటన విస్తరణ", "lat": 35.3, "lon": 24.9, "desc_en": "Settlement expansion on Crete.", "desc_te": "క్రీట్‌లో నిపటన విస్తరణ." },
	{ "startYear": -3800, "endYear": -3780, "name_en": "Helladic Early Bronze Greece", "name_te": "హెలాడిక్ ఎర్లీ ఫిరంజి గ్రీస్", "lat": 37.5, "lon": 23.0, "desc_en": "Early Bronze Helladic in Greece.", "desc_te": "గ్రీసులో ఎర్లీ ఫిరంజి హెలాడిక్." },
	{ "startYear": -3780, "endYear": -3760, "name_en": "Greek Bronze Age Emergence", "name_te": "గ్రీకు ఫిరంజి యుగం ఆవిర్భవం", "lat": 37.0, "lon": 23.0, "desc_en": "Bronze Age emergence in Greece.", "desc_te": "గ్రీసులో ఫిరంజి యుగం ఆవిర్భవం." },
	{ "startYear": -3760, "endYear": -3740, "name_en": "Greek Fortified Settlements", "name_te": "గ్రీకు దుర్గీకృత నిపటనాలు", "lat": 37.0, "lon": 23.0, "desc_en": "Fortified settlements in Greece.", "desc_te": "గ్రీసులో దుర్గీకృత నిపటనాలు." },
	{ "startYear": -3740, "endYear": -3720, "name_en": "Greek Warrior Class", "name_te": "గ్రీకు యోధ వర్గం", "lat": 37.5, "lon": 23.5, "desc_en": "Warrior class in Greece.", "desc_te": "గ్రీసులో యోధ వర్గం." },
	{ "startYear": -3720, "endYear": -3700, "name_en": "Greek Bronze Working", "name_te": "గ్రీకు ఫిరంజి కండ్లుకుట", "lat": 37.0, "lon": 23.0, "desc_en": "Bronze working in Greece.", "desc_te": "గ్రీసులో ఫిరంజి కండ్లుకుట." },
	{ "startYear": -3800, "endYear": -3780, "name_en": "European Neolithic Close", "name_te": "యూరోపియన్ నియోలిథిక్ సమీపం", "lat": 48.0, "lon": 15.0, "desc_en": "Neolithic close in Europe.", "desc_te": "యూరోపులో నియోలిథిక్ సమీపం." },
	{ "startYear": -3780, "endYear": -3760, "name_en": "European Bronze Age Start", "name_te": "యూరోపియన్ ఫిరంజి యుగం ప్రారంభం", "lat": 48.5, "lon": 14.5, "desc_en": "Bronze Age start in Europe.", "desc_te": "యూరోపులో ఫిరంజి యుగం ప్రారంభం." },
	{ "startYear": -3760, "endYear": -3740, "name_en": "European Metal Resources", "name_te": "యూరోపియన్ లోహ సంపద", "lat": 48.0, "lon": 15.0, "desc_en": "Metal resources in Europe.", "desc_te": "యూరోపులో లోహ సంపద." },
	{ "startYear": -3740, "endYear": -3720, "name_en": "European Fortified Hilltops", "name_te": "యూరోపియన్ దుర్గీకృత కొండ శిఖరాలు", "lat": 50.0, "lon": 10.0, "desc_en": "Fortified hilltops in Europe.", "desc_te": "యూరోపులో దుర్గీకృత కొండ శిఖరాలు." },
	{ "startYear": -3720, "endYear": -3700, "name_en": "European Early Elite Culture", "name_te": "యూరోపియన్ ఎర్లీ ఉన్నత సంస్కృతి", "lat": 48.0, "lon": 15.0, "desc_en": "Early elite culture in Europe.", "desc_te": "యూరోపులో ఎర్లీ ఉన్నత సంస్కృతి." },
	{ "startYear": -3800, "endYear": -3780, "name_en": "Nubian Early Communities", "name_te": "నుబియన్ ఎర్లీ సమాజాలు", "lat": 18.0, "lon": 33.0, "desc_en": "Early communities in Nubia.", "desc_te": "నుబియాలో ఎర్లీ సమాజాలు." },
	{ "startYear": -3780, "endYear": -3760, "name_en": "Nubian Pastoralist Settlement", "name_te": "నుబియన్ పశుపాలక నిపటన", "lat": 18.5, "lon": 33.0, "desc_en": "Pastoralist settlement in Nubia.", "desc_te": "నుబియాలో పశుపాలక నిపటన." },
	{ "startYear": -3760, "endYear": -3740, "name_en": "Nubian Semi-Nomadic Life", "name_te": "నుబియన్ సెమీ-సంచారీ జీవితం", "lat": 18.0, "lon": 33.0, "desc_en": "Semi-nomadic life in Nubia.", "desc_te": "నుబియాలో సెమీ-సంచారీ జీవితం." },
	{ "startYear": -3740, "endYear": -3720, "name_en": "Nubian Nile Communities", "name_te": "నుబియన్ నీలు సమాజాలు", "lat": 18.5, "lon": 33.0, "desc_en": "Nile communities in Nubia.", "desc_te": "నుబియాలో నీలు సమాజాలు." },
	{ "startYear": -3720, "endYear": -3700, "name_en": "Nubian Regional Development", "name_te": "నుబియన్ ప్రాంతీయ అభివృద్ధి", "lat": 18.0, "lon": 33.0, "desc_en": "Regional development in Nubia.", "desc_te": "నుబియాలో ప్రాంతీయ అభివృద్ధి." },
	{ "startYear": -3800, "endYear": -3780, "name_en": "Aboriginal Australia Advancement", "name_te": "ఆదివాసీ ఆస్ట్రేలియా ఆధునికీకరణ", "lat": -20.0, "lon": 134.0, "desc_en": "Cultural advancement in Aboriginal Australia.", "desc_te": "ఆదివాసీ ఆస్ట్రేలియాలో సాంస్కృతిక ఆధునికీకరణ." },
	{ "startYear": -3780, "endYear": -3760, "name_en": "Aboriginal Craft Mastery", "name_te": "ఆదివాసీ కారిగర నిపుణత", "lat": -25.0, "lon": 133.0, "desc_en": "Craft mastery in Aboriginal Australia.", "desc_te": "ఆదివాసీ ఆస్ట్రేలియాలో కారిగర నిపుణత." },
	{ "startYear": -3760, "endYear": -3740, "name_en": "Aboriginal Hunting Sophistication", "name_te": "ఆదివాసీ వేటకాడుట చమత్కారం", "lat": -20.0, "lon": 134.0, "desc_en": "Hunting sophistication in Aboriginal Australia.", "desc_te": "ఆదివాసీ ఆస్ట్రేలియాలో వేటకాడుట చమత్కారం." },
	{ "startYear": -3740, "endYear": -3720, "name_en": "Aboriginal Spiritual Knowledge", "name_te": "ఆదివాసీ ఆధ్యాత్మిక జ్ఞానం", "lat": -25.0, "lon": 133.0, "desc_en": "Spiritual knowledge in Aboriginal Australia.", "desc_te": "ఆదివాసీ ఆస్ట్రేలియాలో ఆధ్యాత్మిక జ్ఞానం." },
	{ "startYear": -3720, "endYear": -3700, "name_en": "Aboriginal Community Networks", "name_te": "ఆదివాసీ సమాజ నెట్‌వర్కులు", "lat": -20.0, "lon": 134.0, "desc_en": "Community networks in Aboriginal Australia.", "desc_te": "ఆదివాసీ ఆస్ట్రేలియాలో సమాజ నెట్‌వర్కులు." }*/
]