[
	/*{ "startYear": -4000, "endYear": -3980, "name_en": "Predynastic Egypt Amratian", "name_te": "ప్రీ-డైనాస్టిక్ ఈజిప్టు అమ్రాటియన్", "lat": 30.0, "lon": 31.2, "desc_en": "Amratian predynastic period Egypt.", "desc_te": "అమ్రాటియన్ ప్రీ-డైనాస్టిక్ కాలం ఈజిప్టు." },
	{ "startYear": -3980, "endYear": -3960, "name_en": "Egyptian Pottery Crafts", "name_te": "ఈజిప్టు కుండల కళలు", "lat": 29.5, "lon": 31.0, "desc_en": "Pottery crafts in predynastic Egypt.", "desc_te": "ప్రీ-డైనాస్టిక్ ఈజిప్టులో కుండల కళలు." },
	{ "startYear": -3960, "endYear": -3940, "name_en": "Egyptian Copper Working", "name_te": "ఈజిప్టు రాగి కండ్లుకుట", "lat": 30.0, "lon": 31.2, "desc_en": "Copper working in Egypt.", "desc_te": "ఈజిప్టులో రాగి కండ్లుకుట." },
	{ "startYear": -3940, "endYear": -3920, "name_en": "Egyptian Trade Goods", "name_te": "ఈజిప్టు వాణిజ్య వస్తువులు", "lat": 30.5, "lon": 31.2, "desc_en": "Trade goods in predynastic Egypt.", "desc_te": "ప్రీ-డైనాస్టిక్ ఈజిప్టులో వాణిజ్య వస్తువులు." },
	{ "startYear": -3920, "endYear": -3900, "name_en": "Egyptian Settlement Spread", "name_te": "ఈజిప్టు నిపటన ప్రసారం", "lat": 30.0, "lon": 31.2, "desc_en": "Settlement spread in predynastic Egypt.", "desc_te": "ప్రీ-డైనాస్టిక్ ఈజిప్టులో నిపటన ప్రసారం." },
	{ "startYear": -4000, "endYear": -3980, "name_en": "Hassuna Period Mesopotamia", "name_te": "హస్సూనా కాలం మెసొపొటేమియా", "lat": 32.0, "lon": 46.0, "desc_en": "Hassuna period in Mesopotamia.", "desc_te": "మెసొపొటేమియాలో హస్సూనా కాలం." },
	{ "startYear": -3980, "endYear": -3960, "name_en": "Mesopotamian Early Settlement", "name_te": "మెసొపొటేమియా ఎర్లీ నిపటన", "lat": 32.5, "lon": 46.5, "desc_en": "Early settlement in Mesopotamia.", "desc_te": "మెసొపొటేమియాలో ఎర్లీ నిపటన." },
	{ "startYear": -3960, "endYear": -3940, "name_en": "Mesopotamian Agricultural Base", "name_te": "మెసొపొటేమియా వ్యవసాయ ఆధారం", "lat": 32.0, "lon": 46.0, "desc_en": "Agricultural base in Mesopotamia.", "desc_te": "మెసొపొటేమియాలో వ్యవసాయ ఆధారం." },
	{ "startYear": -3940, "endYear": -3920, "name_en": "Mesopotamian Tool Development", "name_te": "మెసొపొటేమియా సాధన అభివృద్ధి", "lat": 31.5, "lon": 46.5, "desc_en": "Tool development in Mesopotamia.", "desc_te": "మెసొపొటేమియాలో సాధన అభివృద్ధి." },
	{ "startYear": -3920, "endYear": -3900, "name_en": "Mesopotamian Community Formation", "name_te": "మెసొపొటేమియా సమాజ ఏర్పాటు", "lat": 32.0, "lon": 46.0, "desc_en": "Community formation in Mesopotamia.", "desc_te": "మెసొపొటేమియాలో సమాజ ఏర్పాటు." },
	{ "startYear": -4000, "endYear": -3980, "name_en": "Indus Valley Mehrgarh Early", "name_te": "సిందువు లోయ మెహర్గర్ ఎర్లీ", "lat": 28.0, "lon": 72.5, "desc_en": "Mehrgarh early phase in Indus Valley.", "desc_te": "సిందువు లోయ మెహర్గర్ ఎర్లీ దశ." },
	{ "startYear": -3980, "endYear": -3960, "name_en": "Indus Valley Pastoralism", "name_te": "సిందువు లోయ పశుపాలన", "lat": 28.5, "lon": 72.0, "desc_en": "Pastoralism in Indus Valley.", "desc_te": "సిందువు లోయ పశుపాలన." },
	{ "startYear": -3960, "endYear": -3940, "name_en": "Indus Valley Early Domestication", "name_te": "సిందువు లోయ ఎర్లీ క్రీడాకరణ", "lat": 28.0, "lon": 72.5, "desc_en": "Early domestication in Indus Valley.", "desc_te": "సిందువు లోయ ఎర్లీ క్రీడాకరణ." },
	{ "startYear": -3940, "endYear": -3920, "name_en": "Indus Valley Flint Knapping", "name_te": "సిందువు లోయ చకమక్ కండ్లుకుట", "lat": 28.5, "lon": 72.0, "desc_en": "Flint knapping in Indus Valley.", "desc_te": "సిందువు లోయ చకమక్ కండ్లుకుట." },
	{ "startYear": -3920, "endYear": -3900, "name_en": "Indus Valley Settlement Pattern", "name_te": "సిందువు లోయ నిపటన నమూనా", "lat": 28.0, "lon": 72.5, "desc_en": "Settlement pattern in Indus Valley.", "desc_te": "సిందువు లోయ నిపటన నమూనా." },
	{ "startYear": -4000, "endYear": -3980, "name_en": "Yangshao Period China", "name_te": "యాంగ్‌షావో కాలం చైనా", "lat": 34.5, "lon": 107.5, "desc_en": "Yangshao period in China.", "desc_te": "చైనాలో యాంగ్‌షావో కాలం." },
	{ "startYear": -3980, "endYear": -3960, "name_en": "Chinese Early Farming", "name_te": "చైనీస్ ఎర్లీ సfarming", "lat": 34.0, "lon": 107.0, "desc_en": "Early farming in China.", "desc_te": "చైనాలో ఎర్లీ సงt్రిలాని." },
	{ "startYear": -3960, "endYear": -3940, "name_en": "Chinese Village Communities", "name_te": "చైనీస్ గ్రామ సమాజాలు", "lat": 34.0, "lon": 107.0, "desc_en": "Village communities in China.", "desc_te": "చైనాలో గ్రామ సమాజాలు." },
	{ "startYear": -3940, "endYear": -3920, "name_en": "Chinese Pottery Tradition", "name_te": "చైనీస్ కుండల సంప్రదాయం", "lat": 34.5, "lon": 107.5, "desc_en": "Pottery tradition in China.", "desc_te": "చైనాలో కుండల సంప్రదాయం." },
	{ "startYear": -3920, "endYear": -3900, "name_en": "Chinese Cultural Continuity", "name_te": "చైనీస్ సాంస్కృతిక నిరంతరం", "lat": 34.0, "lon": 107.0, "desc_en": "Cultural continuity in China.", "desc_te": "చైనాలో సాంస్కృతిక నిరంతరం." },
	{ "startYear": -4000, "endYear": -3980, "name_en": "Pre-Minoan Settlement Crete", "name_te": "ప్రీ-మినోయన్ నిపటన క్రీట్", "lat": 35.0, "lon": 24.5, "desc_en": "Pre-Minoan settlement on Crete.", "desc_te": "క్రీట్‌లో ప్రీ-మినోయన్ నిపటన." },
	{ "startYear": -3980, "endYear": -3960, "name_en": "Cretan Early Settlements", "name_te": "క్రీటన్ ఎర్లీ నిపటనాలు", "lat": 35.3, "lon": 24.8, "desc_en": "Early settlements on Crete.", "desc_te": "క్రీట్‌లో ఎర్లీ నిపటనాలు." },
	{ "startYear": -3960, "endYear": -3940, "name_en": "Cretan Hunter-Gatherer Culture", "name_te": "క్రీటన్ వేటకాడు-సేకరణ సంస్కృతి", "lat": 35.2, "lon": 24.7, "desc_en": "Hunter-gatherer culture on Crete.", "desc_te": "క్రీట్‌లో వేటకాడు-సేకరణ సంస్కృతి." },
	{ "startYear": -3940, "endYear": -3920, "name_en": "Cretan Early Tool Development", "name_te": "క్రీటన్ ఎర్లీ సాధన అభివృద్ధి", "lat": 35.4, "lon": 25.0, "desc_en": "Early tool development on Crete.", "desc_te": "క్రీట్‌లో ఎర్లీ సాధన అభివృద్ధి." },
	{ "startYear": -3920, "endYear": -3900, "name_en": "Cretan Settlement Beginnings", "name_te": "క్రీటన్ నిపటన ప్రారంభాలు", "lat": 35.3, "lon": 24.9, "desc_en": "Settlement beginnings on Crete.", "desc_te": "క్రీట్‌లో నిపటన ప్రారంభాలు." },
	{ "startYear": -4000, "endYear": -3980, "name_en": "Earliest Helladic Greece", "name_te": "ఆదిమ హెలాడిక్ గ్రీస్", "lat": 37.5, "lon": 23.0, "desc_en": "Earliest Helladic period in Greece.", "desc_te": "గ్రీసులో ఆదిమ హెలాడిక్ కాలం." },
	{ "startYear": -3980, "endYear": -3960, "name_en": "Greek Neolithic Culture", "name_te": "గ్రీకు నియోలిథిక్ సంస్కృతి", "lat": 37.0, "lon": 23.0, "desc_en": "Neolithic culture in Greece.", "desc_te": "గ్రీసులో నియోలిథిక్ సంస్కృతి." },
	{ "startYear": -3960, "endYear": -3940, "name_en": "Greek Early Agriculture", "name_te": "గ్రీకు ఎర్లీ వ్యవసాయం", "lat": 37.0, "lon": 23.0, "desc_en": "Early agriculture in Greece.", "desc_te": "గ్రీసులో ఎర్లీ వ్యవసాయం." },
	{ "startYear": -3940, "endYear": -3920, "name_en": "Greek Settlement Foundations", "name_te": "గ్రీకు నిపటన ఆధారాలు", "lat": 37.5, "lon": 23.5, "desc_en": "Settlement foundations in Greece.", "desc_te": "గ్రీసులో నిపటన ఆధారాలు." },
	{ "startYear": -3920, "endYear": -3900, "name_en": "Greek Community Beginnings", "name_te": "గ్రీకు సమాజ ప్రారంభాలు", "lat": 37.0, "lon": 23.0, "desc_en": "Community beginnings in Greece.", "desc_te": "గ్రీసులో సమాజ ప్రారంభాలు." },
	{ "startYear": -4000, "endYear": -3980, "name_en": "Mesolithic Europe Transition", "name_te": "మెసోలిథిక్ యూరోపు పరివర్తన", "lat": 48.0, "lon": 15.0, "desc_en": "Mesolithic to Neolithic transition in Europe.", "desc_te": "యూరోపులో మెసోలిథిక్ నుండి నియోలిథిక్ పరివర్తన." },
	{ "startYear": -3980, "endYear": -3960, "name_en": "European Early Farming", "name_te": "యూరోపియన్ ఎర్లీ సงt్రిలాని", "lat": 48.5, "lon": 14.5, "desc_en": "Early farming in Europe.", "desc_te": "యూరోపులో ఎర్లీ సงt్రిలాని." },
	{ "startYear": -3960, "endYear": -3940, "name_en": "European Early Villages", "name_te": "యూరోపియన్ ఎర్లీ గ్రామాలు", "lat": 48.0, "lon": 15.0, "desc_en": "Early villages in Europe.", "desc_te": "యూరోపులో ఎర్లీ గ్రామాలు." },
	{ "startYear": -3940, "endYear": -3920, "name_en": "European Agricultural Spread", "name_te": "యూరోపియన్ వ్యవసాయ ప్రసారం", "lat": 50.0, "lon": 10.0, "desc_en": "Agricultural spread in Europe.", "desc_te": "యూరోపులో వ్యవసాయ ప్రసారం." },
	{ "startYear": -3920, "endYear": -3900, "name_en": "European Cultural Development", "name_te": "యూరోపియన్ సాంస్కృతిక అభివృద్ధి", "lat": 48.0, "lon": 15.0, "desc_en": "Cultural development in Europe.", "desc_te": "యూరోపులో సాంస్కృతిక అభివృద్ధి." },
	{ "startYear": -4000, "endYear": -3980, "name_en": "Nubian Early Communities", "name_te": "నుబియన్ ఎర్లీ సమాజాలు", "lat": 18.0, "lon": 33.0, "desc_en": "Early communities in Nubia.", "desc_te": "నుబియాలో ఎర్లీ సమాజాలు." },
	{ "startYear": -3980, "endYear": -3960, "name_en": "Nubian Hunter-Gatherers", "name_te": "నుబియన్ వేటకాడు-సేకరకులు", "lat": 18.5, "lon": 33.0, "desc_en": "Hunter-gatherers in Nubia.", "desc_te": "నుబియాలో వేటకాడు-సేకరకులు." },
	{ "startYear": -3960, "endYear": -3940, "name_en": "Nubian Settlement Pattern", "name_te": "నుబియన్ నిపటన నమూనా", "lat": 18.0, "lon": 33.0, "desc_en": "Settlement pattern in Nubia.", "desc_te": "నుబియాలో నిపటన నమూనా." },
	{ "startYear": -3940, "endYear": -3920, "name_en": "Nubian Nile Adaptation", "name_te": "నుబియన్ నీలు అనుకూలన", "lat": 18.5, "lon": 33.0, "desc_en": "Nile adaptation in Nubia.", "desc_te": "నుబియాలో నీలు అనుకూలన." },
	{ "startYear": -3920, "endYear": -3900, "name_en": "Nubian Early Culture", "name_te": "నుబియన్ ఎర్లీ సంస్కృతి", "lat": 18.0, "lon": 33.0, "desc_en": "Early culture in Nubia.", "desc_te": "నుబియాలో ఎర్లీ సంస్కృతి." },
	{ "startYear": -4000, "endYear": -3980, "name_en": "Aboriginal Australia Ancient Roots", "name_te": "ఆదివాసీ ఆస్ట్రేలియా పురాతన మూలాలు", "lat": -20.0, "lon": 134.0, "desc_en": "Ancient roots in Aboriginal Australia.", "desc_te": "ఆదివాసీ ఆస్ట్రేలియాలో పురాతన మూలాలు." },
	{ "startYear": -3980, "endYear": -3960, "name_en": "Aboriginal Ancient Hunters", "name_te": "ఆదివాసీ పురాతన వేటకాళ్లు", "lat": -25.0, "lon": 133.0, "desc_en": "Ancient hunters in Aboriginal Australia.", "desc_te": "ఆదివాసీ ఆస్ట్రేలియాలో పురాతన వేటకాళ్లు." },
	{ "startYear": -3960, "endYear": -3940, "name_en": "Aboriginal Primitive Tools", "name_te": "ఆదివాసీ ఆదిమ సాధనాలు", "lat": -20.0, "lon": 134.0, "desc_en": "Primitive tools in Aboriginal Australia.", "desc_te": "ఆదివాసీ ఆస్ట్రేలియాలో ఆదిమ సాధనాలు." },
	{ "startYear": -3940, "endYear": -3920, "name_en": "Aboriginal Land Knowledge", "name_te": "ఆదివాసీ భూ జ్ఞానం", "lat": -25.0, "lon": 133.0, "desc_en": "Land knowledge in Aboriginal Australia.", "desc_te": "ఆదివాసీ ఆస్ట్రేలియాలో భూ జ్ఞానం." },
	{ "startYear": -3920, "endYear": -3900, "name_en": "Aboriginal Cultural Foundations", "name_te": "ఆదివాసీ సాంస్కృతిక ఆధారాలు", "lat": -20.0, "lon": 134.0, "desc_en": "Cultural foundations in Aboriginal Australia.", "desc_te": "ఆదివాసీ ఆస్ట్రేలియాలో సాంస్కృతిక ఆధారాలు." }*/
]