[
  { "startYear": -900, "endYear": -880, "name_en": "Confucius Teachings Peak (China)", "name_te": "కన్ఫ్యూషియస్ నిర్దేశాలు శిఖరం (చైనా)", "lat": 35.09, "lon": 117.14, "desc_en": "Confucius teachings spread, influencing Chinese philosophy", "desc_te": "కన్ఫ్యూషియస్ నిర్దేశాలు వ్యాపకం, చైనీస్ తత్వశాస్త్రాన్ని ప్రభావితం" },
  { "startYear": -900, "endYear": -880, "name_en": "Laozi Daoist Philosophy (China)", "name_te": "లావోజు దైవిక తత్వశాస్త్రం (చైనా)", "lat": 34.0, "lon": 107.0, "desc_en": "Laozi and Daoist philosophy emerge in China", "desc_te": "లావోజు, దైవిక తత్వశాస్త్రం చైనాలో ఉద్భవం" },
  { "startYear": -900, "endYear": -880, "name_en": "Greek Archaic Period (Greece)", "name_te": "గ్రీక్ ప్రాచీన కాలం (గ్రీస్)", "lat": 38.0, "lon": 23.0, "desc_en": "Greek Archaic period begins with development of city-states", "desc_te": "గ్రీక్ ప్రాచీన కాలం నగర-రాజ్యాల అభివృద్ధితో ప్రారంభ" },
  { "startYear": -900, "endYear": -880, "name_en": "Brahmanis Upanishads Peak (India)", "name_te": "బ్రాహ్మణ ఉపనిషద్ శిఖరం (భారతదేశం)", "lat": 26.0, "lon": 74.0, "desc_en": "Brahmanis and Upanishad philosophy reaches peak", "desc_te": "బ్రాహ్మణ, ఉపనిషద్ తత్వశాస్త్రం శిఖరస్థాయిని చేరుకుంటుంది" },
  { "startYear": -880, "endYear": -860, "name_en": "Ashurnasirpal II Expands Assyria (Iraq)", "name_te": "అష్‌నర్నసిర్‌పల్ II అస్సిరియా విస్తరణ (ఇరాక్)", "lat": 36.0, "lon": 43.0, "desc_en": "Ashurnasirpal II expands Assyrian empire militarily", "desc_te": "అష్‌నర్నసిర్‌పల్ II అస్సిరియన్ సామ్రాజ్యం సైనికంగా విస్తరిస్తారు" },
  { "startYear": -880, "endYear": -860, "name_en": "Homer's Epics Circulate (Greece)", "name_te": "హోమర్ ఇతిహాసాలు ప్రసారం (గ్రీస్)", "lat": 38.0, "lon": 23.0, "desc_en": "Homer's Iliad and Odyssey circulated widely in Greece", "desc_te": "హోమర్ ఇలియడ్, ఒడిస్సీ గ్రీస్‌లో విస్తృతంగా ప్రసారం" },
  { "startYear": -860, "endYear": -840, "name_en": "Shalmaneser III Campaigns (Iraq)", "name_te": "శల్‌మనేసర్ III చర్యలు (ఇరాక్)", "lat": 36.0, "lon": 43.0, "desc_en": "Shalmaneser III continues Assyrian military expansion", "desc_te": "శల్‌మనేసర్ III అస్సిరియన్ సైనిక విస్తరణ కొనసాగిస్తారు" },
  { "startYear": -860, "endYear": -840, "name_en": "Phoenician Colonies (Mediterranean)", "name_te": "ఫీనిషియన్ కాలోనీలు (మధ్యధరా)", "lat": 33.35, "lon": 35.5, "desc_en": "Phoenician colonies established across Mediterranean", "desc_te": "మధ్యధరా అంతటా ఫీనిషియన్ కాలోనీలు స్థాపన" },
  { "startYear": -840, "endYear": -820, "name_en": "Hallstatt Culture (Europe)", "name_te": "హాల్‌స్టాట్ సంస్కృతి (యూరప్)", "lat": 48.0, "lon": 13.0, "desc_en": "Hallstatt culture emerges in Central Europe", "desc_te": "కేంద్ర ఐరోపాలో హాల్‌స్టాట్ సంస్కృతి ఉద్భవం" },
  { "startYear": -840, "endYear": -820, "name_en": "Buddha Born (India)", "name_te": "బుద్ధ జన్ముతారు (భారతదేశం)", "lat": 27.49, "lon": 84.73, "desc_en": "Buddha traditionally born in Nepal/India region", "desc_te": "బుద్ధ నేపాల్/భారతదేశ ప్రాంతంలో పారంపరికంగా జన్మితారు" },
  { "startYear": -820, "endYear": -800, "name_en": "Zhou Dynasty Decline Begins (China)", "name_te": "జోవు రాజవంశ క్షీణత ప్రారంభ (చైనా)", "lat": 34.0, "lon": 107.0, "desc_en": "Western Zhou dynasty begins to decline", "desc_te": "పశ్చిమ జోవు రాజవంశం క్షీణత ప్రారంభ" },
  { "startYear": -820, "endYear": -800, "name_en": "Etruscan Dominance (Italy)", "name_te": "ఎట్రుస్కన్ ఆధిపత్యం (ఇటలీ)", "lat": 42.88, "lon": 11.62, "desc_en": "Etruscan civilization reaches peak power in Italy", "desc_te": "ఎట్రుస్కన్ నాగరికత ఇటలీలో శిఖర శక్తిని చేరుకుంటుంది" },
  { "startYear": -895, "endYear": -885, "name_en": "Egyptian 21st Dynasty (Egypt)", "name_te": "ఐజిప్టు 21వ రాజవంశం (ఐజిప్టు)", "lat": 30.04, "lon": 31.24, "desc_en": "Egyptian 21st Dynasty period with reduced central authority", "desc_te": "ఐజిప్టు 21వ రాజవంశ కాలం, కేంద్రీయ అధికారం సంకోచం" },
  { "startYear": -890, "endYear": -880, "name_en": "Trowel Culture Development (Europe)", "name_te": "ట్రోవెల్ సంస్కృతి అభివృద్ధి (యూరప్)", "lat": 50.0, "lon": 10.0, "desc_en": "Iron Age cultures develop trowel tools and settle patterns", "desc_te": "ఇనుప యుగ సంస్కృతులు ట్రోవెల్ సాధనాలు అభివృద్ధి చేయండి" },
  { "startYear": -885, "endYear": -860, "name_en": "Ashurnasirpal II's Campaigns (Iraq)", "name_te": "అష్‌నర్నసిర్‌పల్ II చర్యలు (ఇరాక్)", "lat": 36.34, "lon": 43.13, "desc_en": "Ashurnasirpal II expands Assyrian military power across Mesopotamia and Syria", "desc_te": "అష్‌నర్నసిర్‌పల్ II మెసోపొటేమియా, సిరియాలో అస్సిరియన్ సైనిక శక్తిని విస్తరిస్తారు" },
  { "startYear": -880, "endYear": -870, "name_en": "Greek Alphabet Adapted from Phoenician (Greece)", "name_te": "ఫీనిషియన్ నుండి గ్రీక్ వర్ణమాల స్వీకరణ (గ్రీస్)", "lat": 38.0, "lon": 23.0, "desc_en": "Greeks adapt Phoenician alphabet, creating the Greek alphabet", "desc_te": "గ్రీకులు ఫీనిషియన్ వర్ణమాల నుండి గ్రీక్ వర్ణమాల సృష్టిస్తారు" },
  { "startYear": -880, "endYear": -860, "name_en": "Chinese States Expand (China)", "name_te": "చైనీస్ రాజ్యాలు విస్తరణ (చైనా)", "lat": 34.0, "lon": 107.0, "desc_en": "Various Chinese states expand territory during late Western Zhou period", "desc_te": "పస్చిమ జోవు కాలంలో వివిధ చైనీస్ రాజ్యాలు భూభాగం విస్తరిస్తాయి" },
  { "startYear": -875, "endYear": -865, "name_en": "Battle of Karkar (Syria/Iraq)", "name_te": "కర్కర సమరం (సిరియా/ఇరాక్)", "lat": 35.7, "lon": 37.1, "desc_en": "Battle of Karkar: Shalmaneser III fights coalition of Syrian-Palestinian kings", "desc_te": "కర్కర సమరం: శల్‌మనేసర్ III సిరియన్-ప్యాలస్టైనియన్ రాజుల సంయుక్త సైన్యానికి విరుద్ధంగా పోరాడుతారు" },
  { "startYear": -870, "endYear": -850, "name_en": "Indian Iron Age Develops (India)", "name_te": "భారతీయ ఇనుప యుగ అభివృద్ధి (భారతదేశం)", "lat": 26.0, "lon": 74.0, "desc_en": "Iron Age technologies develop in northern India", "desc_te": "ఉత్తర భారతదేశంలో ఇనుప యుగ సాంకేతికత అభివృద్ధి" },
  { "startYear": -865, "endYear": -855, "name_en": "Shalmaneser III's Rise to Power (Iraq)", "name_te": "శల్‌మనేసర్ III అధికారాన్ని పట్టుకోయడం (ఇరాక్)", "lat": 36.34, "lon": 43.13, "desc_en": "Shalmaneser III becomes king of Assyria and continues military expansion", "desc_te": "శల్‌మనేసర్ III అస్సిరియ రాజుగా అవతరించి, సైనిక విస్తరణ కొనసాగిస్తారు" },
  { "startYear": -860, "endYear": -840, "name_en": "Maya Civilization Development (Central America)", "name_te": "మాయ నాగరికత అభివృద్ధి (కేంద్ర అమెరికా)", "lat": 16.0, "lon": -92.0, "desc_en": "Maya civilization develops complex societies in Mesoamerica", "desc_te": "మాయ నాగరికత మెసోఅమెరికాలో సంక్లిష్ట సమాజాలను అభివృద్ధి చేస్తుంది" },
  { "startYear": -850, "endYear": -830, "name_en": "Phoenician Trade Expansion (Mediterranean)", "name_te": "ఫీనిషియన్ వాణిజ్య విస్తరణ (మధ్యధరా)", "lat": 33.35, "lon": 35.5, "desc_en": "Phoenicians expand maritime trade routes across Mediterranean", "desc_te": "ఫీనిషియన్లు మధ్యధరా అంతటా సముద్ర వాణిజ్య మార్గాలను విస్తరిస్తారు" },
  { "startYear": -845, "endYear": -835, "name_en": "Greek Colonization Begins (Greece/Mediterranean)", "name_te": "గ్రీక్ కాలోనీకరణ ప్రారంభ (గ్రీస్/మధ్యధరా)", "lat": 38.0, "lon": 23.0, "desc_en": "Greeks establish colonies in southern Italy and Sicily", "desc_te": "గ్రీకులు దక్షిణ ఇటలీ, సిసిలీలో కాలోనీలను స్థాపిస్తారు" },
  { "startYear": -840, "endYear": -820, "name_en": "Zhou Dynasty Continues Central Rule (China)", "name_te": "జోవు రాజవంశం కేంద్రీయ పాలన కొనసాగుతుంది (చైనా)", "lat": 34.0, "lon": 107.0, "desc_en": "Eastern Zhou dynasty period of 'Spring and Autumn' chaos begins", "desc_te": "తూర్పు జోవు రాజవంశం 'సరస్సు శరద్' అస్తవ్యస్త కాలం ప్రారంభ" },
  { "startYear": -835, "endYear": -815, "name_en": "Egyptian Decline Continues (Egypt)", "name_te": "ఐజిప్టు క్షీణత కొనసాగుతుంది (ఐజిప్టు)", "lat": 30.04, "lon": 31.24, "desc_en": "Egypt experiences weakening authority during 22nd Dynasty period", "desc_te": "22వ రాజవంశ కాలంలో ఐజిప్టు అధికారం దుర్బలం పడుతుంది" },
  { "startYear": -820, "endYear": -800, "name_en": "Iron Age Culture Flourishes (Europe)", "name_te": "ఇనుప యుగ సంస్కృతి సమృద్ధిగా పెరుగుతుంది (యూరప్)", "lat": 50.0, "lon": 10.0, "desc_en": "Iron Age culture flourishes with development of advanced tools and weapons", "desc_te": "ఇనుప యుగ సంస్కృతి ఆధునిక సాధనాలు, ఆయుధాల అభివృద్ధితో సమృద్ధిగా పెరుగుతుంది" }
]