[
	/*{ "startYear": -3500, "endYear": -3480, "name_en": "Egyptian Predynastic Late Period", "name_te": "ఈజిప్టు ప్రీ-డైనాస్టిక్ చివరి కాలం", "lat": 30.0, "lon": 31.2, "desc_en": "Late predynastic period in Egypt.", "desc_te": "ఈజిప్టులో చివరి ప్రీ-డైనాస్టిక్ కాలం." },
	{ "startYear": -3480, "endYear": -3460, "name_en": "Egyptian Nile Delta Control", "name_te": "ఈజిప్టు నీలు డెల్టా నియంత్రణ", "lat": 30.5, "lon": 31.0, "desc_en": "Nile Delta control contested.", "desc_te": "నీలు డెల్టా నియంత్రణ వివాదాస్పదం." },
	{ "startYear": -3460, "endYear": -3440, "name_en": "Egyptian Elite Power Centers", "name_te": "ఈజిప్టు ఉన్నత శక్తి కేంద్రాలు", "lat": 29.5, "lon": 31.0, "desc_en": "Elite power centers emerge in Egypt.", "desc_te": "ఈజిప్టులో ఉన్నత శక్తి కేంద్రాలు ఆవిర్భవిస్తాయి." },
	{ "startYear": -3440, "endYear": -3420, "name_en": "Egyptian Regional Conflict", "name_te": "ఈజిప్టు ప్రాంతీయ సంఘర్షణ", "lat": 30.0, "lon": 31.2, "desc_en": "Regional conflicts in Egypt.", "desc_te": "ఈజిప్టులో ప్రాంతీయ సంఘర్షణలు." },
	{ "startYear": -3420, "endYear": -3400, "name_en": "Egyptian Centralization Movement", "name_te": "ఈజిప్టు కేంద్రీయకరణ ఉద్యమం", "lat": 30.0, "lon": 31.2, "desc_en": "Centralization movement in Egypt.", "desc_te": "ఈజిప్టులో కేంద్రీయకరణ ఉద్యమం." },
	{ "startYear": -3500, "endYear": -3480, "name_en": "Late Ubaid Period Mesopotamia", "name_te": "చివరి ఉబాయిడ్ కాలం మెసొపొటేమియా", "lat": 32.0, "lon": 46.0, "desc_en": "Late Ubaid period in Mesopotamia.", "desc_te": "మెసొపొటేమియాలో చివరి ఉబాయిడ్ కాలం." },
	{ "startYear": -3480, "endYear": -3460, "name_en": "Uruk Expansion Mesopotamia", "name_te": "ఉరుక్ విస్తరణ మెసొపొటేమియా", "lat": 32.5, "lon": 46.5, "desc_en": "Uruk expansion in Mesopotamia.", "desc_te": "మెసొపొటేమియాలో ఉరుక్ విస్తరణ." },
	{ "startYear": -3460, "endYear": -3440, "name_en": "Mesopotamian Temple Authority", "name_te": "మెసొపొటేమియా ఆలయ అధికారం", "lat": 32.0, "lon": 46.0, "desc_en": "Temple authority consolidates.", "desc_te": "ఆలయ అధికారం సమీకరణ చేస్తుంది." },
	{ "startYear": -3440, "endYear": -3420, "name_en": "Sumerian Priest Kings", "name_te": "సుమేరియన్ పూజారీ రాజులు", "lat": 32.0, "lon": 46.0, "desc_en": "Priest kings in Sumer.", "desc_te": "సుమేరులో పూజారీ రాజులు." },
	{ "startYear": -3420, "endYear": -3400, "name_en": "Mesopotamian Urban Growth", "name_te": "మెసొపొటేమియా నగర వృద్ధి", "lat": 31.5, "lon": 46.5, "desc_en": "Urban growth in Mesopotamia.", "desc_te": "మెసొపొటేమియాలో నగర వృద్ధి." },
	{ "startYear": -3500, "endYear": -3480, "name_en": "Indus Valley Harappa Rise", "name_te": "సిందువు లోయ హరప్పా పెరుగుదల", "lat": 28.0, "lon": 72.5, "desc_en": "Harappa culture rises in Indus Valley.", "desc_te": "సిందువు లోయలో హరప్పా సంస్కృతి పెరుగుతుంది." },
	{ "startYear": -3480, "endYear": -3460, "name_en": "Indus Valley Urban Density", "name_te": "సిందువు లోయ నగర సాంద్రత", "lat": 28.5, "lon": 72.0, "desc_en": "Urban density increases in Indus Valley.", "desc_te": "సిందువు లోయ నగర సాంద్రత పెరుగుతుంది." },
	{ "startYear": -3460, "endYear": -3440, "name_en": "Indus Valley Water Systems", "name_te": "సిందువు లోయ నీటి వ్యవస్థలు", "lat": 28.0, "lon": 72.5, "desc_en": "Water systems develop in Indus Valley.", "desc_te": "సిందువు లోయ నీటి వ్యవస్థలు అభివృద్ధిస్తుంది." },
	{ "startYear": -3440, "endYear": -3420, "name_en": "Indus Valley Craft Expansion", "name_te": "సిందువు లోయ కారిగర విస్తరణ", "lat": 28.5, "lon": 72.0, "desc_en": "Craft expansion in Indus Valley.", "desc_te": "సిందువు లోయ కారిగర విస్తరణ." },
	{ "startYear": -3420, "endYear": -3400, "name_en": "Indus Valley Proto-Dravidian", "name_te": "సిందువు లోయ ప్రోటో-దార్విడియన్", "lat": 28.0, "lon": 72.5, "desc_en": "Proto-Dravidian elements in Indus Valley.", "desc_te": "సిందువు లోయ ప్రోటో-దార్విడియన్ అంశాలు." },
	{ "startYear": -3500, "endYear": -3480, "name_en": "Xia Dynasty Early Legends", "name_te": "జియా వంశ ప్రారంభ పురాణాలు", "lat": 34.5, "lon": 107.5, "desc_en": "Xia Dynasty legends flourish.", "desc_te": "జియా వంశ పురాణాలు ఫలిస్తుంది." },
	{ "startYear": -3480, "endYear": -3460, "name_en": "Chinese Mythological Kings", "name_te": "చైనీస్ పురాణ రాజులు", "lat": 34.0, "lon": 107.0, "desc_en": "Mythological kings in China.", "desc_te": "చైనాలో పురాణ రాజులు." },
	{ "startYear": -3460, "endYear": -3440, "name_en": "Chinese Flood Mythology", "name_te": "చైనీస్ వరద పురాణం", "lat": 34.0, "lon": 107.0, "desc_en": "Flood mythology in China.", "desc_te": "చైనాలో వరద పురాణం." },
	{ "startYear": -3440, "endYear": -3420, "name_en": "Chinese Agricultural Gods", "name_te": "చైనీస్ వ్యవసాయ దేవతలు", "lat": 34.5, "lon": 107.5, "desc_en": "Agricultural gods worshipped in China.", "desc_te": "చైనాలో వ్యవసాయ దేవతలను పూజిస్తారు." },
	{ "startYear": -3420, "endYear": -3400, "name_en": "Chinese Legendary Heroes", "name_te": "చైనీస్ ఐతిహ్య విజయవంతులు", "lat": 34.0, "lon": 107.0, "desc_en": "Legendary heroes in China.", "desc_te": "చైనాలో ఐతిహ్య విజయవంతులు." },
	{ "startYear": -3500, "endYear": -3480, "name_en": "Early Minoan Culture Crete", "name_te": "ఎర్లీ మినోయన్ సంస్కృతి క్రీట్", "lat": 35.0, "lon": 24.5, "desc_en": "Early Minoan culture on Crete.", "desc_te": "క్రీట్‌లో ఎర్లీ మినోయన్ సంస్కృతి." },
	{ "startYear": -3480, "endYear": -3460, "name_en": "Minoan Settlement Expansion", "name_te": "మినోయన్ నిపటన విస్తరణ", "lat": 35.3, "lon": 24.8, "desc_en": "Settlement expansion on Crete.", "desc_te": "క్రీట్‌లో నిపటన విస్తరణ." },
	{ "startYear": -3460, "endYear": -3440, "name_en": "Minoan Farming Communities", "name_te": "మినోయన్ వ్యవసాయ సమాజాలు", "lat": 35.2, "lon": 24.7, "desc_en": "Farming communities on Crete.", "desc_te": "క్రీట్‌లో వ్యవసాయ సమాజాలు." },
	{ "startYear": -3440, "endYear": -3420, "name_en": "Minoan Religious Spaces", "name_te": "మినోయన్ ధార్మిక ప్రదేశాలు", "lat": 35.4, "lon": 25.0, "desc_en": "Religious spaces on Crete.", "desc_te": "క్రీట్‌లో ధార్మిక ప్రదేశాలు." },
	{ "startYear": -3420, "endYear": -3400, "name_en": "Minoan Population Growth", "name_te": "మినోయన్ జనాభా వృద్ధి", "lat": 35.3, "lon": 24.9, "desc_en": "Population growth on Crete.", "desc_te": "క్రీట్‌లో జనాభా వృద్ధి." },
	{ "startYear": -3500, "endYear": -3480, "name_en": "Early Helladic Culture Greece", "name_te": "ఎర్లీ హెలాడిక్ సంస్కృతి గ్రీస్", "lat": 37.5, "lon": 23.0, "desc_en": "Early Helladic culture in Greece.", "desc_te": "గ్రీసులో ఎర్లీ హెలాడిక్ సంస్కృతి." },
	{ "startYear": -3480, "endYear": -3460, "name_en": "Greek Bronze Introduction", "name_te": "గ్రీకు ఫిరంజి ప్రవేశం", "lat": 37.0, "lon": 23.0, "desc_en": "Bronze tools introduced in Greece.", "desc_te": "గ్రీసులో ఫిరంజి సాధనాలు ప్రవేశం చేయబడుతుంది." },
	{ "startYear": -3460, "endYear": -3440, "name_en": "Greek Agricultural Villages", "name_te": "గ్రీకు వ్యవసాయ గ్రామాలు", "lat": 37.0, "lon": 23.0, "desc_en": "Agricultural villages in Greece.", "desc_te": "గ్రీసులో వ్యవసాయ గ్రామాలు." },
	{ "startYear": -3440, "endYear": -3420, "name_en": "Greek Pottery Standardization", "name_te": "గ్రీకు కుండల ప్రామాణికీకరణ", "lat": 37.5, "lon": 23.5, "desc_en": "Pottery standardization in Greece.", "desc_te": "గ్రీసులో కుండల ప్రామాణికీకరణ." },
	{ "startYear": -3420, "endYear": -3400, "name_en": "Greek Population Increase", "name_te": "గ్రీకు జనాభా పెరుగుదల", "lat": 37.0, "lon": 23.0, "desc_en": "Population increase in Greece.", "desc_te": "గ్రీసులో జనాభా పెరుగుదల." },
	{ "startYear": -3500, "endYear": -3480, "name_en": "European Metal Working Zenith", "name_te": "యూరోపియన్ లోహ పని శిఖరం", "lat": 48.0, "lon": 15.0, "desc_en": "Metal working at zenith in Europe.", "desc_te": "యూరోపులో లోహ పని శిఖరం." },
	{ "startYear": -3480, "endYear": -3460, "name_en": "European Wealth Accumulation", "name_te": "యూరోపియన్ సంపద సంగ్రహణ", "lat": 48.5, "lon": 14.5, "desc_en": "Wealth accumulation in Europe.", "desc_te": "యూరోపులో సంపద సంగ్రహణ." },
	{ "startYear": -3460, "endYear": -3440, "name_en": "European Chieftain Emergence", "name_te": "యూరోపియన్ సర్దారు ఆవిర్భవం", "lat": 48.0, "lon": 15.0, "desc_en": "Chieftain emergence in Europe.", "desc_te": "యూరోపులో సర్దారు ఆవిర్భవం." },
	{ "startYear": -3440, "endYear": -3420, "name_en": "European Burial Mounds", "name_te": "యూరోపియన్ సమాధి మట్టిగుండులు", "lat": 50.0, "lon": 10.0, "desc_en": "Burial mounds in Europe.", "desc_te": "యూరోపులో సమాధి మట్టిగుండులు." },
	{ "startYear": -3420, "endYear": -3400, "name_en": "European Social Hierarchy", "name_te": "యూరోపియన్ సామాజిక సోపానక్రమం", "lat": 48.0, "lon": 15.0, "desc_en": "Social hierarchy in Europe.", "desc_te": "యూరోపులో సామాజిక సోపానక్రమం." },
	{ "startYear": -3500, "endYear": -3480, "name_en": "Early Nubian A-Group", "name_te": "ఎర్లీ నుబియన్ A-గ్రూప్", "lat": 18.0, "lon": 33.0, "desc_en": "Early Nubian A-Group period.", "desc_te": "ఎర్లీ నుబియన్ A-గ్రూప్ కాలం." },
	{ "startYear": -3480, "endYear": -3460, "name_en": "Nubian Settlement Systems", "name_te": "నుబియన్ నిపటన వ్యవస్థలు", "lat": 18.5, "lon": 33.0, "desc_en": "Settlement systems in Nubia.", "desc_te": "నుబియాలో నిపటన వ్యవస్థలు." },
	{ "startYear": -3460, "endYear": -3440, "name_en": "Nubian Cattle Herding", "name_te": "నుబియన్ పశువుల పాలన", "lat": 19.0, "lon": 33.0, "desc_en": "Cattle herding in Nubia.", "desc_te": "నుబియాలో పశువుల పాలన." },
	{ "startYear": -3440, "endYear": -3420, "name_en": "Nubian Egyptian Trade", "name_te": "నుబియన్ ఈజిప్టు వాణిజ్యం", "lat": 18.0, "lon": 33.0, "desc_en": "Trade with Egypt in Nubia.", "desc_te": "నుబియాలో ఈజిప్టు సహా వాణిజ్యం." },
	{ "startYear": -3420, "endYear": -3400, "name_en": "Nubian Artistic Development", "name_te": "నుబియన్ కళా అభివృద్ధి", "lat": 18.5, "lon": 33.0, "desc_en": "Artistic development in Nubia.", "desc_te": "నుబియాలో కళా అభివృద్ధి." },
	{ "startYear": -3500, "endYear": -3480, "name_en": "Aboriginal Australia Hunter Evolution", "name_te": "ఆదివాసీ ఆస్ట్రేలియా వేటకాడు పరిణామం", "lat": -20.0, "lon": 134.0, "desc_en": "Hunter evolution in Aboriginal Australia.", "desc_te": "ఆదివాసీ ఆస్ట్రేలియాలో వేటకాడు పరిణామం." },
	{ "startYear": -3480, "endYear": -3460, "name_en": "Aboriginal Boomerang Development", "name_te": "ఆదివాసీ బూమెరాంగ్ అభివృద్ధి", "lat": -25.0, "lon": 133.0, "desc_en": "Boomerang development in Aboriginal Australia.", "desc_te": "ఆదివాసీ ఆస్ట్రేలియాలో బూమెరాంగ్ అభివృద్ధి." },
	{ "startYear": -3460, "endYear": -3440, "name_en": "Aboriginal Seasonal Migration", "name_te": "ఆదివాసీ ఋతు సంచారం", "lat": -20.0, "lon": 134.0, "desc_en": "Seasonal migration patterns in Aboriginal Australia.", "desc_te": "ఆదివాసీ ఆస్ట్రేలియాలో ఋతు సంచారం నమూనాలు." },
	{ "startYear": -3440, "endYear": -3420, "name_en": "Aboriginal Fire Management", "name_te": "ఆదివాసీ అగ్నిపరిచర్య", "lat": -25.0, "lon": 133.0, "desc_en": "Fire management in Aboriginal Australia.", "desc_te": "ఆదివాసీ ఆస్ట్రేలియాలో అగ్నిపరిచర్య." },
	{ "startYear": -3420, "endYear": -3400, "name_en": "Aboriginal Trade Exchange", "name_te": "ఆదివాసీ వాణిజ్య మార్పిడి", "lat": -20.0, "lon": 134.0, "desc_en": "Trade exchange in Aboriginal Australia.", "desc_te": "ఆదివాసీ ఆస్ట్రేలియాలో వాణిజ్య మార్పిడి." }*/
]