[
	/*{ "startYear": -3600, "endYear": -3580, "name_en": "Predynastic Egypt Naqada II", "name_te": "ప్రీ-డైనాస్టిక్ ఈజిప్టు నకాడా II", "lat": 30.0, "lon": 31.2, "desc_en": "Naqada II period predynastic Egypt.", "desc_te": "నకాడా II కాలం ప్రీ-డైనాస్టిక్ ఈజిప్టు." },
	{ "startYear": -3580, "endYear": -3560, "name_en": "Egyptian Luxury Goods Trade", "name_te": "ఈజిప్టు లక్జరీ వస్తువులు వాణిజ్యం", "lat": 29.5, "lon": 31.0, "desc_en": "Luxury goods trade in predynastic Egypt.", "desc_te": "ప్రీ-డైనాస్టిక్ ఈజిప్టులో లక్జరీ వస్తువులు వాణిజ్యం." },
	{ "startYear": -3560, "endYear": -3540, "name_en": "Egyptian Palette Development", "name_te": "ఈజిప్టు పాలెట్ అభివృద్ధి", "lat": 30.0, "lon": 31.2, "desc_en": "Decorative palettes develop in Egypt.", "desc_te": "ఈజిప్టులో అలంకారక పాలెట్‌లు అభివృద్ధిస్తుంది." },
	{ "startYear": -3540, "endYear": -3520, "name_en": "Egyptian Dynastic Preparation", "name_te": "ఈజిప్టు డైనాస్టిక్ ప్రస్తుతీకరణ", "lat": 30.5, "lon": 31.2, "desc_en": "Preparations for dynastic period.", "desc_te": "డైనాస్టిక్ కాలం ప్రస్తుతీకరణ." },
	{ "startYear": -3520, "endYear": -3500, "name_en": "Egyptian Unification Proto-State", "name_te": "ఈజిప్టు ఐక్యత ప్రోటో-రాష్ట్రం", "lat": 30.0, "lon": 31.2, "desc_en": "Proto-state formation in Egypt.", "desc_te": "ఈజిప్టులో ప్రోటో-రాష్ట్రం ఏర్పాటు." },
	{ "startYear": -3600, "endYear": -3580, "name_en": "Mesopotamian Early Dynastic", "name_te": "మెసొపొటేమియా ఎర్లీ డైనాస్టిక్", "lat": 32.0, "lon": 46.0, "desc_en": "Early Dynastic period in Mesopotamia.", "desc_te": "మెసొపొటేమియాలో ఎర్లీ డైనాస్టిక్ కాలం." },
	{ "startYear": -3580, "endYear": -3560, "name_en": "Mesopotamian City States Consolidate", "name_te": "మెసొపొటేమియా నగర-రాష్ట్రాలు సమీకరణ", "lat": 32.5, "lon": 46.5, "desc_en": "City states consolidate in Mesopotamia.", "desc_te": "మెసొపొటేమియాలో నగర-రాష్ట్రాలు సమీకరణ చేస్తుంది." },
	{ "startYear": -3560, "endYear": -3540, "name_en": "Mesopotamian King Lists", "name_te": "మెసొపొటేమియా రాజు జాబితాలు", "lat": 32.0, "lon": 46.0, "desc_en": "King lists recorded in Mesopotamia.", "desc_te": "మెసొపొటేమియాలో రాజు జాబితాలు రికార్డ్ చేయబడుతుంది." },
	{ "startYear": -3540, "endYear": -3520, "name_en": "Mesopotamian Royal Authority", "name_te": "మెసొపొటేమియా రాజ అధికారం", "lat": 31.5, "lon": 46.5, "desc_en": "Royal authority establishes in Mesopotamia.", "desc_te": "మెసొపొటేమియాలో రాజ అధికారం స్థాపిత చేయబడుతుంది." },
	{ "startYear": -3520, "endYear": -3500, "name_en": "Mesopotamian Scribal Tradition", "name_te": "మెసొపొటేమియా శాస్త్రకర సంప్రదాయం", "lat": 32.0, "lon": 46.0, "desc_en": "Scribal tradition begins in Mesopotamia.", "desc_te": "మెసొపొటేమియాలో శాస్త్రకర సంప్రదాయం ప్రారంభమవుతుంది." },
	{ "startYear": -3600, "endYear": -3580, "name_en": "Indus Valley Hajji Phase", "name_te": "సిందువు లోయ హజ్జీ దశ", "lat": 28.0, "lon": 72.5, "desc_en": "Hajji phase in Indus Valley.", "desc_te": "సిందువు లోయ హజ్జీ దశ." },
	{ "startYear": -3580, "endYear": -3560, "name_en": "Indus Valley Multi-Site Towns", "name_te": "సిందువు లోయ బహుళ-సైట్ పట్టణాలు", "lat": 28.5, "lon": 72.0, "desc_en": "Multi-site towns in Indus Valley.", "desc_te": "సిందువు లోయ బహుళ-సైట్ పట్టణాలు." },
	{ "startYear": -3560, "endYear": -3540, "name_en": "Indus Valley Fortified Settlements", "name_te": "సిందువు లోయ దుర్గీకృత నిపటనాలు", "lat": 28.0, "lon": 72.5, "desc_en": "Fortified settlements in Indus Valley.", "desc_te": "సిందువు లోయ దుర్గీకృత నిపటనాలు." },
	{ "startYear": -3540, "endYear": -3520, "name_en": "Indus Valley Power Centers", "name_te": "సిందువు లోయ శక్తి కేంద్రాలు", "lat": 28.5, "lon": 72.0, "desc_en": "Power centers emerge in Indus Valley.", "desc_te": "సిందువు లోయ శక్తి కేంద్రాలు ఆవిర్భవిస్తాయి." },
	{ "startYear": -3520, "endYear": -3500, "name_en": "Indus Valley Early Writing", "name_te": "సిందువు లోయ ఎర్లీ లిపి", "lat": 28.0, "lon": 72.5, "desc_en": "Early writing in Indus Valley.", "desc_te": "సిందువు లోయ ఎర్లీ లిపి." },
	{ "startYear": -3600, "endYear": -3580, "name_en": "Chinese Xia Legendry Peak", "name_te": "చైనీస్ జియా పురాణ శిఖరం", "lat": 34.5, "lon": 107.5, "desc_en": "Xia legendry reaches peak in China.", "desc_te": "చైనాలో జియా పురాణ శిఖరానికి చేరుకుంటుంది." },
	{ "startYear": -3580, "endYear": -3560, "name_en": "Chinese Bronze Vessels Early", "name_te": "చైనీస్ ఫిరంజి నిండు ఎర్లీ", "lat": 34.0, "lon": 107.0, "desc_en": "Early bronze vessels in China.", "desc_te": "చైనాలో ఎర్లీ ఫిరంజి నిండులు." },
	{ "startYear": -3560, "endYear": -3540, "name_en": "Chinese Ritual Tradition", "name_te": "చైనీస్ విధిర్చక సంప్రదాయం", "lat": 34.0, "lon": 107.0, "desc_en": "Ritual tradition in early China.", "desc_te": "ప్రారంభ చైనాలో విధిర్చక సంప్రదాయం." },
	{ "startYear": -3540, "endYear": -3520, "name_en": "Chinese Dynasty Legends", "name_te": "చైనీస్ వంశ పురాణాలు", "lat": 34.5, "lon": 107.5, "desc_en": "Dynasty legends solidify in China.", "desc_te": "చైనాలో వంశ పురాణాలు దృఢమవుతుంది." },
	{ "startYear": -3520, "endYear": -3500, "name_en": "Chinese Ancestor Worship", "name_te": "చైనీస్ పూర్వజ పూజ", "lat": 34.0, "lon": 107.0, "desc_en": "Ancestor worship tradition in China.", "desc_te": "చైనాలో పూర్వజ పూజ సంప్రదాయం." },
	{ "startYear": -3600, "endYear": -3580, "name_en": "Minoan Early Period Crete", "name_te": "మినోయన్ ఎర్లీ కాలం క్రీట్", "lat": 35.0, "lon": 24.5, "desc_en": "Minoan early period on Crete.", "desc_te": "క్రీట్‌లో మినోయన్ ఎర్లీ కాలం." },
	{ "startYear": -3580, "endYear": -3560, "name_en": "Minoan Domestic Economy", "name_te": "మినోయన్ గృహిక ఆర్థిక", "lat": 35.3, "lon": 24.8, "desc_en": "Domestic economy on Crete.", "desc_te": "క్రీట్‌లో గృహిక ఆర్థిక." },
	{ "startYear": -3560, "endYear": -3540, "name_en": "Minoan Family Units", "name_te": "మినోయన్ కుటుంబ యూనిట్‌లు", "lat": 35.2, "lon": 24.7, "desc_en": "Family units organization on Crete.", "desc_te": "క్రీట్‌లో కుటుంబ యూనిట్‌లు సంస్థ." },
	{ "startYear": -3540, "endYear": -3520, "name_en": "Minoan Local Authorities", "name_te": "మినోయన్ స్థానిక అధికారాలు", "lat": 35.4, "lon": 25.0, "desc_en": "Local authorities on Crete.", "desc_te": "క్రీట్‌లో స్థానిక అధికారాలు." },
	{ "startYear": -3520, "endYear": -3500, "name_en": "Minoan Village Networks", "name_te": "మినోయన్ గ్రామ నెట్‌వర్కులు", "lat": 35.3, "lon": 24.9, "desc_en": "Village networks on Crete.", "desc_te": "క్రీట్‌లో గ్రామ నెట్‌వర్కులు." },
	{ "startYear": -3600, "endYear": -3580, "name_en": "Helladic Early Period Greece", "name_te": "హెలాడిక్ ఎర్లీ కాలం గ్రీస్", "lat": 37.5, "lon": 23.0, "desc_en": "Helladic early period in Greece.", "desc_te": "గ్రీసులో హెలాడిక్ ఎర్లీ కాలం." },
	{ "startYear": -3580, "endYear": -3560, "name_en": "Greek Pastoral Economy", "name_te": "గ్రీకు పశుపాలన ఆర్థిక", "lat": 37.0, "lon": 23.0, "desc_en": "Pastoral economy in Greece.", "desc_te": "గ్రీసులో పశుపాలన ఆర్థిక." },
	{ "startYear": -3560, "endYear": -3540, "name_en": "Greek Settlement Patterns", "name_te": "గ్రీకు నిపటన నమూనాలు", "lat": 37.0, "lon": 23.0, "desc_en": "Settlement patterns in Greece.", "desc_te": "గ్రీసులో నిపటన నమూనాలు." },
	{ "startYear": -3540, "endYear": -3520, "name_en": "Greek Clan Organization", "name_te": "గ్రీకు వంశ సంస్థ", "lat": 37.5, "lon": 23.5, "desc_en": "Clan organization in Greece.", "desc_te": "గ్రీసులో వంశ సంస్థ." },
	{ "startYear": -3520, "endYear": -3500, "name_en": "Greek Local Trade", "name_te": "గ్రీకు స్థానిక వాణిజ్యం", "lat": 37.0, "lon": 23.0, "desc_en": "Local trade in Greece.", "desc_te": "గ్రీసులో స్థానిక వాణిజ్యం." },
	{ "startYear": -3600, "endYear": -3580, "name_en": "European Early Bronze Age", "name_te": "యూరోపియన్ ఎర్లీ ఫిరంజి యుగం", "lat": 48.0, "lon": 15.0, "desc_en": "Early Bronze Age in Europe.", "desc_te": "యూరోపులో ఎర్లీ ఫిరంజి యుగం." },
	{ "startYear": -3580, "endYear": -3560, "name_en": "European Trade Networks", "name_te": "యూరోపియన్ వాణిజ్య నెట్‌వర్కులు", "lat": 48.5, "lon": 14.5, "desc_en": "Trade networks in Europe.", "desc_te": "యూరోపులో వాణిజ్య నెట్‌వర్కులు." },
	{ "startYear": -3560, "endYear": -3540, "name_en": "European Settlement Expansion", "name_te": "యూరోపియన్ నిపటన విస్తరణ", "lat": 48.0, "lon": 15.0, "desc_en": "Settlement expansion in Europe.", "desc_te": "యూరోపులో నిపటన విస్తరణ." },
	{ "startYear": -3540, "endYear": -3520, "name_en": "European Elite Groups", "name_te": "యూరోపియన్ ఉన్నత సమూహాలు", "lat": 50.0, "lon": 10.0, "desc_en": "Elite groups in Europe.", "desc_te": "యూరోపులో ఉన్నత సమూహాలు." },
	{ "startYear": -3520, "endYear": -3500, "name_en": "European Community Bonds", "name_te": "యూరోపియన్ సమాజ బంధాలు", "lat": 48.0, "lon": 15.0, "desc_en": "Community bonds strengthen in Europe.", "desc_te": "యూరోపులో సమాజ బంధాలు బలోపేతమవుతుంది." },
	{ "startYear": -3600, "endYear": -3580, "name_en": "Nubian Early Period Africa", "name_te": "నుబియన్ ఎర్లీ కాలం ఆఫ్రికా", "lat": 18.0, "lon": 33.0, "desc_en": "Early period in Nubia.", "desc_te": "నుబియాలో ఎర్లీ కాలం." },
	{ "startYear": -3580, "endYear": -3560, "name_en": "Nubian Pastoral Systems", "name_te": "నుబియన్ పశుపాలన వ్యవస్థలు", "lat": 18.5, "lon": 33.0, "desc_en": "Pastoral systems in Nubia.", "desc_te": "నుబియాలో పశుపాలన వ్యవస్థలు." },
	{ "startYear": -3560, "endYear": -3540, "name_en": "Nubian Nile Communities", "name_te": "నుబియన్ నీలు సమాజాలు", "lat": 18.0, "lon": 33.0, "desc_en": "Nile communities in Nubia.", "desc_te": "నుబియాలో నీలు సమాజాలు." },
	{ "startYear": -3540, "endYear": -3520, "name_en": "Nubian Cultural Identity", "name_te": "నుబియన్ సాంస్కృతిక గుర్తింపు", "lat": 18.5, "lon": 33.0, "desc_en": "Cultural identity in Nubia.", "desc_te": "నుబియాలో సాంస్కృతిక గుర్తింపు." },
	{ "startYear": -3520, "endYear": -3500, "name_en": "Nubian Trade Establishment", "name_te": "నుబియన్ వాణిజ్య స్థాపన", "lat": 18.0, "lon": 33.0, "desc_en": "Trade establishment in Nubia.", "desc_te": "నుబియాలో వాణిజ్య స్థాపన." },
	{ "startYear": -3600, "endYear": -3580, "name_en": "Aboriginal Australia Peak Knowledge", "name_te": "ఆదివాసీ ఆస్ట్రేలియా గరిష్ఠ జ్ఞానం", "lat": -20.0, "lon": 134.0, "desc_en": "Peak knowledge systems in Aboriginal Australia.", "desc_te": "ఆదివాసీ ఆస్ట్రేలియాలో గరిష్ఠ జ్ఞానం వ్యవస్థలు." },
	{ "startYear": -3580, "endYear": -3560, "name_en": "Aboriginal Rock Art Sophistication", "name_te": "ఆదివాసీ శిల కళ చమత్కారం", "lat": -25.0, "lon": 133.0, "desc_en": "Rock art sophistication in Aboriginal Australia.", "desc_te": "ఆదివాసీ ఆస్ట్రేలియాలో శిల కళ చమత్కారం." },
	{ "startYear": -3560, "endYear": -3540, "name_en": "Aboriginal Spiritual Centers", "name_te": "ఆదివాసీ ఆధ్యాత్మిక కేంద్రాలు", "lat": -20.0, "lon": 134.0, "desc_en": "Spiritual centers in Aboriginal Australia.", "desc_te": "ఆదివాసీ ఆస్ట్రేలియాలో ఆధ్యాత్మిక కేంద్రాలు." },
	{ "startYear": -3540, "endYear": -3520, "name_en": "Aboriginal Knowledge Trading", "name_te": "ఆదివాసీ జ్ఞానం వాణిజ్యం", "lat": -25.0, "lon": 133.0, "desc_en": "Knowledge trading in Aboriginal Australia.", "desc_te": "ఆదివాసీ ఆస్ట్రేలియాలో జ్ఞానం వాణిజ్యం." },
	{ "startYear": -3520, "endYear": -3500, "name_en": "Aboriginal Community Bonding", "name_te": "ఆదివాసీ సమాజ బంధం", "lat": -20.0, "lon": 134.0, "desc_en": "Community bonding in Aboriginal Australia.", "desc_te": "ఆదివాసీ ఆస్ట్రేలియాలో సమాజ బంధం." }*/
]