[
	/*{ "startYear": -3900, "endYear": -3880, "name_en": "Predynastic Egypt Badarian", "name_te": "ప్రీ-డైనాస్టిక్ ఈజిప్టు బాదారియన్", "lat": 30.0, "lon": 31.2, "desc_en": "Badarian predynastic period Egypt.", "desc_te": "బాదారియన్ ప్రీ-డైనాస్టిక్ కాలం ఈజిప్టు." },
	{ "startYear": -3880, "endYear": -3860, "name_en": "Egyptian Flint Mining", "name_te": "ఈజిప్టు చకమక్ గనులు", "lat": 29.5, "lon": 31.0, "desc_en": "Flint mining in Egypt.", "desc_te": "ఈజిప్టులో చకమక్ గనులు." },
	{ "startYear": -3860, "endYear": -3840, "name_en": "Egyptian Tool Innovation", "name_te": "ఈజిప్టు సాధన ఆవిష్కారం", "lat": 30.0, "lon": 31.2, "desc_en": "Tool innovation in Egypt.", "desc_te": "ఈజిప్టులో సాధన ఆవిష్కారం." },
	{ "startYear": -3840, "endYear": -3820, "name_en": "Egyptian Settlement Growth", "name_te": "ఈజిప్టు నిపటన వృద్ధి", "lat": 30.5, "lon": 31.2, "desc_en": "Settlement growth in Egypt.", "desc_te": "ఈజిప్టులో నిపటన వృద్ధి." },
	{ "startYear": -3820, "endYear": -3800, "name_en": "Egyptian Trade Networks Form", "name_te": "ఈజిప్టు వాణిజ్య నెట్‌వర్కులు ఏర్పడతాయి", "lat": 30.0, "lon": 31.2, "desc_en": "Trade networks form in Egypt.", "desc_te": "ఈజిప్టులో వాణిజ్య నెట్‌వర్కులు ఏర్పడుతుంది." },
	{ "startYear": -3900, "endYear": -3880, "name_en": "Eridu Culture Mesopotamia", "name_te": "ఎరిడు సంస్కృతి మెసొపొటేమియా", "lat": 32.0, "lon": 46.0, "desc_en": "Eridu culture in Mesopotamia.", "desc_te": "మెసొపొటేమియాలో ఎరిడు సంస్కృతి." },
	{ "startYear": -3880, "endYear": -3860, "name_en": "Mesopotamian Temple Tradition", "name_te": "మెసొపొటేమియా ఆలయ సంప్రదాయం", "lat": 32.5, "lon": 46.5, "desc_en": "Temple tradition in Mesopotamia.", "desc_te": "మెసొపొటేమియాలో ఆలయ సంప్రదాయం." },
	{ "startYear": -3860, "endYear": -3840, "name_en": "Mesopotamian Urban Centers", "name_te": "మెసొపొటేమియా నగర కేంద్రాలు", "lat": 32.0, "lon": 46.0, "desc_en": "Urban centers in Mesopotamia.", "desc_te": "మెసొపొటేమియాలో నగర కేంద్రాలు." },
	{ "startYear": -3840, "endYear": -3820, "name_en": "Mesopotamian Irrigation Begins", "name_te": "మెసొపొటేమియా నీటిపారిల్ ప్రారంభం", "lat": 31.5, "lon": 46.5, "desc_en": "Irrigation begins in Mesopotamia.", "desc_te": "మెసొపొటేమియాలో నీటిపారిల్ ప్రారంభమవుతుంది." },
	{ "startYear": -3820, "endYear": -3800, "name_en": "Mesopotamian Settlement Spread", "name_te": "మెసొపొటేమియా నిపటన ప్రసారం", "lat": 32.0, "lon": 46.0, "desc_en": "Settlement spread in Mesopotamia.", "desc_te": "మెసొపొటేమియాలో నిపటన ప్రసారం." },
	{ "startYear": -3900, "endYear": -3880, "name_en": "Indus Valley Mehrgarh Phase", "name_te": "సిందువు లోయ మెహర్గర్ దశ", "lat": 28.0, "lon": 72.5, "desc_en": "Mehrgarh phase in Indus Valley.", "desc_te": "సిందువు లోయ మెహర్గర్ దశ." },
	{ "startYear": -3880, "endYear": -3860, "name_en": "Indus Valley Early Settlement", "name_te": "సిందువు లోయ ఎర్లీ నిపటన", "lat": 28.5, "lon": 72.0, "desc_en": "Early settlement in Indus Valley.", "desc_te": "సిందువు లోయ ఎర్లీ నిపటన." },
	{ "startYear": -3860, "endYear": -3840, "name_en": "Indus Valley Agriculture Base", "name_te": "సిందువు లోయ వ్యవసాయ ఆధారం", "lat": 28.0, "lon": 72.5, "desc_en": "Agriculture base in Indus Valley.", "desc_te": "సిందువు లోయ వ్యవసాయ ఆధారం." },
	{ "startYear": -3840, "endYear": -3820, "name_en": "Indus Valley Domestication", "name_te": "సిందువు లోయ క్రీడాకరణ", "lat": 28.5, "lon": 72.0, "desc_en": "Domestication in Indus Valley.", "desc_te": "సిందువు లోయ క్రీడాకరణ." },
	{ "startYear": -3820, "endYear": -3800, "name_en": "Indus Valley Tool Development", "name_te": "సిందువు లోయ సాధన అభివృద్ధి", "lat": 28.0, "lon": 72.5, "desc_en": "Tool development in Indus Valley.", "desc_te": "సిందువు లోయ సాధన అభివృద్ధి." },
	{ "startYear": -3900, "endYear": -3880, "name_en": "Peiligang Period China", "name_te": "పెయిలిగ్ కాలం చైనా", "lat": 34.5, "lon": 107.5, "desc_en": "Peiligang period in China.", "desc_te": "చైనాలో పెయిలిగ్ కాలం." },
	{ "startYear": -3880, "endYear": -3860, "name_en": "Chinese Millet Agriculture", "name_te": "చైనీస్ జవారి వ్యవసాయం", "lat": 34.0, "lon": 107.0, "desc_en": "Millet agriculture in China.", "desc_te": "చైనాలో జవారి వ్యవసాయం." },
	{ "startYear": -3860, "endYear": -3840, "name_en": "Chinese Neolithic Villages", "name_te": "చైనీస్ నియోలిథిక్ గ్రామాలు", "lat": 34.0, "lon": 107.0, "desc_en": "Neolithic villages in China.", "desc_te": "చైనాలో నియోలిథిక్ గ్రామాలు." },
	{ "startYear": -3840, "endYear": -3820, "name_en": "Chinese Pottery Development", "name_te": "చైనీస్ కుండల అభివృద్ధి", "lat": 34.5, "lon": 107.5, "desc_en": "Pottery development in China.", "desc_te": "చైనాలో కుండల అభివృద్ధి." },
	{ "startYear": -3820, "endYear": -3800, "name_en": "Chinese Culture Spread", "name_te": "చైనీస్ సంస్కృతి ప్రసారం", "lat": 34.0, "lon": 107.0, "desc_en": "Culture spread in China.", "desc_te": "చైనాలో సంస్కృతి ప్రసారం." },
	{ "startYear": -3900, "endYear": -3880, "name_en": "Pre-Minoan Crete", "name_te": "ప్రీ-మినోయన్ క్రీట్", "lat": 35.0, "lon": 24.5, "desc_en": "Pre-Minoan Crete.", "desc_te": "ప్రీ-మినోయన్ క్రీట్." },
	{ "startYear": -3880, "endYear": -3860, "name_en": "Cretan Early Settlement", "name_te": "క్రీటన్ ఎర్లీ నిపటన", "lat": 35.3, "lon": 24.8, "desc_en": "Early settlement on Crete.", "desc_te": "క్రీట్‌లో ఎర్లీ నిపటన." },
	{ "startYear": -3860, "endYear": -3840, "name_en": "Cretan Agriculture Foundation", "name_te": "క్రీటన్ వ్యవసాయ ఆధారం", "lat": 35.2, "lon": 24.7, "desc_en": "Agriculture foundation on Crete.", "desc_te": "క్రీట్‌లో వ్యవసాయ ఆధారం." },
	{ "startYear": -3840, "endYear": -3820, "name_en": "Cretan Community Formation", "name_te": "క్రీటన్ సమాజ ఏర్పాటు", "lat": 35.4, "lon": 25.0, "desc_en": "Community formation on Crete.", "desc_te": "క్రీట్‌లో సమాజ ఏర్పాటు." },
	{ "startYear": -3820, "endYear": -3800, "name_en": "Cretan Settlement Expansion", "name_te": "క్రీటన్ నిపటన విస్తరణ", "lat": 35.3, "lon": 24.9, "desc_en": "Settlement expansion on Crete.", "desc_te": "క్రీట్‌లో నిపటన విస్తరణ." },
	{ "startYear": -3900, "endYear": -3880, "name_en": "Pre-Helladic Greece", "name_te": "ప్రీ-హెలాడిక్ గ్రీస్", "lat": 37.5, "lon": 23.0, "desc_en": "Pre-Helladic Greece.", "desc_te": "ప్రీ-హెలాడిక్ గ్రీస్." },
	{ "startYear": -3880, "endYear": -3860, "name_en": "Greek Neolithic Peak", "name_te": "గ్రీకు నియోలిథిక్ గరిష్ఠం", "lat": 37.0, "lon": 23.0, "desc_en": "Neolithic peak in Greece.", "desc_te": "గ్రీసులో నియోలిథిక్ గరిష్ఠం." },
	{ "startYear": -3860, "endYear": -3840, "name_en": "Greek Settlement Patterns", "name_te": "గ్రీకు నిపటన నమూనాలు", "lat": 37.0, "lon": 23.0, "desc_en": "Settlement patterns in Greece.", "desc_te": "గ్రీసులో నిపటన నమూనాలు." },
	{ "startYear": -3840, "endYear": -3820, "name_en": "Greek Agricultural Development", "name_te": "గ్రీకు వ్యవసాయ అభివృద్ధి", "lat": 37.5, "lon": 23.5, "desc_en": "Agricultural development in Greece.", "desc_te": "గ్రీసులో వ్యవసాయ అభివృద్ధి." },
	{ "startYear": -3820, "endYear": -3800, "name_en": "Greek Community Growth", "name_te": "గ్రీకు సమాజ వృద్ధి", "lat": 37.0, "lon": 23.0, "desc_en": "Community growth in Greece.", "desc_te": "గ్రీసులో సమాజ వృద్ధి." },
	{ "startYear": -3900, "endYear": -3880, "name_en": "European Neolithic Peak", "name_te": "యూరోపియన్ నియోలిథిక్ గరిష్ఠం", "lat": 48.0, "lon": 15.0, "desc_en": "Neolithic peak in Europe.", "desc_te": "యూరోపులో నియోలిథిక్ గరిష్ఠం." },
	{ "startYear": -3880, "endYear": -3860, "name_en": "European Megalithic Construction", "name_te": "యూరోపియన్ మెగాలిథిక్ నిర్మాణం", "lat": 48.5, "lon": 14.5, "desc_en": "Megalithic construction in Europe.", "desc_te": "యూరోపులో మెగాలిథిక్ నిర్మాణం." },
	{ "startYear": -3860, "endYear": -3840, "name_en": "European Agriculture Peak", "name_te": "యూరోపియన్ వ్యవసాయ గరిష్ఠం", "lat": 48.0, "lon": 15.0, "desc_en": "Agriculture peak in Europe.", "desc_te": "యూరోపులో వ్యవసాయ గరిష్ఠం." },
	{ "startYear": -3840, "endYear": -3820, "name_en": "European Settlement Consolidation", "name_te": "యూరోపియన్ నిపటన సమీకరణ", "lat": 50.0, "lon": 10.0, "desc_en": "Settlement consolidation in Europe.", "desc_te": "యూరోపులో నిపటన సమీకరణ." },
	{ "startYear": -3820, "endYear": -3800, "name_en": "European Social Development", "name_te": "యూరోపియన్ సామాజిక అభివృద్ధి", "lat": 48.0, "lon": 15.0, "desc_en": "Social development in Europe.", "desc_te": "యూరోపులో సామాజిక అభివృద్ధి." },
	{ "startYear": -3900, "endYear": -3880, "name_en": "Nubian Pre-Dynastic", "name_te": "నుబియన్ ప్రీ-డైనాస్టిక్", "lat": 18.0, "lon": 33.0, "desc_en": "Pre-dynastic Nubia.", "desc_te": "ప్రీ-డైనాస్టిక్ నుబియా." },
	{ "startYear": -3880, "endYear": -3860, "name_en": "Nubian Early Pastoralism", "name_te": "నుబియన్ ఎర్లీ పశుపాలన", "lat": 18.5, "lon": 33.0, "desc_en": "Early pastoralism in Nubia.", "desc_te": "నుబియాలో ఎర్లీ పశుపాలన." },
	{ "startYear": -3860, "endYear": -3840, "name_en": "Nubian Herdsman Culture", "name_te": "నుబియన్ పశువుల కాపరి సంస్కృతి", "lat": 18.0, "lon": 33.0, "desc_en": "Herdsman culture in Nubia.", "desc_te": "నుబియాలో పశువుల కాపరి సంస్కృతి." },
	{ "startYear": -3840, "endYear": -3820, "name_en": "Nubian Settlement Foundation", "name_te": "నుబియన్ నిపటన ఆధారం", "lat": 18.5, "lon": 33.0, "desc_en": "Settlement foundation in Nubia.", "desc_te": "నుబియాలో నిపటన ఆధారం." },
	{ "startYear": -3820, "endYear": -3800, "name_en": "Nubian Cultural Identity", "name_te": "నుబియన్ సాంస్కృతిక గుర్తింపు", "lat": 18.0, "lon": 33.0, "desc_en": "Cultural identity in Nubia.", "desc_te": "నుబియాలో సాంస్కృతిక గుర్తింపు." },
	{ "startYear": -3900, "endYear": -3880, "name_en": "Aboriginal Australia Early Period", "name_te": "ఆదివాసీ ఆస్ట్రేలియా ఎర్లీ కాలం", "lat": -20.0, "lon": 134.0, "desc_en": "Early period in Aboriginal Australia.", "desc_te": "ఆదివాసీ ఆస్ట్రేలియాలో ఎర్లీ కాలం." },
	{ "startYear": -3880, "endYear": -3860, "name_en": "Aboriginal Hunting Adaptation", "name_te": "ఆదివాసీ వేటకాడుట అనుకూలన", "lat": -25.0, "lon": 133.0, "desc_en": "Hunting adaptation in Aboriginal Australia.", "desc_te": "ఆదివాసీ ఆస్ట్రేలియాలో వేటకాడుట అనుకూలన." },
	{ "startYear": -3860, "endYear": -3840, "name_en": "Aboriginal Tool Mastery", "name_te": "ఆదివాసీ సాధన నిపుణత", "lat": -20.0, "lon": 134.0, "desc_en": "Tool mastery in Aboriginal Australia.", "desc_te": "ఆదివాసీ ఆస్ట్రేలియాలో సాధన నిపుణత." },
	{ "startYear": -3840, "endYear": -3820, "name_en": "Aboriginal Settlement Patterns", "name_te": "ఆదివాసీ నిపటన నమూనాలు", "lat": -25.0, "lon": 133.0, "desc_en": "Settlement patterns in Aboriginal Australia.", "desc_te": "ఆదివాసీ ఆస్ట్రేలియాలో నిపటన నమూనాలు." },
	{ "startYear": -3820, "endYear": -3800, "name_en": "Aboriginal Cultural Development", "name_te": "ఆదివాసీ సాంస్కృతిక అభివృద్ధి", "lat": -20.0, "lon": 134.0, "desc_en": "Cultural development in Aboriginal Australia.", "desc_te": "ఆదివాసీ ఆస్ట్రేలియాలో సాంస్కృతిక అభివృద్ధి." }*/
]