{
  "BIBLICAL_EVENTS" : [
        { "startYear": -332, "endYear": -332, "name_en": "Alexander the Great Conquers Jerusalem", "name_te": "అలెగ్జాండర్ యెరూషలేమును జయించాడు", "lat": 31.776, "lon": 35.234, "desc_en": "Alexander enters Jerusalem peacefully", "desc_te": "అలెగ్జాండర్ యెరూషలేములోకి శాంతియుతంగా ప్రవేశించాడు"},
        { "startYear": -4000, "endYear": -3900, "name_en": "Creation", "name_te": "సృష్టి", "lat": 30, "lon": 45, "desc_en": "Biblical Creation", "desc_te": "బైబిల్ ప్రకారం సృష్టి" },
        { "startYear": -4000, "endYear": -3500, "name_en": "Garden of Eden", "name_te": "ఏదేన్ తోట", "lat": 31, "lon": 47, "desc_en": "Traditional Eden location", "desc_te": "ఏదేన్ తోట స్థానము" },
        { "startYear": -2500, "endYear": -2400, "name_en": "Noah's Flood", "name_te": "నోవా వరద", "lat": 39.7, "lon": 44.3, "desc_en": "Mount Ararat region", "desc_te": "అరారాత్ పర్వత ప్రాంతం" },
        { "startYear": -2400, "endYear": -2300, "name_en": "Nimrod's Cities", "name_te": "నిమ్రోదు నగరాలు", "lat": 32.5, "lon": 44.4, "desc_en": "Babel, Erech, Akkad, Calneh", "desc_te": "బాబేలు, ఎరెక్, అకాద్, కల్నెహ్" },
        { "startYear": -2300, "endYear": -2200, "name_en": "Tower of Babel", "name_te": "బాబేలు గోపురం", "lat": 32.5, "lon": 44.4, "desc_en": "Tower in Shinar (Babylon)", "desc_te": "షినార్ దేశములో బాబేలు గోపురం" },
        { "startYear": -2100, "endYear": -2000, "name_en": "Sodom and Gomorrah", "name_te": "సదోము మరియు గొమోరా", "lat": 31.2, "lon": 35.4, "desc_en": "Destroyed near Dead Sea", "desc_te": "డెడ్ సీ సమీపంలో నాశనం అయ్యాయి" },
        { "startYear": -2000, "endYear": -1900, "name_en": "Abraham's Journey", "name_te": "అబ్రాహాము యాత్ర", "lat": 31.8, "lon": 35.2, "desc_en": "Ur to Canaan", "desc_te": "ఊరు నుండి కనాను వరకు" },
        { "startYear": -1000, "endYear": -950, "name_en": "Davidic Kingdom", "name_te": "దావీదు రాజ్యం", "lat": 31.8, "lon": 35.2, "desc_en": "Jerusalem established", "desc_te": "యెరూషలేము రాజధానిగా స్థాపించబడింది" },
        { "startYear": -960, "endYear": -950, "name_en": "Solomon's Temple", "name_te": "సొలొమోను ఆలయం", "lat": 31.776, "lon": 35.234, "desc_en": "First Temple built", "desc_te": "మొదటి ఆలయం నిర్మించబడింది" },
        { "startYear": -950, "endYear": -940, "name_en": "House of the Forest of Lebanon", "name_te": "లెబనాను అడవి మందిరము", "lat": 33.9, "lon": 35.6, "desc_en": "Built by Solomon", "desc_te": "సొలొమోను నిర్మించాడు" },
        { "startYear": -800, "endYear": -700, "name_en": "Prophet Amos's Ministry", "name_te": "ఆమోస్ ప్రవక్త సేవ", "lat": 31.8, "lon": 35.2, "desc_en": "Amos prophesies in Israel", "desc_te": "ఆమోస్ ఇజ్రాయెల్‌లో ప్రవచించాడు" },
        { "startYear": -800, "endYear": -700, "name_en": "Prophet Hosea's Ministry", "name_te": "హోషేయా ప్రవక్త సేవ", "lat": 31.8, "lon": 35.2, "desc_en": "Hosea prophesies in Israel", "desc_te": "హోషేయా ఇజ్రాయెల్‌లో ప్రవచించాడు" },
        { "startYear": -800, "endYear": -700, "name_en": "Prophet Jonah's Ministry", "name_te": "యోనా ప్రవక్త సేవ", "lat": 36.3, "lon": 43.1, "desc_en": "Jonah preaches in Nineveh", "desc_te": "యోనా నినివేలో ప్రవచించాడు" },
        { "startYear": -800, "endYear": -700, "name_en": "Reign of King Uzziah (Judah)", "name_te": "ఉజ్జియా రాజు పాలన (యూదా)", "lat": 31.8, "lon": 35.2, "desc_en": "Uzziah rules Judah, period of prosperity", "desc_te": "ఉజ్జియా యూదాను పాలించాడు, శ్రేయస్సు కాలం" },
        { "startYear": -800, "endYear": -700, "name_en": "Prophet Micah's Ministry", "name_te": "మీకా ప్రవక్త సేవ", "lat": 31.8, "lon": 35.2, "desc_en": "Micah prophesies in Judah", "desc_te": "మీకా యూదాలో ప్రవచించాడు" },
        { "startYear": -800, "endYear": -700, "name_en": "Rise of Samaria as Capital", "name_te": "సమారియా రాజధానిగా ఎదగడం", "lat": 32.5, "lon": 35.3, "desc_en": "Samaria becomes capital of Northern Kingdom", "desc_te": "సమారియా ఉత్తర రాజ్యానికి రాజధానిగా మారింది" },
        { "startYear": -800, "endYear": -700, "name_en": "Prophet Isaiah's Early Ministry", "name_te": "యెషయా ప్రారంభ సేవ", "lat": 31.8, "lon": 35.2, "desc_en": "Isaiah begins prophesying in Judah", "desc_te": "యెషయా యూదాలో ప్రవచించడం ప్రారంభించాడు" },
        { "startYear": -700, "endYear": -600, "name_en": "Nineveh City", "name_te": "నినివే నగరం", "lat": 36.3, "lon": 43.1, "desc_en": "Capital of Assyria", "desc_te": "అస్సిరియా రాజధాని" },
        { "startYear": -700, "endYear": -600, "name_en": "Prophet Isaiah's Ministry", "name_te": "యెషయా ప్రవక్త సేవ", "lat": 31.8, "lon": 35.2, "desc_en": "Isaiah prophesies in Judah", "desc_te": "యెషయా యూదాలో ప్రవచించాడు" },
        { "startYear": -700, "endYear": -600, "name_en": "Reign of King Hezekiah", "name_te": "హిజ్కియా రాజు పాలన", "lat": 31.8, "lon": 35.2, "desc_en": "Hezekiah rules Judah, resists Assyria", "desc_te": "హిజ్కియా యూదాను పాలించాడు, అస్సిరియాను ఎదిరించాడు" },
        { "startYear": -700, "endYear": -600, "name_en": "Prophet Micah's Ministry", "name_te": "మీకా ప్రవక్త సేవ", "lat": 31.8, "lon": 35.2, "desc_en": "Micah prophesies in Judah", "desc_te": "మీకా యూదాలో ప్రవచించాడు" },
        { "startYear": -700, "endYear": -600, "name_en": "Fall of Samaria (Israel)", "name_te": "సమారియా పతనం (ఇజ్రాయెల్)", "lat": 32.5, "lon": 35.3, "desc_en": "Assyrians conquer Samaria, end of Northern Kingdom", "desc_te": "అస్సిరియన్లు సమారియాను జయించి ఉత్తర రాజ్యాన్ని ముగించారు" },
        { "startYear": -700, "endYear": -600, "name_en": "Prophet Nahum's Ministry", "name_te": "నహూము ప్రవక్త సేవ", "lat": 36.3, "lon": 43.1, "desc_en": "Nahum prophesies against Nineveh", "desc_te": "నహూము నినివేపై ప్రవచించాడు" },
        { "startYear": -700, "endYear": -600, "name_en": "Prophet Zephaniah's Ministry", "name_te": "జెఫన్యా ప్రవక్త సేవ", "lat": 31.8, "lon": 35.2, "desc_en": "Zephaniah prophesies in Judah", "desc_te": "జెఫన్యా యూదాలో ప్రవచించాడు" },
        { "startYear": -700, "endYear": -600, "name_en": "Prophet Habakkuk's Ministry", "name_te": "హబక్కూకు ప్రవక్త సేవ", "lat": 31.8, "lon": 35.2, "desc_en": "Habakkuk prophesies in Judah", "desc_te": "హబక్కూకు యూదాలో ప్రవచించాడు" },
        { "startYear": -701, "endYear": -681, "name_en": "Reign of King Sennacherib (Assyria)", "name_te": "సెన్నాచెరిబ్ రాజు పాలన (అస్సిరియా)", "lat": 36.3, "lon": 43.1, "desc_en": "Sennacherib campaigns against Judah, builds Nineveh", "desc_te": "సెన్నాచెరిబ్ యూదాపై దాడి, నినివే నిర్మాణం" },
        { "startYear": -690, "endYear": -664, "name_en": "Pharaoh Taharqa of Egypt", "name_te": "ఈజిప్టు తహార్కా ఫరో", "lat": 30.0444, "lon": 31.2357, "desc_en": "Taharqa rules Egypt, interacts with Israel and Assyria", "desc_te": "తహార్కా ఈజిప్టును పాలించాడు, ఇజ్రాయెల్, అస్సిరియాతో సంబంధాలు" },
        { "startYear": -700, "endYear": -600, "name_en": "Rise of Scythian Tribes", "name_te": "స్కిథియన్ గోత్రాల ఉద్భవం", "lat": 48.0, "lon": 67.0, "desc_en": "Scythian nomads threaten Near East", "desc_te": "స్కిథియన్ గోత్రాలు సమీప తూర్పును బెదిరించాయి" },
        { "startYear": -700, "endYear": -600, "name_en": "Book of Kings Compiled", "name_te": "రాజులు గ్రంథం సంకలనం", "lat": 31.8, "lon": 35.2, "desc_en": "Biblical Book of Kings written/compiled", "desc_te": "బైబిల్ రాజులు గ్రంథం రచించబడింది" },
        { "startYear": -700, "endYear": -600, "name_en": "Rise of Neo-Babylonian Empire", "name_te": "నియో-బాబిలోనియన్ సామ్రాజ్య ఉద్భవం", "lat": 32.5, "lon": 44.4, "desc_en": "Babylon regains independence from Assyria", "desc_te": "బాబిలోన్ అస్సిరియన్ల నుండి స్వాతంత్ర్యం పొందింది" },
        { "startYear": -700, "endYear": -600, "name_en": "Medes Gain Power in Iran", "name_te": "మీడులు ఇరాన్‌లో శక్తిని పొందారు", "lat": 36.3, "lon": 59.6, "desc_en": "Medes rise as a power in ancient Iran", "desc_te": "మీడులు ప్రాచీన ఇరాన్‌లో శక్తివంతమైనవిగా ఎదిగారు" },
        { "startYear": -700, "endYear": -600, "name_en": "Nineveh City", "name_te": "నినివే నగరం", "lat": 36.3, "lon": 43.1, "desc_en": "Capital of Assyria", "desc_te": "అస్సిరియా రాజధాని" },
        { "startYear": -700, "endYear": -600, "name_en": "Prophet Isaiah's Ministry", "name_te": "యెషయా ప్రవక్త సేవ", "lat": 31.8, "lon": 35.2, "desc_en": "Isaiah prophesies in Judah", "desc_te": "యెషయా యూదాలో ప్రవచించాడు" },
        { "startYear": -600, "endYear": -500, "name_en": "Babylonian Exile", "name_te": "బాబులోనులో చెర", "lat": 32.5, "lon": 44.4, "desc_en": "Jews exiled to Babylon", "desc_te": "యూదులు బాబులోనుకు చెరగా తీసుకువెళ్ళబడ్డారు" },
        { "startYear": -586, "endYear": -538, "name_en": "Destruction of Solomon's Temple", "name_te": "సొలొమోను ఆలయ విధ్వంసం", "lat": 31.776, "lon": 35.234, "desc_en": "First Temple destroyed by Babylonians", "desc_te": "బాబులోనీయులు మొదటి ఆలయాన్ని ధ్వంసం చేశారు" },
        { "startYear": -538, "endYear": -515, "name_en": "Return from Exile & Second Temple", "name_te": "చెర నుండి తిరిగి రాక & రెండవ ఆలయం", "lat": 31.776, "lon": 35.234, "desc_en": "Jews return and rebuild the Temple", "desc_te": "యూదులు తిరిగి వచ్చి రెండవ ఆలయాన్ని నిర్మించారు" },
        { "startYear": -586, "endYear": -538, "name_en": "Prophet Ezekiel's Ministry", "name_te": "యెహెజ్కేలు ప్రవక్త సేవ", "lat": 32.5, "lon": 44.4, "desc_en": "Ezekiel prophesies in Babylon during exile", "desc_te": "యెహెజ్కేలు చెరలో బాబులోనులో ప్రవచించాడు" },
        { "startYear": -400, "endYear": -350, "name_en": "Ministry of Prophet Joel (traditional)", "name_te": "యోవేలు ప్రవక్త సేవ (సాంప్రదాయ)", "lat": 31.8, "lon": 35.2, "desc_en": "Joel prophesies in Judah (traditional date)", "desc_te": "యోవేలు యూదాలో ప్రవచించాడు (సాంప్రదాయ తేదీ)" },
        { "startYear": -400, "endYear": -350, "name_en": "Ministry of Prophet Obadiah (traditional)", "name_te": "ఓబద్యా ప్రవక్త సేవ (సాంప్రదాయ)", "lat": 31.8, "lon": 35.2, "desc_en": "Obadiah prophesies in Judah (traditional date)", "desc_te": "ఓబద్యా యూదాలో ప్రవచించాడు (సాంప్రదాయ తేదీ)" },
        { "startYear": -400, "endYear": -350, "name_en": "Ministry of Prophet Jonah (traditional)", "name_te": "యోనా ప్రవక్త సేవ (సాంప్రదాయ)", "lat": 36.3, "lon": 43.1, "desc_en": "Jonah preaches in Nineveh (traditional date)", "desc_te": "యోనా నినివేలో ప్రవచించాడు (సాంప్రదాయ తేదీ)" },
        { "startYear": -400, "endYear": -350, "name_en": "Ministry of Prophet Nahum (traditional)", "name_te": "నహూము ప్రవక్త సేవ (సాంప్రదాయ)", "lat": 36.3, "lon": 43.1, "desc_en": "Nahum prophesies against Nineveh (traditional date)", "desc_te": "నహూము నినివేపై ప్రవచించాడు (సాంప్రదాయ తేదీ)" },
        { "startYear": -400, "endYear": -350, "name_en": "Ministry of Prophet Malachi", "name_te": "మలాకీ ప్రవక్త సేవ", "lat": 31.8, "lon": 35.2, "desc_en": "Malachi, last Old Testament prophet, ministers in Judah", "desc_te": "మలాకీ, పాత నిబంధనలో చివరి ప్రవక్త, యూదాలో సేవ చేశాడు" },
        { "startYear": -332, "endYear": -332, "name_en": "Alexander the Great Conquers Jerusalem", "name_te": "అలెగ్జాండర్ యెరూషలేమును జయించాడు", "lat": 31.776, "lon": 35.234, "desc_en": "Alexander enters Jerusalem peacefully", "desc_te": "అలెగ్జాండర్ యెరూషలేములోకి శాంతియుతంగా ప్రవేశించాడు" },
        { "startYear": -300, "endYear": -200, "name_en": "Rise of the Pharisees and Sadducees", "name_te": "ఫరిసేయులు మరియు సద్దూకేయుల ఉద్భవం", "lat": 31.8, "lon": 35.2, "desc_en": "Jewish religious groups emerge in Judea", "desc_te": "యూదా దేశంలో మతపరమైన సమూహాలు ఉద్భవించాయి" },
        { "startYear": -300, "endYear": -200, "name_en": "Septuagint Translation Begins", "name_te": "సెప్ట్యుయింట్ అనువాదం ప్రారంభం", "lat": 31.8, "lon": 35.2, "desc_en": "Hebrew Scriptures translated to Greek in Alexandria", "desc_te": "హెబ్రూ గ్రంథాలు అలెగ్జాండ్రియాలో గ్రీకు భాషలోకి అనువదించబడ్డాయి" },
        { "startYear": -200, "endYear": -200, "name_en": "Completion of Old Testament Canon", "name_te": "పాత నిబంధన గ్రంథాల సమాప్తి", "lat": 31.8, "lon": 35.2, "desc_en": "Most Old Testament books finalized", "desc_te": "పాత నిబంధన పుస్తకాలు పూర్తయ్యాయి" },
        { "startYear": -332, "endYear": -320, "name_en": "Greek Rule over Judea Begins", "name_te": "యూదా మీద గ్రీకు పాలన ప్రారంభం", "lat": 31.8, "lon": 35.2, "desc_en": "After Alexander, Judea under Greek (Ptolemaic/Seleucid) rule", "desc_te": "అలెగ్జాండర్ తరువాత యూదా గ్రీకు పాలనలోకి వచ్చింది" },
        { "startYear": -300, "endYear": -200, "name_en": "Rise of the Hasmoneans (Maccabees)", "name_te": "హాస్మోనీయులు (మక్కబీయులు) ఉద్భవం", "lat": 31.8, "lon": 35.2, "desc_en": "Jewish Hasmonean family begins to rise in Judea", "desc_te": "యూదాలో హాస్మోనీయుల కుటుంబం ఎదుగుతుంది" },
        { "startYear": -250, "endYear": -200, "name_en": "Spread of Hellenism in Judea", "name_te": "యూదాలో హెలెనిజం వ్యాప్తి", "lat": 31.8, "lon": 35.2, "desc_en": "Greek culture influences Judea", "desc_te": "యూదా దేశంపై గ్రీకు సంస్కృతి ప్రభావం చూపింది" },
        { "startYear": -200, "endYear": -167, "name_en": "Seleucid Oppression of Jews", "name_te": "యూదులపై సెల్యూకిడ్ దురాచారం", "lat": 31.8, "lon": 35.2, "desc_en": "Antiochus IV Epiphanes persecutes Jews, desecrates Temple", "desc_te": "యూదులపై ఆంటియోకస్ IV దురాచారం, ఆలయ అపవిత్రత" },
        { "startYear": -167, "endYear": -160, "name_en": "Maccabean Revolt", "name_te": "మక్కబీయుల తిరుగుబాటు", "lat": 31.8, "lon": 35.2, "desc_en": "Jewish revolt against Seleucid rule, Hanukkah established", "desc_te": "సెల్యూకిడ్ పాలనపై యూదుల తిరుగుబాటు, హనుక్కా పండుగ" },
        { "startYear": -200, "endYear": -100, "name_en": "Compilation of Dead Sea Scrolls Begins", "name_te": "డెడ్ సీ స్క్రోల్స్ సంకలన ప్రారంభం", "lat": 31.7, "lon": 35.5, "desc_en": "Jewish texts collected at Qumran", "desc_te": "యూదుల గ్రంథాలు క్యూమ్రాన్ వద్ద సంకలనం" },
        { "startYear": -539, "endYear": -530, "name_en": "Decree of Cyrus", "name_te": "సైరస్ ఆజ్ఞ", "lat": 32, "lon": 54, "desc_en": "Cyrus allows Jews to return to Jerusalem", "desc_te": "సైరస్ యూదులకు యెరూషలేముకు తిరిగి వెళ్లడానికి అనుమతించాడు" },
        { "startYear": -520, "endYear": -500, "name_en": "Prophet Zechariah's Ministry", "name_te": "జెకర్యా ప్రవక్త సేవ", "lat": 31.8, "lon": 35.2, "desc_en": "Zechariah encourages rebuilding of the Temple", "desc_te": "జెకర్యా రెండవ ఆలయ నిర్మాణాన్ని ప్రోత్సహించాడు" },
        { "startYear": -520, "endYear": -500, "name_en": "Prophet Haggai's Ministry", "name_te": "హగ్గయి ప్రవక్త సేవ", "lat": 31.8, "lon": 35.2, "desc_en": "Haggai urges Jews to rebuild the Temple", "desc_te": "హగ్గయి యూదులను ఆలయ నిర్మాణానికి ప్రోత్సహించాడు" },
        { "startYear": -600, "endYear": -500, "name_en": "Prophet Daniel in Babylon", "name_te": "బాబులోనులో దానియేలు ప్రవక్త", "lat": 32.5, "lon": 44.4, "desc_en": "Daniel's ministry and visions in Babylon", "desc_te": "బాబులోనులో దానియేలు ప్రవక్త సేవలు మరియు దర్శనాలు" }
        ],
      "WORLD_EVENTS" : [
        { "startYear": -332, "endYear": -332, "name_en": "Alexander the Great Conquers Jerusalem", "name_te": "అలెగ్జాండర్ యెరూషలేమును జయించాడు", "lat": 31.776, "lon": 35.234, "desc_en": "Alexander enters Jerusalem peacefully", "desc_te": "అలెగ్జాండర్ యెరూషలేములోకి శాంతియుతంగా ప్రవేశించాడు" },
        { "startYear": -3300, "endYear": -1700, "name_en": "Indus Valley Civilization", "name_te": "సింధు లోయ నాగరికత", "lat": 29, "lon": 70, "desc_en": "Harappa & Mohenjo-Daro", "desc_te": "హరప్పా మరియు మోహెంజో-దారో" },
        { "startYear": -3100, "endYear": -2500, "name_en": "Early Egyptian Dynasties", "name_te": "ఈజిప్టు ప్రారంభ రాజవంశాలు", "lat": 26, "lon": 31, "desc_en": "Unification of Upper & Lower Egypt", "desc_te": "ఈజిప్టు ఏకీకరణం" },
        { "startYear": -2000, "endYear": -1500, "name_en": "Xia Dynasty (China)", "name_te": "షియా రాజవంశం (చైనా)", "lat": 35, "lon": 111, "desc_en": "First dynasty in China", "desc_te": "చైనాలో మొదటి రాజవంశం" },
        { "startYear": -1500, "endYear": -500, "name_en": "Vedic Civilization (India)", "name_te": "వేద నాగరికత (భారతదేశం)", "lat": 25, "lon": 80, "desc_en": "Early Indo-Aryan culture", "desc_te": "ప్రాచీన ఇండో-ఆర్య నాగరికత" },
        { "startYear": -800, "endYear": -700, "name_en": "Greek Colonization of Mediterranean", "name_te": "మెడిటరేనియన్‌కు గ్రీకు వలసలు", "lat": 37.9838, "lon": 23.7275, "desc_en": "Greek city-states found colonies across Mediterranean", "desc_te": "మెడిటరేనియన్ చుట్టూ గ్రీకు నగర-రాజ్యాల వలసలు స్థాపించబడ్డాయి" },
        { "startYear": -800, "endYear": -700, "name_en": "Etruscan Civilization Rises (Italy)", "name_te": "ఎట్రస్కన్ నాగరికత ఉద్భవం (ఇటలీ)", "lat": 43.0, "lon": 12.5, "desc_en": "Etruscan civilization emerges in central Italy", "desc_te": "ఎట్రస్కన్ నాగరికత మధ్య ఇటలీలో ఉద్భవించింది" },
        { "startYear": -800, "endYear": -700, "name_en": "Kingdom of Israel and Judah", "name_te": "ఇజ్రాయెల్ మరియు యూదా రాజ్యాలు", "lat": 31.8, "lon": 35.2, "desc_en": "Israel and Judah are major kingdoms in the Levant", "desc_te": "ఇజ్రాయెల్, యూదా లెవాంట్‌లో ప్రధాన రాజ్యాలు" },
        { "startYear": -800, "endYear": -700, "name_en": "Assyrian Expansion in Near East", "name_te": "సమీప తూర్పులో అస్సిరియన్ విస్తరణ", "lat": 36.3, "lon": 43.1, "desc_en": "Assyria expands its empire", "desc_te": "అస్సిరియా తన సామ్రాజ్యాన్ని విస్తరించింది" },
        { "startYear": -800, "endYear": -700, "name_en": "Olmec Civilization (Mesoamerica)", "name_te": "ఒల్మెక్ నాగరికత (మేసోఅమెరికా)", "lat": 18, "lon": -95, "desc_en": "Olmec culture in Mexico", "desc_te": "మెక్సికోలో ఒల్మెక్ నాగరికత" },
        { "startYear": -800, "endYear": -700, "name_en": "Kingdom of Urartu (Armenia)", "name_te": "ఉరర్తు రాజ్యం (ఆర్మేనియా)", "lat": 39.5, "lon": 44.0, "desc_en": "Urartu kingdom flourishes in Armenian Highlands", "desc_te": "ఉరర్తు రాజ్యం ఆర్మేనియా పర్వత ప్రాంతంలో వికసించింది" },
        { "startYear": -800, "endYear": -700, "name_en": "Phoenician Alphabet Spreads", "name_te": "ఫోనీషియన్ లిపి వ్యాప్తి", "lat": 34.0, "lon": 35.7, "desc_en": "Phoenician script influences Mediterranean writing", "desc_te": "ఫోనీషియన్ లిపి మెడిటరేనియన్ ప్రాంతంలో వ్యాప్తి చెందింది" },
        { "startYear": -800, "endYear": -700, "name_en": "Zhou Dynasty (China) Expands", "name_te": "జౌ రాజవంశం విస్తరణ (చైనా)", "lat": 34.3, "lon": 108.9, "desc_en": "Eastern Zhou expands territory in China", "desc_te": "తూర్పు జౌ చైనా లో విస్తరించింది" },
        { "startYear": -800, "endYear": -700, "name_en": "Mahajanapadas Era Begins (India)", "name_te": "మహాజనపదాల యుగం ప్రారంభం (భారతదేశం)", "lat": 25.0, "lon": 85.0, "desc_en": "Early Mahajanapadas form in India", "desc_te": "భారతదేశంలో ప్రారంభ మహాజనపదాలు ఏర్పడిన కాలం" },
        { "startYear": -800, "endYear": -700, "name_en": "Greek Olympic Games Tradition Starts", "name_te": "గ్రీకు ఒలింపిక్ క్రీడలు ప్రారంభం", "lat": 37.6381, "lon": 21.6308, "desc_en": "Olympic Games begin in Olympia, Greece", "desc_te": "ఒలింపియా, గ్రీస్‌లో ఒలింపిక్ క్రీడలు ప్రారంభమయ్యాయి" },
        { "startYear": -700, "endYear": -600, "name_en": "Rise of Greek City-States", "name_te": "గ్రీకు నగర-రాజ్యాల ఉద్భవం", "lat": 37.9838, "lon": 23.7275, "desc_en": "Athens, Sparta, and others emerge as powers", "desc_te": "అథెన్స్, స్పార్టా మొదలైనవి శక్తివంతమైన నగర-రాజ్యాలుగా ఎదిగాయి" },
        { "startYear": -700, "endYear": -600, "name_en": "Assyrian Empire at its Height", "name_te": "అస్సిరియన్ సామ్రాజ్యం పరాకాష్ట", "lat": 36.3, "lon": 43.1, "desc_en": "Assyria dominates the Near East", "desc_te": "అస్సిరియా సమీప తూర్పును ఆధిపత్యం వహించింది" },
        { "startYear": -700, "endYear": -600, "name_en": "Kingdom of Urartu (Armenia)", "name_te": "ఉరర్తు రాజ్యం (ఆర్మేనియా)", "lat": 39.5, "lon": 44.0, "desc_en": "Urartu kingdom flourishes in Armenian Highlands", "desc_te": "ఉరర్తు రాజ్యం ఆర్మేనియా పర్వత ప్రాంతంలో వికసించింది" },
        { "startYear": -700, "endYear": -600, "name_en": "Olmec Civilization (Mesoamerica)", "name_te": "ఒల్మెక్ నాగరికత (మేసోఅమెరికా)", "lat": 18, "lon": -95, "desc_en": "Olmec culture in Mexico", "desc_te": "మెక్సికోలో ఒల్మెక్ నాగరికత" },
        { "startYear": -700, "endYear": -600, "name_en": "Kingdom of Kush (Africa)", "name_te": "కుష్ రాజ్యం (ఆఫ్రికా)", "lat": 16.0, "lon": 32.5, "desc_en": "Kushite kingdom flourishes in Nubia (Sudan)", "desc_te": "న్యూబియాలో (సూడాన్) కుష్ రాజ్యం వికసించింది" },
        { "startYear": -700, "endYear": -600, "name_en": "Etruscan Civilization (Italy)", "name_te": "ఎట్రస్కన్ నాగరికత (ఇటలీ)", "lat": 43.0, "lon": 12.5, "desc_en": "Etruscans dominate central Italy", "desc_te": "ఎట్రస్కన్‌లు మధ్య ఇటలీని ఆధిపత్యం వహించారు" },
        { "startYear": -700, "endYear": -600, "name_en": "Phoenician Expansion in Mediterranean", "name_te": "ఫోనీషియన్ విస్తరణ (మెడిటరేనియన్)", "lat": 34.0, "lon": 35.7, "desc_en": "Phoenician trade and colonies spread", "desc_te": "ఫోనీషియన్ వాణిజ్యం, కాలనీలు విస్తరించాయి" },
        { "startYear": -700, "endYear": -600, "name_en": "Babylonian Renaissance", "name_te": "బాబిలోనియన్ పునరుజ్జీవనం", "lat": 32.5, "lon": 44.4, "desc_en": "Babylon regains power under Nabopolassar", "desc_te": "నబోపోలాసర్ కాలంలో బాబిలోన్ తిరిగి శక్తివంతమైంది" },
        { "startYear": -700, "endYear": -600, "name_en": "Kingdom of Lydia (Asia Minor)", "name_te": "లిడియా రాజ్యం (ఆసియా మైనర్)", "lat": 38.5, "lon": 28.0, "desc_en": "Lydia flourishes, first coins minted", "desc_te": "లిడియా రాజ్యం వికసించింది, మొట్టమొదటి నాణేలు తయారయ్యాయి" },
        { "startYear": -700, "endYear": -600, "name_en": "Kingdom of Judah (Hezekiah, Manasseh)", "name_te": "యూదా రాజ్యం (హిజ్కియా, మనస్సే)", "lat": 31.8, "lon": 35.2, "desc_en": "Hezekiah and Manasseh rule Judah", "desc_te": "హిజ్కియా, మనస్సే యూదాను పాలించారు" },
        { "startYear": -700, "endYear": -600, "name_en": "Mahajanapadas Era (India)", "name_te": "మహాజనపదాల యుగం (భారతదేశం)", "lat": 25.0, "lon": 85.0, "desc_en": "Sixteen great kingdoms in India", "desc_te": "భారతదేశంలో పదహారు మహాజనపదాలు" },
        { "startYear": -700, "endYear": -600, "name_en": "Zhou Dynasty (China)", "name_te": "జౌ రాజవంశం (చైనా)", "lat": 34.3, "lon": 108.9, "desc_en": "Eastern Zhou period, Spring and Autumn era", "desc_te": "తూర్పు జౌ కాలం, వసంత-శరదృతువుల యుగం" },
        { "startYear": -700, "endYear": -600, "name_en": "Homeric Epics Circulated (Greece)", "name_te": "హోమర్ ఇతిహాసాలు (గ్రీస్)", "lat": 37.9838, "lon": 23.7275, "desc_en": "Iliad and Odyssey attributed to Homer", "desc_te": "ఇలియడ్, ఒడిస్సే హోమర్‌కు ఆపాదించబడ్డాయి" },
        { "startYear": -700, "endYear": -600, "name_en": "Rise of Scythian Kingdoms (Eurasia)", "name_te": "స్కిథియన్ రాజ్యాల ఉద్భవం (యూరేషియా)", "lat": 48.0, "lon": 67.0, "desc_en": "Scythian nomads dominate Eurasian steppes", "desc_te": "స్కిథియన్ గోత్రాలు యూరేషియన్ మైదానాలను ఆధిపత్యం వహించాయి" },
        { "startYear": -664, "endYear": -610, "name_en": "Saite Dynasty (Egypt)", "name_te": "సైట్ రాజవంశం (ఈజిప్టు)", "lat": 30.0444, "lon": 31.2357, "desc_en": "26th Dynasty rules Egypt, capital at Sais", "desc_te": "ఈజిప్టులో 26వ రాజవంశం, సైస్ రాజధాని" },
        { "startYear": -681, "endYear": -669, "name_en": "Reign of Esarhaddon (Assyria)", "name_te": "ఎసర్హద్దోన్లు పాలన (అస్సిరియా)", "lat": 36.3, "lon": 43.1, "desc_en": "Esarhaddon expands Assyrian Empire, conquers Egypt", "desc_te": "ఎసర్హద్దోన్లు అస్సిరియన్ సామ్రాజ్యాన్ని విస్తరించాడు, ఈజిప్టును జయించాడు" },
        { "startYear": -700, "endYear": -600, "name_en": "Greek Colonization of Black Sea", "name_te": "బ్లాక్ సీకి గ్రీకు వలసలు", "lat": 44.6, "lon": 33.5, "desc_en": "Greek city-states found colonies around Black Sea", "desc_te": "బ్లాక్ సీ చుట్టూ గ్రీకు నగర-రాజ్యాల వలసలు స్థాపించబడ్డాయి" },
        { "startYear": -700, "endYear": -600, "name_en": "Euboean Alphabet Spreads (Greece)", "name_te": "యూబోయన్ లిపి వ్యాప్తి (గ్రీస్)", "lat": 38.5, "lon": 23.6, "desc_en": "Greek alphabet spreads, influencing writing systems", "desc_te": "గ్రీకు లిపి వ్యాప్తి, ఇతర లిపులపై ప్రభావం" },
        { "startYear": -700, "endYear": -600, "name_en": "Assyrian Art and Architecture Flourish", "name_te": "అస్సిరియన్ కళ మరియు వాస్తుశిల్పం వికసించాయి", "lat": 36.3, "lon": 43.1, "desc_en": "Palaces and reliefs at Nineveh, Nimrud", "desc_te": "నినివే, నిమ్రూద్‌లో రాజప్రాసాదాలు, శిల్పాలు" },
        { "startYear": -700, "endYear": -600, "name_en": "Rise of the Medes (Iran)", "name_te": "మీడుల ఉద్భవం (ఇరాన్)", "lat": 36.3, "lon": 59.6, "desc_en": "Medes become a major power in Iran", "desc_te": "మీడులు ఇరాన్‌లో ప్రధాన శక్తిగా ఎదిగారు" },
        { "startYear": -600, "endYear": -300, "name_en": "Anga Mahājanapada (India)", "name_te": "అంగ మహాజనపద (భారతదేశం)", "lat": 25.2, "lon": 86.98, "desc_en": "Ancient kingdom in eastern India (Bihar)", "desc_te": "ప్రాచీన అంగ రాజ్యం (బిహార్)" },
        { "startYear": -600, "endYear": -300, "name_en": "Magadha Mahājanapada (India)", "name_te": "మగధ మహాజనపద (భారతదేశం)", "lat": 25.0, "lon": 85.0, "desc_en": "Powerful kingdom in Bihar", "desc_te": "బిహార్‌లో శక్తివంతమైన మగధ రాజ్యం" },
        { "startYear": -600, "endYear": -300, "name_en": "Kasi Mahājanapada (India)", "name_te": "కాశి మహాజనపద (భారతదేశం)", "lat": 25.3, "lon": 82.97, "desc_en": "Kingdom around Varanasi", "desc_te": "వారణాసి చుట్టూ కాశి రాజ్యం" },
        { "startYear": -600, "endYear": -300, "name_en": "Kosala Mahājanapada (India)", "name_te": "కోసల మహాజనపద (భారతదేశం)", "lat": 26.6, "lon": 82.0, "desc_en": "Region of Ayodhya and Shravasti", "desc_te": "అయోధ్య, శ్రావస్తి ప్రాంతం" },
        { "startYear": -600, "endYear": -300, "name_en": "Vatsa Mahājanapada (India)", "name_te": "వత్స మహాజనపద (భారతదేశం)", "lat": 25.2, "lon": 81.5, "desc_en": "Region around Kausambi (UP)", "desc_te": "కౌశాంబి (ఉత్తరప్రదేశ్) ప్రాంతం" },
        { "startYear": -600, "endYear": -300, "name_en": "Kuru Mahājanapada (India)", "name_te": "కురు మహాజనపద (భారతదేశం)", "lat": 29.0, "lon": 77.0, "desc_en": "Region of modern Haryana/Delhi", "desc_te": "హర్యానా/ఢిల్లీ ప్రాంతం" },
        { "startYear": -600, "endYear": -300, "name_en": "Panchala Mahājanapada (India)", "name_te": "పంచాల మహాజనపద (భారతదేశం)", "lat": 28.0, "lon": 79.0, "desc_en": "Region of western UP", "desc_te": "పశ్చిమ ఉత్తరప్రదేశ్ ప్రాంతం" },
        { "startYear": -600, "endYear": -300, "name_en": "Matsya Mahājanapada (India)", "name_te": "మత్స్య మహాజనపద (భారతదేశం)", "lat": 27.6, "lon": 76.6, "desc_en": "Region of modern Rajasthan", "desc_te": "రాజస్థాన్ ప్రాంతం" },
        { "startYear": -600, "endYear": -300, "name_en": "Chedi Mahājanapada (India)", "name_te": "చెది మహాజనపద (భారతదేశం)", "lat": 24.0, "lon": 80.8, "desc_en": "Region of Bundelkhand (MP)", "desc_te": "బుందేల్‌ఖండ్ (మధ్యప్రదేశ్) ప్రాంతం" },
        { "startYear": -600, "endYear": -300, "name_en": "Vajji (Vriji) Mahājanapada (India)", "name_te": "వజ్జి మహాజనపద (భారతదేశం)", "lat": 26.9, "lon": 85.5, "desc_en": "Confederacy in north Bihar (Vaishali)", "desc_te": "ఉత్తర బిహార్‌లో వజ్జి సమాఖ్య (వైశాలి)" },
        { "startYear": -600, "endYear": -300, "name_en": "Malla Mahājanapada (India)", "name_te": "మల్ల మహాజనపద (భారతదేశం)", "lat": 26.7, "lon": 83.9, "desc_en": "Region of Gorakhpur (UP)", "desc_te": "గోరఖ్‌పూర్ (ఉత్తరప్రదేశ్) ప్రాంతం" },
        { "startYear": -600, "endYear": -300, "name_en": "Assaka (Asmaka) Mahājanapada (India)", "name_te": "అస్సక మహాజనపద (భారతదేశం)", "lat": 19.0, "lon": 77.0, "desc_en": "Region of Maharashtra/Andhra", "desc_te": "మహారాష్ట్ర/ఆంధ్రప్రదేశ్ ప్రాంతం" },
        { "startYear": -600, "endYear": -300, "name_en": "Avanti Mahājanapada (India)", "name_te": "అవంతి మహాజనపద (భారతదేశం)", "lat": 23.2, "lon": 75.8, "desc_en": "Region of Ujjain (MP)", "desc_te": "ఉజ్జయిని (మధ్యప్రదేశ్) ప్రాంతం" },
        { "startYear": -600, "endYear": -300, "name_en": "Gandhara Mahājanapada (India)", "name_te": "గంధార మహాజనపద (భారతదేశం)", "lat": 34.0, "lon": 71.5, "desc_en": "Region of Peshawar/Taxila (Pakistan)", "desc_te": "పెషావర్/టాక్సిలా (పాకిస్తాన్) ప్రాంతం" },
        { "startYear": -600, "endYear": -300, "name_en": "Kamboja Mahājanapada (India)", "name_te": "కాంబోజ మహాజనపద (భారతదేశం)", "lat": 35.0, "lon": 74.0, "desc_en": "Region of Kashmir/Afghanistan", "desc_te": "కాశ్మీర్/అఫ్గానిస్తాన్ ప్రాంతం" },
        { "startYear": -600, "endYear": -300, "name_en": "Surasena Mahājanapada (India)", "name_te": "సురసేన మహాజనపద (భారతదేశం)", "lat": 27.5, "lon": 77.7, "desc_en": "Region of Mathura (UP)", "desc_te": "మథుర (ఉత్తరప్రదేశ్) ప్రాంతం" },
        { "startYear": -1200, "endYear": -900, "name_en": "Greek Mycenaean Period", "name_te": "గ్రీకు మైసీనియన్ కాలం", "lat": 37, "lon": 23, "desc_en": "Pre-Classical Greek era", "desc_te": "గ్రీకు చరిత్రలో ప్రాథమిక కాలం" },
        { "startYear": -753, "endYear": 476, "name_en": "Roman Civilization", "name_te": "రోమన్ నాగరికత", "lat": 41.9, "lon": 12.5, "desc_en": "Rise and fall of Rome", "desc_te": "రోమన్ నాగరికత యొక్క ఎదుగుదల మరియు పతనం" },
        { "startYear": -550, "endYear": -330, "name_en": "Persian Empire", "name_te": "పర్షియన్ సామ్రాజ్యం", "lat": 32, "lon": 54, "desc_en": "Cyrus the Great", "desc_te": "సైరస్ ది గ్రేట్ పాలన" },
        { "startYear": -600, "endYear": -500, "name_en": "Buddha's Life Begins", "name_te": "బుద్ధుని జననం", "lat": 27.7, "lon": 83.4, "desc_en": "Siddhartha Gautama (Buddha) is born in Lumbini", "desc_te": "లుంబినిలో సిద్ధార్థుడు (బుద్ధుడు) జన్మించాడు" },
        { "startYear": -594, "endYear": -594, "name_en": "Solon Reforms Athens", "name_te": "సోలన్ యొక్క ఏథెన్స్ సంస్కరణలు", "lat": 37.9838, "lon": 23.7275, "desc_en": "Solon lays foundation for Athenian democracy", "desc_te": "సోలన్ ఏథెన్స్ ప్రజాస్వామ్యానికి పునాది వేశాడు" },
        { "startYear": -550, "endYear": -530, "name_en": "Cyrus the Great Founds Persian Empire", "name_te": "సైరస్ ది గ్రేట్ పర్షియన్ సామ్రాజ్య స్థాపన", "lat": 32, "lon": 54, "desc_en": "Cyrus unites Persian tribes and conquers Media", "desc_te": "సైరస్ పర్షియన్ గోత్రాలను ఏకతాటిపైకి తేవడం మరియు మీడియాను జయించడం" },
        { "startYear": -570, "endYear": -526, "name_en": "Pharaoh Amasis II of Egypt", "name_te": "ఈజిప్టు అమాసిస్ II ఫరో", "lat": 30.0444, "lon": 31.2357, "desc_en": "Amasis II rules Egypt, period of prosperity", "desc_te": "అమాసిస్ II ఈజిప్టును పాలించాడు, శ్రేయస్సు కాలం" },
        { "startYear": -563, "endYear": -483, "name_en": "Life of Buddha", "name_te": "బుద్ధుని జీవితం", "lat": 27.7, "lon": 83.4, "desc_en": "Siddhartha Gautama (Buddha) lives and teaches", "desc_te": "సిద్ధార్థుడు (బుద్ధుడు) జీవించి బోధించాడు" },
        { "startYear": -509, "endYear": -509, "name_en": "Roman Republic Founded", "name_te": "రోమన్ గణతంత్ర స్థాపన", "lat": 41.9, "lon": 12.5, "desc_en": "Rome becomes a republic", "desc_te": "రోమ్ గణతంత్రంగా మారింది" },
        { "startYear": -525, "endYear": -525, "name_en": "Persians Conquer Egypt", "name_te": "పర్షియన్లు ఈజిప్టును జయించారు", "lat": 30.0444, "lon": 31.2357, "desc_en": "Cambyses II of Persia conquers Egypt", "desc_te": "పర్షియన్ చక్రవర్తి కాంబైసెస్ II ఈజిప్టును జయించాడు" },
        { "startYear": -551, "endYear": -479, "name_en": "Life of Confucius", "name_te": "కన్ఫ్యూషియస్ జీవితం", "lat": 35, "lon": 118, "desc_en": "Confucius, Chinese philosopher, lives and teaches", "desc_te": "చైనా తత్వవేత్త కన్ఫ్యూషియస్ జీవించి బోధించాడు" },
        { "startYear": -570, "endYear": -495, "name_en": "Life of Pythagoras", "name_te": "పైథాగోరస్ జీవితం", "lat": 37.0746, "lon": 15.2866, "desc_en": "Greek mathematician and philosopher", "desc_te": "గ్రీకు గణిత శాస్త్రవేత్త మరియు తత్వవేత్త" },
        { "startYear": -600, "endYear": -500, "name_en": "Persian Empire Expands", "name_te": "పర్షియన్ సామ్రాజ్యం విస్తరణ", "lat": 32, "lon": 54, "desc_en": "Cyrus the Great expands Persian Empire", "desc_te": "సైరస్ ది గ్రేట్ పర్షియన్ సామ్రాజ్యాన్ని విస్తరించాడు" },
        { "startYear": -500, "endYear": -400, "name_en": "Confucius Era (China)", "name_te": "కన్ఫ్యూషియస్ కాలం (చైనా)", "lat": 35, "lon": 118, "desc_en": "Confucian philosophy begins", "desc_te": "కన్ఫ్యూషియన్ తత్వశాస్త్రం ఆరంభం" },
        { "startYear": -500, "endYear": -400, "name_en": "Ezra and Nehemiah in Jerusalem", "name_te": "యెరూషలేములో ఎజ్రా మరియు నెహెమ్యా", "lat": 31.776, "lon": 35.234, "desc_en": "Ezra and Nehemiah lead return and reforms in Jerusalem", "desc_te": "ఎజ్రా మరియు నెహెమ్యా యెరూషలేములో తిరిగి వచ్చి సంస్కరణలు చేశారు" },
        { "startYear": -480, "endYear": -470, "name_en": "Prophet Esther in Persia", "name_te": "పర్షియాలో ఎస్తేరు ప్రవక్త", "lat": 32, "lon": 54, "desc_en": "Esther becomes queen and saves the Jews", "desc_te": "ఎస్తేరు రాణిగా మారి యూదులను రక్షించింది" },
        { "startYear": -450, "endYear": -400, "name_en": "Completion of Old Testament Writings", "name_te": "పాత నిబంధన రచనలు పూర్తికావడం", "lat": 31.8, "lon": 35.2, "desc_en": "Most Old Testament books completed", "desc_te": "పాత నిబంధన పుస్తకాలు ఎక్కువగా పూర్తయ్యాయి" },
        { "startYear": -445, "endYear": -432, "name_en": "Nehemiah's Wall Rebuilt", "name_te": "నెహెమ్యా గోడ పునర్నిర్మాణం", "lat": 31.776, "lon": 35.234, "desc_en": "Nehemiah rebuilds Jerusalem's walls", "desc_te": "నెహెమ్యా యెరూషలేము గోడలను పునర్నిర్మించాడు" },
        { "startYear": -430, "endYear": -400, "name_en": "Prophet Joel's Ministry (traditional)", "name_te": "యోవేలు ప్రవక్త సేవ (సాంప్రదాయ)", "lat": 31.8, "lon": 35.2, "desc_en": "Joel prophesies in Judah (traditional date)", "desc_te": "యోవేలు యూదాలో ప్రవచించాడు (సాంప్రదాయ తేదీ)" },
        { "startYear": -420, "endYear": -400, "name_en": "Prophet Obadiah's Ministry (traditional)", "name_te": "ఓబద్యా ప్రవక్త సేవ (సాంప్రదాయ)", "lat": 31.8, "lon": 35.2, "desc_en": "Obadiah prophesies in Judah (traditional date)", "desc_te": "ఓబద్యా యూదాలో ప్రవచించాడు (సాంప్రదాయ తేదీ)" },
        { "startYear": -410, "endYear": -400, "name_en": "Prophet Jonah's Ministry (traditional)", "name_te": "యోనా ప్రవక్త సేవ (సాంప్రదాయ)", "lat": 36.3, "lon": 43.1, "desc_en": "Jonah preaches in Nineveh (traditional date)", "desc_te": "యోనా నినివేలో ప్రవచించాడు (సాంప్రదాయ తేదీ)" },
        { "startYear": -400, "endYear": -400, "name_en": "Prophet Nahum's Ministry (traditional)", "name_te": "నహూము ప్రవక్త సేవ (సాంప్రదాయ)", "lat": 36.3, "lon": 43.1, "desc_en": "Nahum prophesies against Nineveh (traditional date)", "desc_te": "నహూము నినివేపై ప్రవచించాడు (సాంప్రదాయ తేదీ)" },
        { "startYear": -500, "endYear": -400, "name_en": "Prophet Malachi's Ministry", "name_te": "మలాకీ ప్రవక్త సేవ", "lat": 31.8, "lon": 35.2, "desc_en": "Malachi, last Old Testament prophet, ministers in Judah", "desc_te": "మలాకీ, పాత నిబంధనలో చివరి ప్రవక్త, యూదాలో సేవ చేశాడు" },
        { "startYear": -500, "endYear": -449, "name_en": "Greco-Persian Wars", "name_te": "గ్రీకు-పర్షియన్ యుద్ధాలు", "lat": 37.9838, "lon": 23.7275, "desc_en": "Wars between Greek city-states and Persian Empire", "desc_te": "గ్రీకు నగర-రాజ్యాలు మరియు పర్షియన్ సామ్రాజ్యం మధ్య యుద్ధాలు" },
        { "startYear": -490, "endYear": -490, "name_en": "Battle of Marathon", "name_te": "మారథాన్ యుద్ధం", "lat": 38.15, "lon": 23.97, "desc_en": "Athenians defeat Persians at Marathon", "desc_te": "అథెన్స్ వారు మారథాన్ వద్ద పర్షియన్లను ఓడించారు" },
        { "startYear": -480, "endYear": -480, "name_en": "Battle of Thermopylae", "name_te": "థెర్మొపిలే యుద్ధం", "lat": 38.7972, "lon": 22.5361, "desc_en": "Spartans and allies resist Persians", "desc_te": "స్పార్టా మరియు మిత్రులు పర్షియన్లను ఎదుర్కొన్నారు" },
        { "startYear": -461, "endYear": -429, "name_en": "Age of Pericles (Athens)", "name_te": "పెరిక్లీస్ యుగం (ఏథెన్స్)", "lat": 37.9838, "lon": 23.7275, "desc_en": "Golden Age of Athens under Pericles", "desc_te": "పెరిక్లీస్ పాలనలో ఏథెన్స్ స్వర్ణయుగం" },
        { "startYear": -470, "endYear": -399, "name_en": "Life of Socrates", "name_te": "సోక్రటీస్ జీవితం", "lat": 37.9838, "lon": 23.7275, "desc_en": "Greek philosopher Socrates lives and teaches", "desc_te": "గ్రీకు తత్వవేత్త సోక్రటీస్ జీవించి బోధించాడు" },
        { "startYear": -509, "endYear": -429, "name_en": "Roman Expansion in Italy", "name_te": "ఇటలీలో రోమన్ విస్తరణ", "lat": 41.9, "lon": 12.5, "desc_en": "Rome expands control over Italian peninsula", "desc_te": "రోమ్ ఇటలీ ద్వీపకల్పాన్ని విస్తరించింది" },
        { "startYear": -450, "endYear": -400, "name_en": "Twelve Tables of Roman Law", "name_te": "రోమన్ చట్టాల పన్నెండు పట్టికలు", "lat": 41.9, "lon": 12.5, "desc_en": "Earliest attempt at a code of law for Rome", "desc_te": "రోమ్ చట్టాల కోసం తొలిసారి ప్రయత్నం" },
        { "startYear": -447, "endYear": -432, "name_en": "Construction of Parthenon", "name_te": "పార్థెనాన్ నిర్మాణం", "lat": 37.9715, "lon": 23.7267, "desc_en": "Parthenon built in Athens", "desc_te": "ఏథెన్స్‌లో పార్థెనాన్ నిర్మించబడింది" },
        { "startYear": -431, "endYear": -404, "name_en": "Peloponnesian War", "name_te": "పెలోపొన్నీషియన్ యుద్ధం", "lat": 37.9838, "lon": 23.7275, "desc_en": "War between Athens and Sparta", "desc_te": "ఏథెన్స్ మరియు స్పార్టా మధ్య యుద్ధం" },
        { "startYear": -400, "endYear": -400, "name_en": "Olmec Civilization Ends", "name_te": "ఒల్మెక్ నాగరికత ముగింపు", "lat": 18, "lon": -95, "desc_en": "End of Olmec civilization in Mesoamerica", "desc_te": "మేసోఅమెరికాలో ఒల్మెక్ నాగరికత ముగిసింది" },
        { "startYear": -404, "endYear": -404, "name_en": "End of Peloponnesian War", "name_te": "పెలోపొన్నీషియన్ యుద్ధం ముగింపు", "lat": 37.9838, "lon": 23.7275, "desc_en": "Sparta defeats Athens, ending the war", "desc_te": "స్పార్టా ఏథెన్స్‌ను ఓడించి యుద్ధాన్ని ముగించింది" },
        { "startYear": -399, "endYear": -399, "name_en": "Death of Socrates", "name_te": "సోక్రటీస్ మరణం", "lat": 37.9838, "lon": 23.7275, "desc_en": "Greek philosopher Socrates is executed in Athens", "desc_te": "గ్రీకు తత్వవేత్త సోక్రటీస్ ఏథెన్స్‌లో మరణించాడు" },
        { "startYear": -399, "endYear": -399, "name_en": "Ctesiphon Becomes Capital of Parthia", "name_te": "పార్థియా రాజధానిగా క్టెసిఫోన్", "lat": 33.0931, "lon": 44.5801, "desc_en": "Ctesiphon becomes a major city in the Parthian Empire", "desc_te": "క్టెసిఫోన్ పార్థియన్ సామ్రాజ్యంలో ప్రధాన నగరంగా మారింది" },
        { "startYear": -400, "endYear": -400, "name_en": "End of Egyptian New Kingdom", "name_te": "ఈజిప్టు న్యూ కింగ్డమ్ ముగింపు", "lat": 30.0444, "lon": 31.2357, "desc_en": "End of the New Kingdom period in Egypt", "desc_te": "ఈజిప్టులో న్యూ కింగ్డమ్ కాలం ముగిసింది" },
        { "startYear": -400, "endYear": -300, "name_en": "Intertestamental Period Begins", "name_te": "మధ్య నిబంధన కాలం ప్రారంభం", "lat": 31.8, "lon": 35.2, "desc_en": "Period between Old and New Testaments begins", "desc_te": "పాత మరియు కొత్త నిబంధనల మధ్య కాలం ప్రారంభమైంది" },
        { "startYear": -350, "endYear": -300, "name_en": "Jewish High Priest Jaddua", "name_te": "యూదా ప్రధాన యాజకుడు జద్దువా", "lat": 31.8, "lon": 35.2, "desc_en": "Jaddua serves as high priest in Jerusalem", "desc_te": "జద్దువా యెరూషలేములో ప్రధాన యాజకుడిగా ఉన్నాడు" },
        { "startYear": -312, "endYear": -300, "name_en": "Rise of the Hasmoneans (Maccabees)", "name_te": "హాస్మోనీయులు (మక్కబీయులు) ఉద్భవం", "lat": 31.8, "lon": 35.2, "desc_en": "Jewish Hasmonean family begins to rise in Judea", "desc_te": "యూదాలో హాస్మోనీయుల కుటుంబం ఎదుగుతుంది" },
        { "startYear": -301, "endYear": -301, "name_en": "Battle of Ipsus", "name_te": "ఇప్సస్ యుద్ధం", "lat": 38.5, "lon": 31.5, "desc_en": "Diadochi fight for Alexander's empire, Seleucus wins Asia", "desc_te": "డయాడోచి అలెగ్జాండర్ సామ్రాజ్యానికి పోరాడారు, సెల్యూకస్ ఆసియాను గెలుచుకున్నాడు" },
        { "startYear": -312, "endYear": -312, "name_en": "Seleucid Empire Founded", "name_te": "సెల్యూకిడ్ సామ్రాజ్యం స్థాపన", "lat": 36.2, "lon": 37.1, "desc_en": "Seleucus I founds Seleucid Empire in Asia", "desc_te": "సెల్యూకస్ I ఆసియాలో సెల్యూకిడ్ సామ్రాజ్యాన్ని స్థాపించాడు" },
        { "startYear": -332, "endYear": -332, "name_en": "Alexander the Great Conquers Jerusalem", "name_te": "అలెగ్జాండర్ యెరూషలేమును జయించాడు", "lat": 31.776, "lon": 35.234, "desc_en": "Alexander enters Jerusalem peacefully", "desc_te": "అలెగ్జాండర్ యెరూషలేములోకి శాంతియుతంగా ప్రవేశించాడు" },
        { "startYear": -400, "endYear": -300, "name_en": "Rise of the Pharisees and Sadducees", "name_te": "ఫరిసేయులు మరియు సద్దూకేయుల ఉద్భవం", "lat": 31.8, "lon": 35.2, "desc_en": "Jewish religious groups emerge in Judea", "desc_te": "యూదా దేశంలో మతపరమైన సమూహాలు ఉద్భవించాయి" },
        { "startYear": -400, "endYear": -300, "name_en": "Septuagint Translation Begins", "name_te": "సెప్ట్యుయింట్ అనువాదం ప్రారంభం", "lat": 31.8, "lon": 35.2, "desc_en": "Hebrew Scriptures translated to Greek in Alexandria", "desc_te": "హెబ్రూ గ్రంథాలు అలెగ్జాండ్రియాలో గ్రీకు భాషలోకి అనువదించబడ్డాయి" },
        { "startYear": -400, "endYear": -300, "name_en": "Spread of Hellenism in Judea", "name_te": "యూదాలో హెలెనిజం వ్యాప్తి", "lat": 31.8, "lon": 35.2, "desc_en": "Greek culture influences Judea", "desc_te": "యూదా దేశంపై గ్రీకు సంస్కృతి ప్రభావం చూపింది" },
        { "startYear": -400, "endYear": -300, "name_en": "Rise of Macedon & Philip II", "name_te": "మాసిడోనియా మరియు ఫిలిప్ II ఉద్భవం", "lat": 40.6401, "lon": 22.9444, "desc_en": "Philip II unites Macedon, prepares for expansion", "desc_te": "ఫిలిప్ II మాసిడోనియాను ఏకీకృతం చేసి విస్తరణకు సిద్ధం చేశాడు" },
        { "startYear": -399, "endYear": -322, "name_en": "Life of Aristotle", "name_te": "అరిస్టాటిల్ జీవితం", "lat": 40.6293, "lon": 22.9486, "desc_en": "Greek philosopher Aristotle lives and teaches", "desc_te": "గ్రీకు తత్వవేత్త అరిస్టాటిల్ జీవించి బోధించాడు" },
        { "startYear": -387, "endYear": -347, "name_en": "Plato's Academy in Athens", "name_te": "ఏథెన్స్‌లో ప్లేటో అకాడమీ", "lat": 37.9838, "lon": 23.7275, "desc_en": "Plato founds the Academy, first higher learning institution", "desc_te": "ప్లేటో అకాడమీని స్థాపించాడు, ఇది మొదటి ఉన్నత విద్యా సంస్థ" },
        { "startYear": -359, "endYear": -336, "name_en": "Reign of Philip II of Macedon", "name_te": "మాసిడోనియా ఫిలిప్ II పాలన", "lat": 40.6401, "lon": 22.9444, "desc_en": "Philip II rules Macedon, father of Alexander", "desc_te": "ఫిలిప్ II మాసిడోనియాను పాలించాడు, అలెగ్జాండర్ తండ్రి" },
        { "startYear": -336, "endYear": -323, "name_en": "Alexander the Great's Conquests", "name_te": "అలెగ్జాండర్ మహాన్ విజయాలు", "lat": 33, "lon": 44, "desc_en": "Alexander conquers much of the known world", "desc_te": "అలెగ్జాండర్ ప్రపంచాన్ని జయించాడు" },
        { "startYear": -332, "endYear": -332, "name_en": "Alexander the Great Conquers Egypt", "name_te": "అలెగ్జాండర్ ఈజిప్టును జయించాడు", "lat": 30.0444, "lon": 31.2357, "desc_en": "Alexander founds Alexandria in Egypt", "desc_te": "అలెగ్జాండర్ ఈజిప్టులో అలెగ్జాండ్రియాను స్థాపించాడు" },
        { "startYear": -323, "endYear": -300, "name_en": "Wars of the Diadochi", "name_te": "డయాడోచి యుద్ధాలు", "lat": 39.0742, "lon": 21.8243, "desc_en": "Successors of Alexander fight for control", "desc_te": "అలెగ్జాండర్ వారసులు అధికారం కోసం పోరాడారు" },
        { "startYear": -331, "endYear": -331, "name_en": "Battle of Gaugamela", "name_te": "గాగామెలా యుద్ధం", "lat": 36.365, "lon": 43.125, "desc_en": "Alexander defeats Darius III of Persia", "desc_te": "అలెగ్జాండర్ దారియస్ III (పర్షియా)ను ఓడించాడు" },
        { "startYear": -305, "endYear": -282, "name_en": "Ptolemaic Dynasty in Egypt", "name_te": "ఈజిప్టులో టోలెమిక్ రాజవంశం", "lat": 30.0444, "lon": 31.2357, "desc_en": "Ptolemy I rules Egypt after Alexander", "desc_te": "అలెగ్జాండర్ తరువాత టోలెమీ I ఈజిప్టును పాలించాడు" },
        { "startYear": -321, "endYear": -297, "name_en": "Chandragupta Maurya Founds Mauryan Empire", "name_te": "చంద్రగుప్త మౌర్యుడు మౌర్య సామ్రాజ్యాన్ని స్థాపించాడు", "lat": 25, "lon": 80, "desc_en": "Chandragupta Maurya establishes Mauryan Empire in India", "desc_te": "చంద్రగుప్త మౌర్యుడు భారతదేశంలో మౌర్య సామ్రాజ్యాన్ని స్థాపించాడు" },
        { "startYear": -300, "endYear": -300, "name_en": "Library of Alexandria Established", "name_te": "అలెగ్జాండ్రియా గ్రంథాలయం స్థాపన", "lat": 31.2001, "lon": 29.9187, "desc_en": "Famous Library of Alexandria founded in Egypt", "desc_te": "ఈజిప్టులో ప్రసిద్ధ అలెగ్జాండ్రియా గ్రంథాలయం స్థాపించబడింది" },
        { "startYear": -400, "endYear": -321, "name_en": "Magadha Kingdom (India)", "name_te": "మగధ రాజ్యం (భారతదేశం)", "lat": 25.0, "lon": 85.0, "desc_en": "Magadha rises as a major power in North India", "desc_te": "ఉత్తర భారతదేశంలో మగధ రాజ్యం ప్రధాన శక్తిగా ఎదిగింది" },
        { "startYear": -345, "endYear": -321, "name_en": "Nanda Dynasty (India)", "name_te": "నంద రాజవంశం (భారతదేశం)", "lat": 25.6, "lon": 85.1, "desc_en": "Nanda dynasty rules Magadha before Mauryas", "desc_te": "మౌర్యులకంటే ముందు మగధను నంద రాజవంశం పాలించింది" },
        { "startYear": -400, "endYear": -300, "name_en": "Kingdom of Axum (Africa)", "name_te": "అక్సుమ్ రాజ్యం (ఆఫ్రికా)", "lat": 14.1211, "lon": 38.7247, "desc_en": "Axum emerges in Ethiopia/Eritrea region", "desc_te": "ఎథియోపియా/ఎరిట్రియా ప్రాంతంలో అక్సుమ్ రాజ్యం ఉద్భవించింది" },
        { "startYear": -400, "endYear": -300, "name_en": "Zapotec Civilization (America)", "name_te": "జపోటెక్ నాగరికత (అమెరికా)", "lat": 17.0669, "lon": -96.7204, "desc_en": "Zapotecs flourish in Oaxaca, Mexico", "desc_te": "మెక్సికోలో జపోటెక్ నాగరికత వికసించింది" },
        { "startYear": -400, "endYear": -300, "name_en": "Warring States Period (China)", "name_te": "యుద్ధరాజ్యాల కాలం (చైనా)", "lat": 34.3, "lon": 108.9, "desc_en": "Chinese states compete for dominance", "desc_te": "చైనాలో అనేక రాజ్యాలు ఆధిపత్యం కోసం పోటీ పడ్డాయి" },
        { "startYear": -326, "endYear": -326, "name_en": "Battle of the Hydaspes (India)", "name_te": "హైడాస్పిస్ యుద్ధం (భారతదేశం)", "lat": 32.933, "lon": 73.733, "desc_en": "Alexander the Great defeats King Porus in Punjab", "desc_te": "అలెగ్జాండర్ మహాన్ పంజాబ్‌లో రాజా పోరస్‌ను ఓడించాడు" },
        { "startYear": -400, "endYear": -300, "name_en": "Celtic Tribes in Europe", "name_te": "యూరోప్‌లో సెల్టిక్ గోత్రాలు", "lat": 48.8566, "lon": 2.3522, "desc_en": "Celtic tribes expand across Western and Central Europe", "desc_te": "పశ్చిమ మరియు మధ్య యూరోప్‌లో సెల్టిక్ గోత్రాలు విస్తరించాయి" },
        { "startYear": -399, "endYear": -322, "name_en": "Life of Aristotle", "name_te": "అరిస్టాటిల్ జీవితం", "lat": 40.6293, "lon": 22.9486, "desc_en": "Greek philosopher Aristotle lives and teaches", "desc_te": "గ్రీకు తత్వవేత్త అరిస్టాటిల్ జీవించి బోధించాడు" },
        { "startYear": -336, "endYear": -323, "name_en": "Alexander the Great's Conquests", "name_te": "అలెగ్జాండర్ మహాన్ విజయాలు", "lat": 33, "lon": 44, "desc_en": "Alexander conquers much of the known world", "desc_te": "అలెగ్జాండర్ ప్రపంచాన్ని జయించాడు" },
        { "startYear": -305, "endYear": -281, "name_en": "Mauryan-Seleucid War", "name_te": "మౌర్య-సెల్యూకిడ్ యుద్ధం", "lat": 30, "lon": 70, "desc_en": "Conflict between Mauryan Empire and Seleucid Empire", "desc_te": "మౌర్య సామ్రాజ్యం మరియు సెల్యూకిడ్ సామ్రాజ్యం మధ్య యుద్ధం" },
        { "startYear": -321, "endYear": -297, "name_en": "Chandragupta Maurya Founds Mauryan Empire", "name_te": "చంద్రగుప్త మౌర్యుడు మౌర్య సామ్రాజ్యాన్ని స్థాపించాడు", "lat": 25, "lon": 80, "desc_en": "Chandragupta Maurya establishes Mauryan Empire in India", "desc_te": "చంద్రగుప్త మౌర్యుడు భారతదేశంలో మౌర్య సామ్రాజ్యాన్ని స్థాపించాడు" },
        { "startYear": -250, "endYear": -150, "name_en": "Mauryan Empire (India)", "name_te": "మౌర్య సామ్రాజ్యం", "lat": 25, "lon": 80, "desc_en": "Ashoka the Great", "desc_te": "మహా అశోకుడు" },
        { "startYear": -221, "endYear": -206, "name_en": "Qin Dynasty Unifies China", "name_te": "చిన్ రాజవంశం చైనాను ఏకీకృతం చేసింది", "lat": 34.3416, "lon": 108.9398, "desc_en": "First emperor Qin Shi Huang unifies China", "desc_te": "మొదటి చక్రవర్తి చిన్ షి హువాంగ్ చైనాను ఏకీకృతం చేశాడు" },
        { "startYear": -264, "endYear": -146, "name_en": "Punic Wars (Rome vs Carthage)", "name_te": "ప్యూనిక్ యుద్ధాలు (రోమ్ vs కార్తేజ్)", "lat": 41.9, "lon": 12.5, "desc_en": "Major wars between Rome and Carthage", "desc_te": "రోమ్ మరియు కార్తేజ్ మధ్య ప్రధాన యుద్ధాలు" },
        { "startYear": -221, "endYear": -207, "name_en": "Great Wall of China Construction Begins", "name_te": "చైనాలో గ్రేట్ వాల్ నిర్మాణం ప్రారంభం", "lat": 40.6769, "lon": 117.2319, "desc_en": "Initial construction of the Great Wall", "desc_te": "గ్రేట్ వాల్ నిర్మాణం ప్రారంభమైంది" },
        { "startYear": -232, "endYear": -232, "name_en": "Ashoka's Conversion to Buddhism", "name_te": "అశోకుడు బౌద్ధమతాన్ని స్వీకరించాడు", "lat": 25, "lon": 80, "desc_en": "Emperor Ashoka adopts Buddhism after Kalinga War", "desc_te": "కళింగ యుద్ధం తర్వాత అశోకుడు బౌద్ధమతాన్ని స్వీకరించాడు" },
        { "startYear": -399, "endYear": -322, "name_en": "Life of Aristotle", "name_te": "అరిస్టాటిల్ జీవితం", "lat": 40.6293, "lon": 22.9486, "desc_en": "Greek philosopher Aristotle lives and teaches", "desc_te": "గ్రీకు తత్వవేత్త అరిస్టాటిల్ జీవించి బోధించాడు" },
        { "startYear": -384, "endYear": -322, "name_en": "Life of Alexander the Great", "name_te": "అలెగ్జాండర్ మహాన్ జీవితం", "lat": 40.6401, "lon": 22.9444, "desc_en": "Alexander the Great, Macedonian king and conqueror", "desc_te": "అలెగ్జాండర్ మహాన్, మాసిడోనియన్ రాజు మరియు విజేత" },
        { "startYear": -323, "endYear": -30, "name_en": "Hellenistic Period", "name_te": "హెలెనిస్టిక్ కాలం", "lat": 37.9838, "lon": 23.7275, "desc_en": "Spread of Greek culture after Alexander", "desc_te": "అలెగ్జాండర్ తరువాత గ్రీకు సంస్కృతి వ్యాప్తి" },
        { "startYear": -305, "endYear": -281, "name_en": "Seleucid Empire in Persia & Asia", "name_te": "పర్షియా & ఆసియాలో సెల్యూకిడ్ సామ్రాజ్యం", "lat": 36.2, "lon": 37.1, "desc_en": "Seleucus I establishes Seleucid Empire", "desc_te": "సెల్యూకస్ I సెల్యూకిడ్ సామ్రాజ్యాన్ని స్థాపించాడు" },
        { "startYear": -273, "endYear": -232, "name_en": "Reign of Ashoka the Great (India)", "name_te": "మహా అశోకుడు పాలన (భారతదేశం)", "lat": 25, "lon": 80, "desc_en": "Ashoka rules Mauryan Empire, promotes Buddhism", "desc_te": "మహా అశోకుడు మౌర్య సామ్రాజ్యాన్ని పాలించాడు, బౌద్ధమతాన్ని ప్రోత్సహించాడు" },
        { "startYear": -221, "endYear": -206, "name_en": "Qin Shi Huang, First Emperor of China", "name_te": "చిన్ షి హువాంగ్, చైనా మొదటి చక్రవర్తి", "lat": 34.3416, "lon": 108.9398, "desc_en": "Qin Shi Huang unifies China, builds Great Wall", "desc_te": "చిన్ షి హువాంగ్ చైనాను ఏకీకృతం చేసి గ్రేట్ వాల్ నిర్మించాడు" },
        { "startYear": -218, "endYear": -201, "name_en": "Second Punic War (Rome vs Carthage)", "name_te": "రెండవ ప్యూనిక్ యుద్ధం (రోమ్ vs కార్తేజ్)", "lat": 41.9, "lon": 12.5, "desc_en": "Hannibal invades Italy, major battles with Rome", "desc_te": "హన్నిబల్ ఇటలీలోకి దూసుకెళ్లి, రోమ్‌తో ప్రధాన యుద్ధాలు" },
        { "startYear": -221, "endYear": -207, "name_en": "Terracotta Army Created (China)", "name_te": "టెర్రకోట ఆర్మీ నిర్మాణం (చైనా)", "lat": 34.3846, "lon": 109.2732, "desc_en": "Terracotta Army built for Qin Shi Huang's tomb", "desc_te": "చిన్ షి హువాంగ్ సమాధికి టెర్రకోట ఆర్మీ నిర్మించబడింది" },
        { "startYear": -246, "endYear": -146, "name_en": "Third Punic War (Rome vs Carthage)", "name_te": "మూడవ ప్యూనిక్ యుద్ధం (రోమ్ vs కార్తేజ్)", "lat": 36.8065, "lon": 10.1815, "desc_en": "Rome destroys Carthage, ends Punic Wars", "desc_te": "రోమ్ కార్తేజ్‌ను ధ్వంసం చేసి ప్యూనిక్ యుద్ధాలను ముగించింది" },
        { "startYear": -221, "endYear": -206, "name_en": "Standardization of Chinese Script", "name_te": "చైనా లిపి ప్రామాణీకరణ", "lat": 34.3416, "lon": 108.9398, "desc_en": "Qin Shi Huang standardizes writing, weights, measures", "desc_te": "చిన్ షి హువాంగ్ లిపి, బరువులు, కొలతలు ప్రామాణీకరించాడు" },
        { "startYear": -238, "endYear": -227, "name_en": "Reign of Ashoka's Edicts (India)", "name_te": "అశోకుని శాసనాల కాలం (భారతదేశం)", "lat": 21.15, "lon": 79.08, "desc_en": "Ashoka issues edicts on pillars and rocks across India", "desc_te": "అశోకుడు భారతదేశమంతటా శాసనాలు జారీ చేశాడు" },
        { "startYear": -221, "endYear": -210, "name_en": "Construction of Lingqu Canal (China)", "name_te": "లింగ్కూ కాలువ నిర్మాణం (చైనా)", "lat": 25.3, "lon": 110.0, "desc_en": "Ancient canal built for transport and irrigation", "desc_te": "పారిశ్రామిక, సాగునీటి కోసం ప్రాచీన కాలువ నిర్మాణం" },
        { "startYear": -300, "endYear": -200, "name_en": "Olmec Civilization Declines (Mesoamerica)", "name_te": "ఒల్మెక్ నాగరికత పతనం (మేసోఅమెరికా)", "lat": 18, "lon": -95, "desc_en": "Olmec civilization fades in Mexico", "desc_te": "మెక్సికోలో ఒల్మెక్ నాగరికత పతనమవుతోంది" },
        { "startYear": -221, "endYear": -202, "name_en": "Chu-Han Contention (China)", "name_te": "చు-హాన్ పోటీ (చైనా)", "lat": 34.3416, "lon": 108.9398, "desc_en": "Civil war leads to Han Dynasty", "desc_te": "పౌరయుద్ధం తర్వాత హాన్ రాజవంశం ఏర్పడింది" },
        { "startYear": -200, "endYear": -100, "name_en": "Bactrian Greek Kingdoms (Central Asia)", "name_te": "బాక్ట్రియన్ గ్రీకు రాజ్యాలు (మధ్య ఆసియా)", "lat": 36.7, "lon": 67.1, "desc_en": "Greek kingdoms flourish in Bactria after Alexander", "desc_te": "అలెగ్జాండర్ తర్వాత బాక్ట్రియాలో గ్రీకు రాజ్యాలు వికసించాయి" },
        { "startYear": -250, "endYear": -200, "name_en": "Satavahana Dynasty Rises (India)", "name_te": "సాతవాహన రాజవంశం (భారతదేశం)", "lat": 17.4, "lon": 78.5, "desc_en": "Satavahanas begin to rule Deccan region", "desc_te": "సాతవాహనులు డెక్కన్ ప్రాంతాన్ని పాలించడం ప్రారంభించారు" },
        { "startYear": -221, "endYear": -200, "name_en": "Expansion of Mayan Civilization (Central America)", "name_te": "మాయన్ నాగరికత విస్తరణ (మధ్య అమెరికా)", "lat": 17.0, "lon": -89.0, "desc_en": "Mayan cities and culture expand", "desc_te": "మాయన్ నగరాలు, సంస్కృతి విస్తరించాయి" },
        { "startYear": -400, "endYear": -300, "name_en": "Kingdom of Kush (Africa)", "name_te": "కుష్ రాజ్యం (ఆఫ్రికా)", "lat": 16.0, "lon": 32.5, "desc_en": "Kushite kingdom flourishes in Nubia (Sudan)", "desc_te": "న్యూబియాలో (సూడాన్) కుష్ రాజ్యం వికసించింది" },
        { "startYear": -400, "endYear": -300, "name_en": "Chavin Civilization (South America)", "name_te": "చావిన్ నాగరికత (దక్షిణ అమెరికా)", "lat": -9.594, "lon": -77.179, "desc_en": "Chavin culture thrives in Peru", "desc_te": "పెరూ లో చావిన్ నాగరికత వికసించింది" },
        { "startYear": -400, "endYear": -300, "name_en": "Scythian Kingdoms (Central Asia)", "name_te": "స్కిథియన్ రాజ్యాలు (మధ్య ఆసియా)", "lat": 48.0, "lon": 67.0, "desc_en": "Scythian nomads dominate the Eurasian steppes", "desc_te": "స్కిథియన్ గోత్రాలు యూరేషియన్ మైదానాలను ఆధిపత్యం వహించాయి" },
        { "startYear": -400, "endYear": -300, "name_en": "Sarmatian Tribes (Eastern Europe)", "name_te": "సర్మాటియన్ గోత్రాలు (తూర్పు యూరోప్)", "lat": 50.0, "lon": 40.0, "desc_en": "Sarmatians expand in Eastern Europe", "desc_te": "సర్మాటియన్ గోత్రాలు తూర్పు యూరోప్‌లో విస్తరించాయి" },
        { "startYear": -400, "endYear": -300, "name_en": "Yamato Japan (Legendary)", "name_te": "యమాటో జపాన్ (పౌరాణిక)", "lat": 34.7, "lon": 135.5, "desc_en": "Legendary early Yamato state in Japan", "desc_te": "జపాన్‌లో పౌరాణిక యమాటో రాజ్యం" },
        { "startYear": -400, "endYear": -300, "name_en": "Illyrian Kingdoms (Balkans)", "name_te": "ఇల్లిరియన్ రాజ్యాలు (బాల్కన్)", "lat": 42.0, "lon": 19.3, "desc_en": "Illyrian tribes form kingdoms in the Balkans", "desc_te": "బాల్కన్‌లో ఇల్లిరియన్ గోత్రాలు రాజ్యాలను ఏర్పరిచాయి" },
        { "startYear": -305, "endYear": -281, "name_en": "Mauryan-Seleucid War", "name_te": "మౌర్య-సెల్యూకిడ్ యుద్ధం", "lat": 30, "lon": 70, "desc_en": "Conflict between Mauryan Empire and Seleucid Empire", "desc_te": "మౌర్య సామ్రాజ్యం మరియు సెల్యూకిడ్ సామ్రాజ్యం మధ్య యుద్ధం" },
        { "startYear": -250, "endYear": -150, "name_en": "Mauryan Empire (India)", "name_te": "మౌర్య సామ్రాజ్యం", "lat": 25, "lon": 80, "desc_en": "Ashoka the Great", "desc_te": "మహా అశోకుడు" },
        { "startYear": -200, "endYear": 200, "name_en": "Han Dynasty (China)", "name_te": "హాన్ రాజవంశం (చైనా)", "lat": 34, "lon": 112, "desc_en": "Imperial expansion", "desc_te": "చైనాలో విస్తరణ" },
        { "startYear": -1500, "endYear": -400, "name_en": "Olmec Civilization (America)", "name_te": "ఒల్మెక్ నాగరికత (అమెరికా)", "lat": 18, "lon": -95, "desc_en": "Mesoamerican culture", "desc_te": "మేసోఅమెరికా సంస్కృతి" },
        { "startYear": -700, "endYear": -600, "name_en": "Rise of Greek City-States", "name_te": "గ్రీకు నగర-రాజ్యాల ఉద్భవం", "lat": 37.9838, "lon": 23.7275, "desc_en": "Athens, Sparta, and others emerge as powers", "desc_te": "అథెన్స్, స్పార్టా మొదలైనవి శక్తివంతమైన నగర-రాజ్యాలుగా ఎదిగాయి" },
        { "startYear": 476, "endYear": 1453, "name_en": "Byzantine Empire", "name_te": "బిజాంటైన్ సామ్రాజ్యం", "lat": 41.0082, "lon": 28.9784, "desc_en": "Eastern Roman Empire", "desc_te": "తూర్పు రోమన్ సామ్రాజ్యం" },
        { "startYear": 618, "endYear": 907, "name_en": "Tang Dynasty (China)", "name_te": "టాంగ్ రాజవంశం (చైనా)", "lat": 34.3416, "lon": 108.9398, "desc_en": "Golden age of China", "desc_te": "చైనాలో స్వర్ణయుగం" },
        { "startYear": 1206, "endYear": 1368, "name_en": "Mongol Empire", "name_te": "మంగోల్ సామ్రాజ్యం", "lat": 47.9212, "lon": 106.9186, "desc_en": "Largest contiguous empire", "desc_te": "అత్యంత విస్తృతమైన సామ్రాజ్యం" },
        { "startYear": 1492, "endYear": 1600, "name_en": "Age of Discovery", "name_te": "ఆవిష్కరణల యుగం", "lat": 38.7223, "lon": -9.1393, "desc_en": "European global exploration", "desc_te": "యూరోపియన్ ప్రపంచ అన్వేషణ" },
        { "startYear": 1500, "endYear": 1800, "name_en": "Mughal Empire (India)", "name_te": "ముగల్ సామ్రాజ్యం (భారతదేశం)", "lat": 28.6139, "lon": 77.209, "desc_en": "Major Indian empire", "desc_te": "భారతదేశంలో ప్రధాన సామ్రాజ్యం" },
        { "startYear": 1644, "endYear": 1912, "name_en": "Qing Dynasty (China)", "name_te": "చింగ్ రాజవంశం (చైనా)", "lat": 39.9042, "lon": 116.4074, "desc_en": "Last imperial dynasty of China", "desc_te": "చైనాలో చివరి సామ్రాజ్య రాజవంశం" },
        { "startYear": 1775, "endYear": 1783, "name_en": "American Revolution", "name_te": "అమెరికన్ విప్లవం", "lat": 39.9526, "lon": -75.1652, "desc_en": "Independence of USA", "desc_te": "అమెరికా స్వాతంత్ర్యం" },
        { "startYear": 1789, "endYear": 1799, "name_en": "French Revolution", "name_te": "ఫ్రెంచ్ విప్లవం", "lat": 48.8566, "lon": 2.3522, "desc_en": "Major European revolution", "desc_te": "యూరోపియన్ ప్రధాన విప్లవం" },
        { "startYear": 1804, "endYear": 1815, "name_en": "Napoleonic Wars", "name_te": "నపోలియన్ యుద్ధాలు", "lat": 48.8566, "lon": 2.3522, "desc_en": "Napoleon's European campaigns", "desc_te": "నపోలియన్ యూరోపియన్ యుద్ధాలు" },
        { "startYear": 1857, "endYear": 1858, "name_en": "Indian Rebellion of 1857", "name_te": "1857 భారత తిరుగుబాటు", "lat": 28.6139, "lon": 77.209, "desc_en": "First major revolt against British rule", "desc_te": "బ్రిటిష్ పాలనపై తొలి పెద్ద తిరుగుబాటు" },
        { "startYear": 1914, "endYear": 1918, "name_en": "World War I", "name_te": "ప్రపంచ యుద్ధం I", "lat": 50, "lon": 8, "desc_en": "Global war centered in Europe", "desc_te": "యూరోప్లో కేంద్రంగా ఉన్న ప్రపంచ యుద్ధం" },
        { "startYear": 1939, "endYear": 1945, "name_en": "World War II", "name_te": "ప్రపంచ యుద్ధం II", "lat": 52.52, "lon": 13.405, "desc_en": "Second global war", "desc_te": "రెండవ ప్రపంచ యుద్ధం" },
        { "startYear": 1947, "endYear": 1947, "name_en": "Indian Independence", "name_te": "భారత స్వాతంత్ర్యం", "lat": 28.6139, "lon": 77.209, "desc_en": "India gains independence from Britain", "desc_te": "భారతదేశం బ్రిటన్ నుండి స్వాతంత్ర్యం పొందింది" },
        { "startYear": 1948, "endYear": 1948, "name_en": "Establishment of Israel", "name_te": "ఇజ్రాయెల్ స్థాపన", "lat": 31.8, "lon": 35.2, "desc_en": "Modern state of Israel founded", "desc_te": "ఆధునిక ఇజ్రాయెల్ స్థాపించబడింది" },
        { "startYear": 1969, "endYear": 1969, "name_en": "First Moon Landing", "name_te": "మొదటి చంద్రుని ల్యాండింగ్", "lat": 0.674, "lon": 23.473, "desc_en": "Apollo 11 lands on the Moon", "desc_te": "అపోలో 11 చంద్రునిపై దిగింది" }
        
      ]
  }