[
	{
		"year": "-2900",
		"name_en": "Descendants of Adam Continue",
		"name_te": "ఆదాము సంతతి కొనసాగుతుంది",
		"location": {
			"lat": 33.3,
			"lng": 44.4
		},
		"desc_en": "The descendants of Adam continue to multiply and spread across the earth.",
		"desc_te": "ఆదాము సంతతి భూమి మీద విస్తరించసాగింది."
	},
	{
		"year": "-2890",
		"name_en": "Rise of Early Settlements",
		"name_te": "ప్రాథమిక నివాసాల ఉద్భవం",
		"location": {
			"lat": 32.5,
			"lng": 44.4
		},
		"desc_en": "Early settlements and communities begin to form in Mesopotamia.",
		"desc_te": "మెసొపొటేమియాలో ప్రాథమిక నివాసాలు ఏర్పడటం ప్రారంభమయ్యాయి."
	},
	{
		"year": "-2880",
		"name_en": "Birth of Mahalalel",
		"name_te": "మహలలేలు జననం",
		"location": {
			"lat": 33.3,
			"lng": 44.4
		},
		"desc_en": "Mahalalel is born to Kenan.",
		"desc_te": "మహలలేలు కేనాను కుమారుడిగా జన్మించాడు."
	},
	{
		"year": "-2870",
		"name_en": "Birth of Kenan",
		"name_te": "కేనాను జననం",
		"location": {
			"lat": 33.3,
			"lng": 44.4
		},
		"desc_en": "Kenan is born to Enosh.",
		"desc_te": "కేనాను ఏనోషుకు కుమారుడిగా జన్మించాడు."
	},
	{
		"year": "-2860",
		"name_en": "Birth of Enosh",
		"name_te": "ఏనోషు జననం",
		"location": {
			"lat": 33.3,
			"lng": 44.4
		},
		"desc_en": "Enosh is born to Seth.",
		"desc_te": "ఏనోషు శేతుకు కుమారుడిగా జన్మించాడు."
	},
	{
		"year": "-2850",
		"name_en": "People Begin to Call on the Lord",
		"name_te": "ప్రజలు యెహోవా నామాన్ని పిలవడం ప్రారంభించారు",
		"location": {
			"lat": 33.3,
			"lng": 44.4
		},
		"desc_en": "People begin to call on the name of the Lord.",
		"desc_te": "ప్రజలు యెహోవా నామాన్ని పిలవడం ప్రారంభించారు."
	},
	{
		"year": "-2840",
		"name_en": "Development of Early Professions",
		"name_te": "ప్రాథమిక వృత్తుల అభివృద్ధి",
		"location": {
			"lat": 33.3,
			"lng": 44.4
		},
		"desc_en": "The descendants of Cain develop professions such as herding, music, and metalworking.",
		"desc_te": "కాయిను సంతతి పశుపోషణ, సంగీతం, లోహ పనులు వంటి వృత్తులను అభివృద్ధి చేశారు."
	},
	{
		"year": "-2830",
		"name_en": "Spread of Mankind",
		"name_te": "మానవ జాతి వ్యాప్తి",
		"location": {
			"lat": 33.3,
			"lng": 44.4
		},
		"desc_en": "Mankind continues to spread and fill the earth.",
		"desc_te": "మానవ జాతి భూమి మీద వ్యాప్తి చెందుతుంది."
	},
	{
		"year": "-2820",
		"name_en": "Generations of Seth",
		"name_te": "శేతు తరాలు",
		"location": {
			"lat": 33.3,
			"lng": 44.4
		},
		"desc_en": "The generations of Seth are listed, showing the godly line.",
		"desc_te": "శేతు తరాలు, భక్తి మార్గాన్ని చూపిస్తూ, వివరించబడ్డాయి."
	},
	{
		"year": "-2810",
		"name_en": "Preparation for the Flood Era Begins",
		"name_te": "ప్రళయ యుగానికి సిద్ధత ప్రారంభం",
		"location": {
			"lat": 33.3,
			"lng": 44.4
		},
		"desc_en": "The world continues to grow in population and wickedness, setting the stage for the coming flood.",
		"desc_te": "ప్రపంచ జనాభా పెరిగి, దుష్టత పెరిగి, ప్రళయానికి పునాది పడింది."
	}
]