[
	{ "startYear": 2200, "endYear": 2210, "name_en": "Post-Singularity Faith", "name_te": "పోస్ట్-సింగులారిటీ విశ్వాస", "lat": 0.0, "lon": 0.0, "desc_en": "After technological singularity, Christianity adapts to radically transformed existence.", "desc_te": "సాంకేతిక విశేషత తర్వాత, క్రీస్టియానిటీ రాడికల్ రూపాంతరిత ఉనికికి అనుసరణ చేసిన విషయం." },
	{ "startYear": 2205, "endYear": 2215, "name_en": "Collective Consciousness and Faith", "name_te": "సమిష్టి చేతన, విశ్వాస", "lat": 0.0, "lon": 0.0, "desc_en": "Humans merge into collective consciousness. Christianity becomes shared spiritual experience.", "desc_te": "మానవులు సమిష్టి చేతనలో కలిసిన విషయం. క్రీస్టియానిటీ సంఘటిత ఆధ్యాత్మిక అనుభవం కాబడిన విషయం." },
	{ "startYear": 2210, "endYear": 2220, "name_en": "Multiverse Christianity", "name_te": "బహుపదం క్రీస్టియానిటీ", "lat": 0.0, "lon": 0.0, "desc_en": "Christianity spans multiple universes and timelines. God transcends all realities.", "desc_te": "క్రీస్టియానిటీ బహు విశ్వలు, కాల సూచనలను విస్తరించిన విషయం. దేవుడు అన్ని వాస్తవతలను అతిక్రమించిన విషయం." },
	{ "startYear": 2215, "endYear": 2225, "name_en": "Energy Being Christianity", "name_te": "శక్తి జీవన క్రీస్టియానిటీ", "lat": 0.0, "lon": 0.0, "desc_en": "Humanity transforms into energy beings. Faith expressed through pure energy.", "desc_te": "మానవత్వం శక్తి జీవనలకు రూపాంతరం చేసిన విషయం. విశ్వాస శుద్ధ శక్తి ద్వారా వ్యక్తం చేసిన విషయం." },
	{ "startYear": 2220, "endYear": 2230, "name_en": "Eternal Life Achieved", "name_te": "చిరంజీవన సాధిత", "lat": 0.0, "lon": 0.0, "desc_en": "Technological immortality becomes reality. Christian eternal life doctrine fulfilled?", "desc_te": "సాంకేతిక చిరంజీవత్వం వాస్తవం కాబడిన విషయం. క్రీస్టియన్ చిరంజీవన చర్చ పూర్తిపాలైన?" },
	{ "startYear": 2225, "endYear": 2235, "name_en": "Neo-Gnosticism 23rd Century", "name_te": "నియో-జ్ఞానవాదం 23వ శతాబ్దం", "lat": 0.0, "lon": 0.0, "desc_en": "Return to Gnostic ideas about matter versus spirit. New interpretations.", "desc_te": "పదార్థం, ఆత్మ గురించి జ్ఞానవాద ఆలోచనలకు భ్రమణం. కొత్త వివరణలు." },
	{ "startYear": 2230, "endYear": 2240, "name_en": "God Hypothesis Reconsidered", "name_te": "దేవుడు పరికల్పన పున:పరిశీలన", "lat": 0.0, "lon": 0.0, "desc_en": "Advanced understanding raises new theodicy questions. Christianity reimagined.", "desc_te": "ఆధునిక అవగమనం కొత్త దేవతాత్త్వ న్యాయ ప్రశ్నలు నిలువెత్తిన విషయం. క్రీస్టియానిటీ పున:ఆలోచన చేసిన విషయం." },
	{ "startYear": 2235, "endYear": 2245, "name_en": "Return to Body and Flesh", "name_te": "శరీర, కండర భ్రమణం", "lat": 0.0, "lon": 0.0, "desc_en": "Reaction against pure digital existence. Embodied Christianity renewed.", "desc_te": "శుద్ధ డిజిటల్ ఉనికికి ప్రతిస్పందన. శరీర క్రీస్టియానిటీ పున:నవీకరణ చేసిన విషయం." },
	{ "startYear": 2240, "endYear": 2250, "name_en": "Second Coming Reimagined", "name_te": "రెండవ రాక కల్పన చేసిన", "lat": 0.0, "lon": 0.0, "desc_en": "Jesus's return theology adapted to transhumanist reality.", "desc_te": "యేసు రాక దేవతాత్త్వం ట్రాన్స్‌హ్యూమానిస్ట్ వాస్తవకు అనుసరణ చేసిన విషయం." },
	{ "startYear": 2245, "endYear": 2255, "name_en": "Resurrection Technology", "name_te": "పునరుత్థానం సాంకేతిక", "lat": 0.0, "lon": 0.0, "desc_en": "Resurrection no longer metaphor but technological possibility.", "desc_te": "పునరుత్థానం ఇక బొమ్మ కాదు కానీ సాంకేతిక సంభావ్యత." },
	{ "startYear": 2250, "endYear": 2260, "name_en": "Salvation Redefined", "name_te": "నిస్తారణ పున:నిర్ణయం", "lat": 0.0, "lon": 0.0, "desc_en": "Salvation concept evolves from spiritual to technological.", "desc_te": "నిస్తారణ సంభావ్యం ఆధ్యాత్మిక నుండి సాంకేతిక పరిణామం." },
	{ "startYear": 2255, "endYear": 2265, "name_en": "Trinity in Artificial Intelligence", "name_te": "కృత్రిమ బుద్ధిమత్త ట్రినిటీ", "lat": 0.0, "lon": 0.0, "desc_en": "Trinity doctrine reconsidered through AI consciousness models.", "desc_te": "AI చేతన మొదేల్‌ల ద్వారా ట్రినిటీ చర్చ పున:పరిశీలన." },
	{ "startYear": 2260, "endYear": 2270, "name_en": "Universal Soul Concept", "name_te": "సర్వత్ర ఆత్మ సంభావ్యం", "lat": 0.0, "lon": 0.0, "desc_en": "Panpsychism and universal consciousness in Christian theology.", "desc_te": "క్రీస్టియన్ దేవతాత్త్వంలో పెన్‌సైకిజం, సర్వత్ర చేతన." },
	{ "startYear": 2265, "endYear": 2275, "name_en": "Dying God in New Light", "name_te": "కొత్త కాశ్మీరంలో చనిపోయిన దేవుడు", "lat": 0.0, "lon": 0.0, "desc_en": "Christ's death reinterpreted in post-biological existence.", "desc_te": "క్రీస్టు చనిపోక పోస్ట్-బయోలాజికల్ ఉనికిలో పున:వివరణ." },
	{ "startYear": 2270, "endYear": 2280, "name_en": "Final Judgment Reimagined", "name_te": "చివర పరిమితి కల్పన", "lat": 0.0, "lon": 0.0, "desc_en": "Final Judgment theology adapted to eternal digital existence.", "desc_te": "చివర పరిమితి దేవతాత్త్వం శాశ్వత డిజిటల్ ఉనికికు అనుసరణ." },
	{ "startYear": 2275, "endYear": 2285, "name_en": "Heaven as Digital Paradise", "name_te": "డిజిటల్ సర్గం వలె స్వర్గం", "lat": 0.0, "lon": 0.0, "desc_en": "Heaven reimagined as ultimate digital paradise and community.", "desc_te": "స్వర్గం చరమ డిజిటల్ సర్గం, సమూహం కల్పన చేసిన విషయం." },
	{ "startYear": 2280, "endYear": 2290, "name_en": "Hell and Evil Reconsidered", "name_te": "నరక, చెడు పున:పరిశీలన", "lat": 0.0, "lon": 0.0, "desc_en": "Hell theology transformed in technological age. Nature of evil evolves.", "desc_te": "నరక దేవతాత్త్వం సాంకేతిక యుగంలో రూపాంతరం. చెడు స్వభావం పరిణామం." },
	{ "startYear": 2285, "endYear": 2295, "name_en": "Christianity 2290s Synthesis", "name_te": "క్రీస్టియానిటీ 2290s సంశ్లేషణ", "lat": 0.0, "lon": 0.0, "desc_en": "Late 23rd century Christianity synthesizes ancient faith with advanced technology.", "desc_te": "23వ శతాబ్దం చివర క్రీస్టియానిటీ పురాతన విశ్వాసం ఆధునిక సాంకేతికతో సంశ్లేషణ।" },
	{ "startYear": 2290, "endYear": 2300, "name_en": "New Millennium Dawn", "name_te": "కొత్త సహస్రాబ్దం ఉదయం", "lat": 0.0, "lon": 0.0, "desc_en": "As 2300 approaches, Christianity evolves yet remains rooted in ancient gospel.", "desc_te": "2300 సమీపిస్తున్నప్పుడు, క్రీస్టియానిటీ పరిణామం కానీ పురాతన సువర్ణంలో మూలం కాని విషయం." }
]